<?xml version="1.0" encoding="UTF-8"?>
<gpx version="1.1" creator="kyototamba-karuta" xmlns="http://www.topografix.com/GPX/1/1">
<metadata><name>八木日吉周遊サイクリング（京都丹波サイクルルート）</name><desc>京都丹波サイクルルート 公式50kmコース（intermediate）。出典: 京都府 https://www.pref.kyoto.jp/doroke/news/bic-kyototamba.html ／ Ride with GPS route 37332751。走行は交通ルールに従い自己責任で。</desc><link href="https://www.pref.kyoto.jp/doroke/news/bic-kyototamba.html"/></metadata>
<trk><name>八木日吉周遊サイクリング</name><trkseg>
<trkpt lat="35.01785" lon="135.58572"><ele>90</ele></trkpt>
<trkpt lat="35.01681" lon="135.58696"><ele>89</ele></trkpt>
<trkpt lat="35.01888" lon="135.58907"><ele>88</ele></trkpt>
<trkpt lat="35.01965" lon="135.5895"><ele>89</ele></trkpt>
<trkpt lat="35.02076" lon="135.58967"><ele>92</ele></trkpt>
<trkpt lat="35.02291" lon="135.58912"><ele>95</ele></trkpt>
<trkpt lat="35.02509" lon="135.58747"><ele>96</ele></trkpt>
<trkpt lat="35.02573" lon="135.58723"><ele>98</ele></trkpt>
<trkpt lat="35.02717" lon="135.58724"><ele>102</ele></trkpt>
<trkpt lat="35.02816" lon="135.58747"><ele>97</ele></trkpt>
<trkpt lat="35.03023" lon="135.58724"><ele>94</ele></trkpt>
<trkpt lat="35.03095" lon="135.58649"><ele>94</ele></trkpt>
<trkpt lat="35.03227" lon="135.58324"><ele>93</ele></trkpt>
<trkpt lat="35.0326" lon="135.58286"><ele>92</ele></trkpt>
<trkpt lat="35.03321" lon="135.58258"><ele>91</ele></trkpt>
<trkpt lat="35.0403" lon="135.5825"><ele>118</ele></trkpt>
<trkpt lat="35.0416" lon="135.58278"><ele>122</ele></trkpt>
<trkpt lat="35.0434" lon="135.58356"><ele>128</ele></trkpt>
<trkpt lat="35.04654" lon="135.58367"><ele>129</ele></trkpt>
<trkpt lat="35.04742" lon="135.58307"><ele>127</ele></trkpt>
<trkpt lat="35.04784" lon="135.5825"><ele>124</ele></trkpt>
<trkpt lat="35.05051" lon="135.58021"><ele>120</ele></trkpt>
<trkpt lat="35.05071" lon="135.58034"><ele>122</ele></trkpt>
<trkpt lat="35.05305" lon="135.57945"><ele>121</ele></trkpt>
<trkpt lat="35.05559" lon="135.57935"><ele>122</ele></trkpt>
<trkpt lat="35.05716" lon="135.57855"><ele>124</ele></trkpt>
<trkpt lat="35.05818" lon="135.57827"><ele>125</ele></trkpt>
<trkpt lat="35.05855" lon="135.57754"><ele>119</ele></trkpt>
<trkpt lat="35.05855" lon="135.57754"><ele>119</ele></trkpt>
<trkpt lat="35.05725" lon="135.57622"><ele>105</ele></trkpt>
<trkpt lat="35.05737" lon="135.57138"><ele>101</ele></trkpt>
<trkpt lat="35.05753" lon="135.57076"><ele>100</ele></trkpt>
<trkpt lat="35.05715" lon="135.56968"><ele>101</ele></trkpt>
<trkpt lat="35.05724" lon="135.56927"><ele>101</ele></trkpt>
<trkpt lat="35.05724" lon="135.56927"><ele>101</ele></trkpt>
<trkpt lat="35.06342" lon="135.56662"><ele>109</ele></trkpt>
<trkpt lat="35.06445" lon="135.56665"><ele>109</ele></trkpt>
<trkpt lat="35.06445" lon="135.56665"><ele>109</ele></trkpt>
<trkpt lat="35.06606" lon="135.56734"><ele>102</ele></trkpt>
<trkpt lat="35.06687" lon="135.56746"><ele>102</ele></trkpt>
<trkpt lat="35.07254" lon="135.56588"><ele>114</ele></trkpt>
<trkpt lat="35.07508" lon="135.56597"><ele>118</ele></trkpt>
<trkpt lat="35.08219" lon="135.56564"><ele>142</ele></trkpt>
<trkpt lat="35.08314" lon="135.56502"><ele>142</ele></trkpt>
<trkpt lat="35.08334" lon="135.56456"><ele>140</ele></trkpt>
<trkpt lat="35.08334" lon="135.56456"><ele>140</ele></trkpt>
<trkpt lat="35.08406" lon="135.56467"><ele>143</ele></trkpt>
<trkpt lat="35.08406" lon="135.56467"><ele>143</ele></trkpt>
<trkpt lat="35.08707" lon="135.56239"><ele>138</ele></trkpt>
<trkpt lat="35.0875" lon="135.56043"><ele>132</ele></trkpt>
<trkpt lat="35.08903" lon="135.5587"><ele>132</ele></trkpt>
<trkpt lat="35.08903" lon="135.5587"><ele>132</ele></trkpt>
<trkpt lat="35.08969" lon="135.55936"><ele>139</ele></trkpt>
<trkpt lat="35.09251" lon="135.55939"><ele>150</ele></trkpt>
<trkpt lat="35.09373" lon="135.55994"><ele>165</ele></trkpt>
<trkpt lat="35.0944" lon="135.56055"><ele>180</ele></trkpt>
<trkpt lat="35.09509" lon="135.56032"><ele>174</ele></trkpt>
<trkpt lat="35.09601" lon="135.56054"><ele>182</ele></trkpt>
<trkpt lat="35.09799" lon="135.56193"><ele>205</ele></trkpt>
<trkpt lat="35.09871" lon="135.56201"><ele>208</ele></trkpt>
<trkpt lat="35.10028" lon="135.56259"><ele>220</ele></trkpt>
<trkpt lat="35.10147" lon="135.56389"><ele>247</ele></trkpt>
<trkpt lat="35.10149" lon="135.56327"><ele>247</ele></trkpt>
<trkpt lat="35.10107" lon="135.56263"><ele>235</ele></trkpt>
<trkpt lat="35.10105" lon="135.56229"><ele>233</ele></trkpt>
<trkpt lat="35.10211" lon="135.56153"><ele>260</ele></trkpt>
<trkpt lat="35.10269" lon="135.56133"><ele>276</ele></trkpt>
<trkpt lat="35.10269" lon="135.56118"><ele>276</ele></trkpt>
<trkpt lat="35.10224" lon="135.56092"><ele>268</ele></trkpt>
<trkpt lat="35.10204" lon="135.56051"><ele>283</ele></trkpt>
<trkpt lat="35.10171" lon="135.56081"><ele>268</ele></trkpt>
<trkpt lat="35.10133" lon="135.56065"><ele>280</ele></trkpt>
<trkpt lat="35.10111" lon="135.56091"><ele>271</ele></trkpt>
<trkpt lat="35.1003" lon="135.56097"><ele>264</ele></trkpt>
<trkpt lat="35.09994" lon="135.55984"><ele>311</ele></trkpt>
<trkpt lat="35.09862" lon="135.55993"><ele>282</ele></trkpt>
<trkpt lat="35.09813" lon="135.55923"><ele>283</ele></trkpt>
<trkpt lat="35.09813" lon="135.55923"><ele>283</ele></trkpt>
<trkpt lat="35.09729" lon="135.55908"><ele>267</ele></trkpt>
<trkpt lat="35.09817" lon="135.55904"><ele>280</ele></trkpt>
<trkpt lat="35.09817" lon="135.55904"><ele>280</ele></trkpt>
<trkpt lat="35.0987" lon="135.55972"><ele>287</ele></trkpt>
<trkpt lat="35.09992" lon="135.55928"><ele>329</ele></trkpt>
<trkpt lat="35.10058" lon="135.55995"><ele>319</ele></trkpt>
<trkpt lat="35.1008" lon="135.55932"><ele>343</ele></trkpt>
<trkpt lat="35.10125" lon="135.55922"><ele>340</ele></trkpt>
<trkpt lat="35.10142" lon="135.55865"><ele>356</ele></trkpt>
<trkpt lat="35.10192" lon="135.55842"><ele>364</ele></trkpt>
<trkpt lat="35.10312" lon="135.55923"><ele>356</ele></trkpt>
<trkpt lat="35.10382" lon="135.55892"><ele>365</ele></trkpt>
<trkpt lat="35.10435" lon="135.55905"><ele>373</ele></trkpt>
<trkpt lat="35.1047" lon="135.55961"><ele>373</ele></trkpt>
<trkpt lat="35.10512" lon="135.55972"><ele>380</ele></trkpt>
<trkpt lat="35.10547" lon="135.56011"><ele>377</ele></trkpt>
<trkpt lat="35.10602" lon="135.56004"><ele>379</ele></trkpt>
<trkpt lat="35.10655" lon="135.56072"><ele>378</ele></trkpt>
<trkpt lat="35.10682" lon="135.56254"><ele>394</ele></trkpt>
<trkpt lat="35.10743" lon="135.5633"><ele>400</ele></trkpt>
<trkpt lat="35.10738" lon="135.56512"><ele>400</ele></trkpt>
<trkpt lat="35.10784" lon="135.56606"><ele>386</ele></trkpt>
<trkpt lat="35.10823" lon="135.56767"><ele>368</ele></trkpt>
<trkpt lat="35.10894" lon="135.56881"><ele>362</ele></trkpt>
<trkpt lat="35.10898" lon="135.56959"><ele>354</ele></trkpt>
<trkpt lat="35.10936" lon="135.57009"><ele>355</ele></trkpt>
<trkpt lat="35.1098" lon="135.57246"><ele>351</ele></trkpt>
<trkpt lat="35.11035" lon="135.57274"><ele>351</ele></trkpt>
<trkpt lat="35.11125" lon="135.57392"><ele>358</ele></trkpt>
<trkpt lat="35.11125" lon="135.57392"><ele>358</ele></trkpt>
<trkpt lat="35.11203" lon="135.57336"><ele>364</ele></trkpt>
<trkpt lat="35.11353" lon="135.57293"><ele>372</ele></trkpt>
<trkpt lat="35.11431" lon="135.57128"><ele>361</ele></trkpt>
<trkpt lat="35.11404" lon="135.56936"><ele>342</ele></trkpt>
<trkpt lat="35.11423" lon="135.56867"><ele>336</ele></trkpt>
<trkpt lat="35.11574" lon="135.56779"><ele>332</ele></trkpt>
<trkpt lat="35.11663" lon="135.56657"><ele>312</ele></trkpt>
<trkpt lat="35.11828" lon="135.56506"><ele>314</ele></trkpt>
<trkpt lat="35.12071" lon="135.56371"><ele>295</ele></trkpt>
<trkpt lat="35.12144" lon="135.56244"><ele>283</ele></trkpt>
<trkpt lat="35.12164" lon="135.56099"><ele>260</ele></trkpt>
<trkpt lat="35.12213" lon="135.56004"><ele>256</ele></trkpt>
<trkpt lat="35.12343" lon="135.55983"><ele>268</ele></trkpt>
<trkpt lat="35.12488" lon="135.55923"><ele>267</ele></trkpt>
<trkpt lat="35.12572" lon="135.55937"><ele>265</ele></trkpt>
<trkpt lat="35.12662" lon="135.5586"><ele>247</ele></trkpt>
<trkpt lat="35.12815" lon="135.55836"><ele>241</ele></trkpt>
<trkpt lat="35.12945" lon="135.55856"><ele>216</ele></trkpt>
<trkpt lat="35.12976" lon="135.55836"><ele>211</ele></trkpt>
<trkpt lat="35.13031" lon="135.55733"><ele>219</ele></trkpt>
<trkpt lat="35.13154" lon="135.55733"><ele>199</ele></trkpt>
<trkpt lat="35.13166" lon="135.55694"><ele>198</ele></trkpt>
<trkpt lat="35.13234" lon="135.5564"><ele>212</ele></trkpt>
<trkpt lat="35.13503" lon="135.55646"><ele>217</ele></trkpt>
<trkpt lat="35.13635" lon="135.55599"><ele>233</ele></trkpt>
<trkpt lat="35.1361" lon="135.55533"><ele>219</ele></trkpt>
<trkpt lat="35.1365" lon="135.55429"><ele>228</ele></trkpt>
<trkpt lat="35.13654" lon="135.55242"><ele>232</ele></trkpt>
<trkpt lat="35.13605" lon="135.55033"><ele>207</ele></trkpt>
<trkpt lat="35.13641" lon="135.5492"><ele>215</ele></trkpt>
<trkpt lat="35.13583" lon="135.5481"><ele>206</ele></trkpt>
<trkpt lat="35.13664" lon="135.54595"><ele>207</ele></trkpt>
<trkpt lat="35.13734" lon="135.54605"><ele>224</ele></trkpt>
<trkpt lat="35.13746" lon="135.54547"><ele>210</ele></trkpt>
<trkpt lat="35.138" lon="135.54531"><ele>220</ele></trkpt>
<trkpt lat="35.13811" lon="135.54485"><ele>212</ele></trkpt>
<trkpt lat="35.13924" lon="135.54399"><ele>213</ele></trkpt>
<trkpt lat="35.13916" lon="135.5433"><ele>214</ele></trkpt>
<trkpt lat="35.13822" lon="135.54259"><ele>225</ele></trkpt>
<trkpt lat="35.13772" lon="135.54142"><ele>219</ele></trkpt>
<trkpt lat="35.13792" lon="135.5407"><ele>215</ele></trkpt>
<trkpt lat="35.13843" lon="135.5402"><ele>213</ele></trkpt>
<trkpt lat="35.13903" lon="135.53996"><ele>207</ele></trkpt>
<trkpt lat="35.1386" lon="135.53726"><ele>209</ele></trkpt>
<trkpt lat="35.13755" lon="135.53748"><ele>216</ele></trkpt>
<trkpt lat="35.13687" lon="135.53818"><ele>215</ele></trkpt>
<trkpt lat="35.13642" lon="135.53824"><ele>221</ele></trkpt>
<trkpt lat="35.1358" lon="135.53868"><ele>218</ele></trkpt>
<trkpt lat="35.13539" lon="135.53869"><ele>222</ele></trkpt>
<trkpt lat="35.1347" lon="135.53933"><ele>209</ele></trkpt>
<trkpt lat="35.13226" lon="135.53967"><ele>217</ele></trkpt>
<trkpt lat="35.1318" lon="135.53949"><ele>226</ele></trkpt>
<trkpt lat="35.13201" lon="135.53888"><ele>228</ele></trkpt>
<trkpt lat="35.13234" lon="135.53839"><ele>225</ele></trkpt>
<trkpt lat="35.13321" lon="135.53785"><ele>224</ele></trkpt>
<trkpt lat="35.13462" lon="135.53554"><ele>215</ele></trkpt>
<trkpt lat="35.13774" lon="135.53356"><ele>242</ele></trkpt>
<trkpt lat="35.13893" lon="135.53105"><ele>279</ele></trkpt>
<trkpt lat="35.13905" lon="135.53114"><ele>284</ele></trkpt>
<trkpt lat="35.13974" lon="135.52917"><ele>228</ele></trkpt>
<trkpt lat="35.14017" lon="135.52857"><ele>223</ele></trkpt>
<trkpt lat="35.14065" lon="135.52828"><ele>217</ele></trkpt>
<trkpt lat="35.14189" lon="135.52806"><ele>211</ele></trkpt>
<trkpt lat="35.14246" lon="135.52757"><ele>206</ele></trkpt>
<trkpt lat="35.14271" lon="135.52698"><ele>202</ele></trkpt>
<trkpt lat="35.14271" lon="135.52615"><ele>206</ele></trkpt>
<trkpt lat="35.14164" lon="135.5242"><ele>227</ele></trkpt>
<trkpt lat="35.14152" lon="135.52348"><ele>220</ele></trkpt>
<trkpt lat="35.14166" lon="135.52273"><ele>217</ele></trkpt>
<trkpt lat="35.14356" lon="135.5197"><ele>220</ele></trkpt>
<trkpt lat="35.14465" lon="135.5187"><ele>209</ele></trkpt>
<trkpt lat="35.14674" lon="135.51586"><ele>206</ele></trkpt>
<trkpt lat="35.1472" lon="135.51551"><ele>219</ele></trkpt>
<trkpt lat="35.14884" lon="135.51528"><ele>201</ele></trkpt>
<trkpt lat="35.15217" lon="135.51559"><ele>168</ele></trkpt>
<trkpt lat="35.15306" lon="135.51494"><ele>170</ele></trkpt>
<trkpt lat="35.15358" lon="135.51347"><ele>167</ele></trkpt>
<trkpt lat="35.15358" lon="135.51347"><ele>167</ele></trkpt>
<trkpt lat="35.15324" lon="135.51178"><ele>158</ele></trkpt>
<trkpt lat="35.15261" lon="135.51078"><ele>156</ele></trkpt>
<trkpt lat="35.15138" lon="135.5068"><ele>151</ele></trkpt>
<trkpt lat="35.15107" lon="135.50634"><ele>149</ele></trkpt>
<trkpt lat="35.14949" lon="135.50583"><ele>145</ele></trkpt>
<trkpt lat="35.14859" lon="135.5064"><ele>154</ele></trkpt>
<trkpt lat="35.14821" lon="135.50645"><ele>148</ele></trkpt>
<trkpt lat="35.14753" lon="135.50546"><ele>153</ele></trkpt>
<trkpt lat="35.14753" lon="135.50546"><ele>153</ele></trkpt>
<trkpt lat="35.14587" lon="135.50649"><ele>147</ele></trkpt>
<trkpt lat="35.1449" lon="135.50676"><ele>147</ele></trkpt>
<trkpt lat="35.14427" lon="135.50653"><ele>148</ele></trkpt>
<trkpt lat="35.14374" lon="135.50583"><ele>150</ele></trkpt>
<trkpt lat="35.14346" lon="135.50453"><ele>151</ele></trkpt>
<trkpt lat="35.14283" lon="135.50297"><ele>148</ele></trkpt>
<trkpt lat="35.1429" lon="135.5023"><ele>146</ele></trkpt>
<trkpt lat="35.14317" lon="135.50188"><ele>143</ele></trkpt>
<trkpt lat="35.14363" lon="135.50165"><ele>140</ele></trkpt>
<trkpt lat="35.14544" lon="135.50219"><ele>159</ele></trkpt>
<trkpt lat="35.14621" lon="135.50177"><ele>161</ele></trkpt>
<trkpt lat="35.14652" lon="135.50138"><ele>159</ele></trkpt>
<trkpt lat="35.14744" lon="135.49898"><ele>154</ele></trkpt>
<trkpt lat="35.14727" lon="135.49745"><ele>151</ele></trkpt>
<trkpt lat="35.14688" lon="135.49646"><ele>156</ele></trkpt>
<trkpt lat="35.14633" lon="135.49591"><ele>162</ele></trkpt>
<trkpt lat="35.14582" lon="135.49574"><ele>161</ele></trkpt>
<trkpt lat="35.14454" lon="135.49671"><ele>146</ele></trkpt>
<trkpt lat="35.14355" lon="135.49663"><ele>140</ele></trkpt>
<trkpt lat="35.1414" lon="135.49511"><ele>137</ele></trkpt>
<trkpt lat="35.13999" lon="135.49332"><ele>140</ele></trkpt>
<trkpt lat="35.13879" lon="135.4929"><ele>153</ele></trkpt>
<trkpt lat="35.13618" lon="135.49452"><ele>144</ele></trkpt>
<trkpt lat="35.13447" lon="135.49521"><ele>134</ele></trkpt>
<trkpt lat="35.13325" lon="135.49527"><ele>133</ele></trkpt>
<trkpt lat="35.13171" lon="135.49598"><ele>131</ele></trkpt>
<trkpt lat="35.13153" lon="135.49576"><ele>131</ele></trkpt>
<trkpt lat="35.13146" lon="135.49447"><ele>130</ele></trkpt>
<trkpt lat="35.12807" lon="135.49459"><ele>138</ele></trkpt>
<trkpt lat="35.12771" lon="135.49936"><ele>132</ele></trkpt>
<trkpt lat="35.12595" lon="135.50216"><ele>126</ele></trkpt>
<trkpt lat="35.12489" lon="135.50458"><ele>127</ele></trkpt>
<trkpt lat="35.12382" lon="135.50573"><ele>140</ele></trkpt>
<trkpt lat="35.1219" lon="135.5064"><ele>136</ele></trkpt>
<trkpt lat="35.11996" lon="135.50735"><ele>130</ele></trkpt>
<trkpt lat="35.11863" lon="135.50875"><ele>125</ele></trkpt>
<trkpt lat="35.11861" lon="135.50944"><ele>125</ele></trkpt>
<trkpt lat="35.11932" lon="135.51089"><ele>132</ele></trkpt>
<trkpt lat="35.11936" lon="135.51173"><ele>138</ele></trkpt>
<trkpt lat="35.1188" lon="135.51437"><ele>146</ele></trkpt>
<trkpt lat="35.11792" lon="135.51591"><ele>141</ele></trkpt>
<trkpt lat="35.11663" lon="135.51721"><ele>129</ele></trkpt>
<trkpt lat="35.11596" lon="135.51762"><ele>128</ele></trkpt>
<trkpt lat="35.11314" lon="135.51802"><ele>133</ele></trkpt>
<trkpt lat="35.11056" lon="135.51895"><ele>121</ele></trkpt>
<trkpt lat="35.10979" lon="135.5194"><ele>122</ele></trkpt>
<trkpt lat="35.10893" lon="135.52036"><ele>122</ele></trkpt>
<trkpt lat="35.10616" lon="135.52533"><ele>126</ele></trkpt>
<trkpt lat="35.10531" lon="135.52624"><ele>123</ele></trkpt>
<trkpt lat="35.10442" lon="135.5268"><ele>121</ele></trkpt>
<trkpt lat="35.10442" lon="135.5268"><ele>121</ele></trkpt>
<trkpt lat="35.10393" lon="135.52435"><ele>122</ele></trkpt>
<trkpt lat="35.1039" lon="135.52313"><ele>121</ele></trkpt>
<trkpt lat="35.10503" lon="135.51916"><ele>130</ele></trkpt>
<trkpt lat="35.10498" lon="135.51809"><ele>125</ele></trkpt>
<trkpt lat="35.10454" lon="135.51749"><ele>126</ele></trkpt>
<trkpt lat="35.10292" lon="135.51656"><ele>118</ele></trkpt>
<trkpt lat="35.10292" lon="135.51656"><ele>118</ele></trkpt>
<trkpt lat="35.1027" lon="135.51671"><ele>120</ele></trkpt>
<trkpt lat="35.10185" lon="135.51645"><ele>119</ele></trkpt>
<trkpt lat="35.09972" lon="135.51511"><ele>115</ele></trkpt>
<trkpt lat="35.09845" lon="135.51496"><ele>116</ele></trkpt>
<trkpt lat="35.09682" lon="135.51281"><ele>118</ele></trkpt>
<trkpt lat="35.09628" lon="135.51246"><ele>116</ele></trkpt>
<trkpt lat="35.09578" lon="135.51256"><ele>116</ele></trkpt>
<trkpt lat="35.09386" lon="135.51361"><ele>114</ele></trkpt>
<trkpt lat="35.09006" lon="135.51485"><ele>112</ele></trkpt>
<trkpt lat="35.08841" lon="135.5172"><ele>112</ele></trkpt>
<trkpt lat="35.08697" lon="135.51876"><ele>113</ele></trkpt>
<trkpt lat="35.08609" lon="135.5193"><ele>112</ele></trkpt>
<trkpt lat="35.08548" lon="135.52004"><ele>113</ele></trkpt>
<trkpt lat="35.08353" lon="135.5212"><ele>112</ele></trkpt>
<trkpt lat="35.0819" lon="135.52302"><ele>124</ele></trkpt>
<trkpt lat="35.0817" lon="135.52361"><ele>120</ele></trkpt>
<trkpt lat="35.08176" lon="135.52453"><ele>124</ele></trkpt>
<trkpt lat="35.08153" lon="135.52603"><ele>117</ele></trkpt>
<trkpt lat="35.08092" lon="135.52709"><ele>110</ele></trkpt>
<trkpt lat="35.08075" lon="135.52849"><ele>114</ele></trkpt>
<trkpt lat="35.08035" lon="135.52975"><ele>119</ele></trkpt>
<trkpt lat="35.07953" lon="135.53054"><ele>115</ele></trkpt>
<trkpt lat="35.07928" lon="135.53111"><ele>113</ele></trkpt>
<trkpt lat="35.07931" lon="135.53455"><ele>108</ele></trkpt>
<trkpt lat="35.07689" lon="135.53468"><ele>107</ele></trkpt>
<trkpt lat="35.07583" lon="135.53652"><ele>105</ele></trkpt>
<trkpt lat="35.07251" lon="135.53752"><ele>106</ele></trkpt>
<trkpt lat="35.07083" lon="135.53853"><ele>105</ele></trkpt>
<trkpt lat="35.0683" lon="135.54099"><ele>105</ele></trkpt>
<trkpt lat="35.06604" lon="135.54402"><ele>105</ele></trkpt>
<trkpt lat="35.0651" lon="135.54561"><ele>104</ele></trkpt>
<trkpt lat="35.06371" lon="135.54708"><ele>103</ele></trkpt>
<trkpt lat="35.06199" lon="135.54993"><ele>101</ele></trkpt>
<trkpt lat="35.06025" lon="135.55148"><ele>100</ele></trkpt>
<trkpt lat="35.05752" lon="135.55219"><ele>99</ele></trkpt>
<trkpt lat="35.05499" lon="135.55169"><ele>98</ele></trkpt>
<trkpt lat="35.054" lon="135.55167"><ele>98</ele></trkpt>
<trkpt lat="35.05259" lon="135.552"><ele>98</ele></trkpt>
<trkpt lat="35.05098" lon="135.5529"><ele>99</ele></trkpt>
<trkpt lat="35.04892" lon="135.55528"><ele>98</ele></trkpt>
<trkpt lat="35.04548" lon="135.55764"><ele>96</ele></trkpt>
<trkpt lat="35.04574" lon="135.55911"><ele>96</ele></trkpt>
<trkpt lat="35.04569" lon="135.56206"><ele>93</ele></trkpt>
<trkpt lat="35.04569" lon="135.56206"><ele>93</ele></trkpt>
<trkpt lat="35.03951" lon="135.56217"><ele>94</ele></trkpt>
<trkpt lat="35.0394" lon="135.56818"><ele>93</ele></trkpt>
<trkpt lat="35.0394" lon="135.56818"><ele>93</ele></trkpt>
<trkpt lat="35.0359" lon="135.56828"><ele>93</ele></trkpt>
<trkpt lat="35.03395" lon="135.56953"><ele>92</ele></trkpt>
<trkpt lat="35.02963" lon="135.56965"><ele>94</ele></trkpt>
<trkpt lat="35.02856" lon="135.57049"><ele>93</ele></trkpt>
<trkpt lat="35.02781" lon="135.57199"><ele>92</ele></trkpt>
<trkpt lat="35.02781" lon="135.57199"><ele>92</ele></trkpt>
<trkpt lat="35.02548" lon="135.57028"><ele>93</ele></trkpt>
<trkpt lat="35.02548" lon="135.57028"><ele>93</ele></trkpt>
<trkpt lat="35.0237" lon="135.57565"><ele>91</ele></trkpt>
<trkpt lat="35.02309" lon="135.57942"><ele>89</ele></trkpt>
<trkpt lat="35.02253" lon="135.58118"><ele>89</ele></trkpt>
<trkpt lat="35.02178" lon="135.58252"><ele>89</ele></trkpt>
<trkpt lat="35.02064" lon="135.5839"><ele>88</ele></trkpt>
<trkpt lat="35.01963" lon="135.58493"><ele>88</ele></trkpt>
<trkpt lat="35.01896" lon="135.58508"><ele>89</ele></trkpt>
<trkpt lat="35.01849" lon="135.58555"><ele>90</ele></trkpt>
</trkseg></trk></gpx>
