<?xml version="1.0" encoding="UTF-8"?>
<gpx version="1.1" creator="kyototamba-karuta" xmlns="http://www.topografix.com/GPX/1/1">
<metadata><name>京都丹波一周ロングライド（京都丹波サイクルルート）</name><desc>京都丹波サイクルルート 公式140kmコース（advanced）。出典: 京都府 https://www.pref.kyoto.jp/doroke/news/bic-kyototamba.html ／ Ride with GPS route 37332758。走行は交通ルールに従い自己責任で。</desc><link href="https://www.pref.kyoto.jp/doroke/news/bic-kyototamba.html"/></metadata>
<trk><name>京都丹波一周ロングライド</name><trkseg>
<trkpt lat="35.01798" lon="135.5854"><ele>90</ele></trkpt>
<trkpt lat="35.01687" lon="135.58701"><ele>89</ele></trkpt>
<trkpt lat="35.01898" lon="135.58914"><ele>88</ele></trkpt>
<trkpt lat="35.01989" lon="135.58957"><ele>89</ele></trkpt>
<trkpt lat="35.02087" lon="135.58966"><ele>93</ele></trkpt>
<trkpt lat="35.02289" lon="135.58911"><ele>95</ele></trkpt>
<trkpt lat="35.02544" lon="135.5873"><ele>97</ele></trkpt>
<trkpt lat="35.02606" lon="135.58719"><ele>99</ele></trkpt>
<trkpt lat="35.02924" lon="135.58745"><ele>91</ele></trkpt>
<trkpt lat="35.03052" lon="135.58708"><ele>95</ele></trkpt>
<trkpt lat="35.03099" lon="135.58643"><ele>94</ele></trkpt>
<trkpt lat="35.03226" lon="135.58327"><ele>93</ele></trkpt>
<trkpt lat="35.03321" lon="135.58257"><ele>91</ele></trkpt>
<trkpt lat="35.04006" lon="135.58247"><ele>117</ele></trkpt>
<trkpt lat="35.04161" lon="135.58277"><ele>122</ele></trkpt>
<trkpt lat="35.04311" lon="135.58348"><ele>127</ele></trkpt>
<trkpt lat="35.04658" lon="135.58362"><ele>128</ele></trkpt>
<trkpt lat="35.04742" lon="135.58307"><ele>127</ele></trkpt>
<trkpt lat="35.04784" lon="135.5825"><ele>124</ele></trkpt>
<trkpt lat="35.05046" lon="135.58026"><ele>121</ele></trkpt>
<trkpt lat="35.05046" lon="135.58026"><ele>121</ele></trkpt>
<trkpt lat="35.05081" lon="135.58032"><ele>122</ele></trkpt>
<trkpt lat="35.05301" lon="135.57947"><ele>121</ele></trkpt>
<trkpt lat="35.05559" lon="135.57935"><ele>122</ele></trkpt>
<trkpt lat="35.05716" lon="135.57855"><ele>124</ele></trkpt>
<trkpt lat="35.05818" lon="135.57827"><ele>125</ele></trkpt>
<trkpt lat="35.05855" lon="135.57754"><ele>119</ele></trkpt>
<trkpt lat="35.05855" lon="135.57754"><ele>119</ele></trkpt>
<trkpt lat="35.05725" lon="135.57622"><ele>105</ele></trkpt>
<trkpt lat="35.05737" lon="135.57138"><ele>101</ele></trkpt>
<trkpt lat="35.05753" lon="135.57076"><ele>100</ele></trkpt>
<trkpt lat="35.05715" lon="135.56968"><ele>101</ele></trkpt>
<trkpt lat="35.05724" lon="135.56927"><ele>101</ele></trkpt>
<trkpt lat="35.05724" lon="135.56927"><ele>101</ele></trkpt>
<trkpt lat="35.06361" lon="135.56658"><ele>110</ele></trkpt>
<trkpt lat="35.06445" lon="135.56665"><ele>109</ele></trkpt>
<trkpt lat="35.06612" lon="135.56737"><ele>102</ele></trkpt>
<trkpt lat="35.06691" lon="135.56746"><ele>102</ele></trkpt>
<trkpt lat="35.07276" lon="135.56585"><ele>115</ele></trkpt>
<trkpt lat="35.07516" lon="135.56594"><ele>118</ele></trkpt>
<trkpt lat="35.08218" lon="135.56561"><ele>142</ele></trkpt>
<trkpt lat="35.08309" lon="135.56502"><ele>141</ele></trkpt>
<trkpt lat="35.0833" lon="135.56451"><ele>139</ele></trkpt>
<trkpt lat="35.08405" lon="135.56464"><ele>142</ele></trkpt>
<trkpt lat="35.08405" lon="135.56464"><ele>142</ele></trkpt>
<trkpt lat="35.08706" lon="135.56238"><ele>138</ele></trkpt>
<trkpt lat="35.0874" lon="135.56057"><ele>133</ele></trkpt>
<trkpt lat="35.08901" lon="135.55868"><ele>132</ele></trkpt>
<trkpt lat="35.08969" lon="135.55936"><ele>139</ele></trkpt>
<trkpt lat="35.09251" lon="135.55939"><ele>150</ele></trkpt>
<trkpt lat="35.09373" lon="135.55994"><ele>165</ele></trkpt>
<trkpt lat="35.0944" lon="135.56055"><ele>180</ele></trkpt>
<trkpt lat="35.09509" lon="135.56032"><ele>174</ele></trkpt>
<trkpt lat="35.09601" lon="135.56054"><ele>182</ele></trkpt>
<trkpt lat="35.09799" lon="135.56193"><ele>205</ele></trkpt>
<trkpt lat="35.09871" lon="135.56201"><ele>208</ele></trkpt>
<trkpt lat="35.10028" lon="135.56259"><ele>220</ele></trkpt>
<trkpt lat="35.10147" lon="135.56389"><ele>247</ele></trkpt>
<trkpt lat="35.10149" lon="135.56327"><ele>247</ele></trkpt>
<trkpt lat="35.10107" lon="135.56263"><ele>235</ele></trkpt>
<trkpt lat="35.10105" lon="135.56229"><ele>233</ele></trkpt>
<trkpt lat="35.10211" lon="135.56153"><ele>260</ele></trkpt>
<trkpt lat="35.10269" lon="135.56133"><ele>276</ele></trkpt>
<trkpt lat="35.10269" lon="135.56118"><ele>276</ele></trkpt>
<trkpt lat="35.10224" lon="135.56092"><ele>268</ele></trkpt>
<trkpt lat="35.10204" lon="135.56051"><ele>283</ele></trkpt>
<trkpt lat="35.10171" lon="135.56081"><ele>268</ele></trkpt>
<trkpt lat="35.10133" lon="135.56065"><ele>280</ele></trkpt>
<trkpt lat="35.10111" lon="135.56091"><ele>271</ele></trkpt>
<trkpt lat="35.1003" lon="135.56097"><ele>264</ele></trkpt>
<trkpt lat="35.09994" lon="135.55984"><ele>311</ele></trkpt>
<trkpt lat="35.09862" lon="135.55993"><ele>282</ele></trkpt>
<trkpt lat="35.0982" lon="135.55929"><ele>283</ele></trkpt>
<trkpt lat="35.09772" lon="135.55912"><ele>279</ele></trkpt>
<trkpt lat="35.0977" lon="135.5589"><ele>274</ele></trkpt>
<trkpt lat="35.09808" lon="135.55893"><ele>276</ele></trkpt>
<trkpt lat="35.09866" lon="135.55971"><ele>287</ele></trkpt>
<trkpt lat="35.09992" lon="135.55928"><ele>329</ele></trkpt>
<trkpt lat="35.1003" lon="135.5595"><ele>329</ele></trkpt>
<trkpt lat="35.10054" lon="135.55995"><ele>318</ele></trkpt>
<trkpt lat="35.10073" lon="135.55983"><ele>326</ele></trkpt>
<trkpt lat="35.1008" lon="135.55932"><ele>343</ele></trkpt>
<trkpt lat="35.10125" lon="135.55922"><ele>340</ele></trkpt>
<trkpt lat="35.10142" lon="135.55865"><ele>356</ele></trkpt>
<trkpt lat="35.10192" lon="135.55842"><ele>364</ele></trkpt>
<trkpt lat="35.10312" lon="135.55923"><ele>356</ele></trkpt>
<trkpt lat="35.10382" lon="135.55892"><ele>365</ele></trkpt>
<trkpt lat="35.10435" lon="135.55905"><ele>373</ele></trkpt>
<trkpt lat="35.1047" lon="135.55961"><ele>373</ele></trkpt>
<trkpt lat="35.10512" lon="135.55972"><ele>380</ele></trkpt>
<trkpt lat="35.10547" lon="135.56011"><ele>377</ele></trkpt>
<trkpt lat="35.10602" lon="135.56004"><ele>379</ele></trkpt>
<trkpt lat="35.10655" lon="135.56072"><ele>378</ele></trkpt>
<trkpt lat="35.10682" lon="135.56254"><ele>394</ele></trkpt>
<trkpt lat="35.10743" lon="135.5633"><ele>400</ele></trkpt>
<trkpt lat="35.10738" lon="135.56512"><ele>400</ele></trkpt>
<trkpt lat="35.10784" lon="135.56606"><ele>386</ele></trkpt>
<trkpt lat="35.10823" lon="135.56767"><ele>368</ele></trkpt>
<trkpt lat="35.10894" lon="135.56881"><ele>362</ele></trkpt>
<trkpt lat="35.10898" lon="135.56959"><ele>354</ele></trkpt>
<trkpt lat="35.10936" lon="135.57009"><ele>355</ele></trkpt>
<trkpt lat="35.1098" lon="135.57246"><ele>351</ele></trkpt>
<trkpt lat="35.11035" lon="135.57274"><ele>351</ele></trkpt>
<trkpt lat="35.11129" lon="135.57397"><ele>358</ele></trkpt>
<trkpt lat="35.11129" lon="135.57397"><ele>358</ele></trkpt>
<trkpt lat="35.11206" lon="135.57341"><ele>364</ele></trkpt>
<trkpt lat="35.1134" lon="135.57308"><ele>369</ele></trkpt>
<trkpt lat="35.11382" lon="135.57269"><ele>375</ele></trkpt>
<trkpt lat="35.11434" lon="135.57143"><ele>364</ele></trkpt>
<trkpt lat="35.1141" lon="135.56944"><ele>342</ele></trkpt>
<trkpt lat="35.11426" lon="135.56872"><ele>337</ele></trkpt>
<trkpt lat="35.11592" lon="135.56771"><ele>332</ele></trkpt>
<trkpt lat="35.11673" lon="135.56655"><ele>313</ele></trkpt>
<trkpt lat="35.11839" lon="135.56505"><ele>315</ele></trkpt>
<trkpt lat="35.12075" lon="135.56376"><ele>296</ele></trkpt>
<trkpt lat="35.12152" lon="135.56238"><ele>282</ele></trkpt>
<trkpt lat="35.12169" lon="135.56096"><ele>260</ele></trkpt>
<trkpt lat="35.12217" lon="135.56"><ele>256</ele></trkpt>
<trkpt lat="35.12349" lon="135.55988"><ele>269</ele></trkpt>
<trkpt lat="35.12393" lon="135.55953"><ele>266</ele></trkpt>
<trkpt lat="35.1259" lon="135.55908"><ele>255</ele></trkpt>
<trkpt lat="35.12692" lon="135.55844"><ele>243</ele></trkpt>
<trkpt lat="35.12838" lon="135.55828"><ele>242</ele></trkpt>
<trkpt lat="35.1295" lon="135.55856"><ele>215</ele></trkpt>
<trkpt lat="35.1303" lon="135.55732"><ele>220</ele></trkpt>
<trkpt lat="35.1315" lon="135.55729"><ele>199</ele></trkpt>
<trkpt lat="35.13169" lon="135.55689"><ele>199</ele></trkpt>
<trkpt lat="35.13235" lon="135.55639"><ele>212</ele></trkpt>
<trkpt lat="35.13467" lon="135.55648"><ele>211</ele></trkpt>
<trkpt lat="35.13633" lon="135.55616"><ele>238</ele></trkpt>
<trkpt lat="35.13611" lon="135.55534"><ele>219</ele></trkpt>
<trkpt lat="35.13652" lon="135.55438"><ele>230</ele></trkpt>
<trkpt lat="35.13656" lon="135.55256"><ele>231</ele></trkpt>
<trkpt lat="35.13606" lon="135.55036"><ele>208</ele></trkpt>
<trkpt lat="35.13641" lon="135.54911"><ele>216</ele></trkpt>
<trkpt lat="35.13585" lon="135.54806"><ele>207</ele></trkpt>
<trkpt lat="35.13665" lon="135.54594"><ele>207</ele></trkpt>
<trkpt lat="35.13732" lon="135.54601"><ele>222</ele></trkpt>
<trkpt lat="35.13747" lon="135.54545"><ele>210</ele></trkpt>
<trkpt lat="35.13796" lon="135.5453"><ele>219</ele></trkpt>
<trkpt lat="35.13814" lon="135.5448"><ele>211</ele></trkpt>
<trkpt lat="35.13904" lon="135.54423"><ele>210</ele></trkpt>
<trkpt lat="35.13927" lon="135.54381"><ele>214</ele></trkpt>
<trkpt lat="35.13914" lon="135.54325"><ele>215</ele></trkpt>
<trkpt lat="35.13822" lon="135.5425"><ele>228</ele></trkpt>
<trkpt lat="35.13772" lon="135.5414"><ele>219</ele></trkpt>
<trkpt lat="35.13795" lon="135.54068"><ele>216</ele></trkpt>
<trkpt lat="35.13848" lon="135.54016"><ele>212</ele></trkpt>
<trkpt lat="35.13904" lon="135.53996"><ele>207</ele></trkpt>
<trkpt lat="35.13904" lon="135.53996"><ele>207</ele></trkpt>
<trkpt lat="35.13862" lon="135.53726"><ele>209</ele></trkpt>
<trkpt lat="35.13862" lon="135.53726"><ele>209</ele></trkpt>
<trkpt lat="35.13749" lon="135.5375"><ele>217</ele></trkpt>
<trkpt lat="35.13688" lon="135.53814"><ele>216</ele></trkpt>
<trkpt lat="35.13577" lon="135.53867"><ele>218</ele></trkpt>
<trkpt lat="35.13539" lon="135.53868"><ele>222</ele></trkpt>
<trkpt lat="35.13507" lon="135.53914"><ele>206</ele></trkpt>
<trkpt lat="35.13467" lon="135.53934"><ele>210</ele></trkpt>
<trkpt lat="35.1323" lon="135.53967"><ele>217</ele></trkpt>
<trkpt lat="35.13179" lon="135.53943"><ele>227</ele></trkpt>
<trkpt lat="35.13179" lon="135.53943"><ele>227</ele></trkpt>
<trkpt lat="35.13217" lon="135.53851"><ele>224</ele></trkpt>
<trkpt lat="35.13331" lon="135.53769"><ele>220</ele></trkpt>
<trkpt lat="35.13461" lon="135.5355"><ele>217</ele></trkpt>
<trkpt lat="35.13746" lon="135.53376"><ele>229</ele></trkpt>
<trkpt lat="35.13818" lon="135.53313"><ele>264</ele></trkpt>
<trkpt lat="35.13863" lon="135.53241"><ele>281</ele></trkpt>
<trkpt lat="35.13955" lon="135.52961"><ele>240</ele></trkpt>
<trkpt lat="35.14008" lon="135.52867"><ele>224</ele></trkpt>
<trkpt lat="35.14065" lon="135.52828"><ele>217</ele></trkpt>
<trkpt lat="35.14189" lon="135.52806"><ele>211</ele></trkpt>
<trkpt lat="35.14246" lon="135.52757"><ele>206</ele></trkpt>
<trkpt lat="35.14271" lon="135.52698"><ele>202</ele></trkpt>
<trkpt lat="35.14271" lon="135.52615"><ele>206</ele></trkpt>
<trkpt lat="35.14164" lon="135.5242"><ele>227</ele></trkpt>
<trkpt lat="35.14152" lon="135.52348"><ele>220</ele></trkpt>
<trkpt lat="35.14166" lon="135.52273"><ele>217</ele></trkpt>
<trkpt lat="35.14356" lon="135.5197"><ele>220</ele></trkpt>
<trkpt lat="35.14465" lon="135.5187"><ele>209</ele></trkpt>
<trkpt lat="35.14686" lon="135.51572"><ele>213</ele></trkpt>
<trkpt lat="35.14737" lon="135.51547"><ele>216</ele></trkpt>
<trkpt lat="35.14884" lon="135.51528"><ele>201</ele></trkpt>
<trkpt lat="35.15171" lon="135.51564"><ele>167</ele></trkpt>
<trkpt lat="35.15232" lon="135.51554"><ele>169</ele></trkpt>
<trkpt lat="35.15315" lon="135.5148"><ele>170</ele></trkpt>
<trkpt lat="35.15364" lon="135.51339"><ele>165</ele></trkpt>
<trkpt lat="35.15438" lon="135.51353"><ele>157</ele></trkpt>
<trkpt lat="35.15566" lon="135.51336"><ele>168</ele></trkpt>
<trkpt lat="35.15669" lon="135.51386"><ele>176</ele></trkpt>
<trkpt lat="35.15771" lon="135.51385"><ele>178</ele></trkpt>
<trkpt lat="35.15872" lon="135.51493"><ele>176</ele></trkpt>
<trkpt lat="35.16003" lon="135.51498"><ele>176</ele></trkpt>
<trkpt lat="35.16676" lon="135.5119"><ele>164</ele></trkpt>
<trkpt lat="35.16741" lon="135.51199"><ele>171</ele></trkpt>
<trkpt lat="35.16827" lon="135.51243"><ele>167</ele></trkpt>
<trkpt lat="35.16986" lon="135.51393"><ele>174</ele></trkpt>
<trkpt lat="35.17264" lon="135.51489"><ele>163</ele></trkpt>
<trkpt lat="35.17446" lon="135.5146"><ele>163</ele></trkpt>
<trkpt lat="35.17733" lon="135.51292"><ele>175</ele></trkpt>
<trkpt lat="35.17865" lon="135.51272"><ele>184</ele></trkpt>
<trkpt lat="35.1791" lon="135.5129"><ele>178</ele></trkpt>
<trkpt lat="35.18016" lon="135.51405"><ele>163</ele></trkpt>
<trkpt lat="35.1812" lon="135.51481"><ele>165</ele></trkpt>
<trkpt lat="35.1822" lon="135.51487"><ele>168</ele></trkpt>
<trkpt lat="35.18304" lon="135.51415"><ele>178</ele></trkpt>
<trkpt lat="35.18366" lon="135.51418"><ele>172</ele></trkpt>
<trkpt lat="35.18633" lon="135.51659"><ele>170</ele></trkpt>
<trkpt lat="35.18825" lon="135.51739"><ele>183</ele></trkpt>
<trkpt lat="35.18907" lon="135.51967"><ele>179</ele></trkpt>
<trkpt lat="35.19083" lon="135.52089"><ele>177</ele></trkpt>
<trkpt lat="35.19425" lon="135.52126"><ele>178</ele></trkpt>
<trkpt lat="35.19574" lon="135.52204"><ele>179</ele></trkpt>
<trkpt lat="35.19674" lon="135.52174"><ele>186</ele></trkpt>
<trkpt lat="35.19773" lon="135.52171"><ele>188</ele></trkpt>
<trkpt lat="35.1991" lon="135.52269"><ele>192</ele></trkpt>
<trkpt lat="35.20077" lon="135.52445"><ele>183</ele></trkpt>
<trkpt lat="35.20269" lon="135.52917"><ele>201</ele></trkpt>
<trkpt lat="35.20272" lon="135.52994"><ele>201</ele></trkpt>
<trkpt lat="35.20247" lon="135.53089"><ele>190</ele></trkpt>
<trkpt lat="35.20258" lon="135.53178"><ele>193</ele></trkpt>
<trkpt lat="35.20291" lon="135.53216"><ele>198</ele></trkpt>
<trkpt lat="35.204" lon="135.53257"><ele>204</ele></trkpt>
<trkpt lat="35.20418" lon="135.53283"><ele>201</ele></trkpt>
<trkpt lat="35.20419" lon="135.53377"><ele>193</ele></trkpt>
<trkpt lat="35.20348" lon="135.53554"><ele>204</ele></trkpt>
<trkpt lat="35.20355" lon="135.5366"><ele>203</ele></trkpt>
<trkpt lat="35.20482" lon="135.53752"><ele>200</ele></trkpt>
<trkpt lat="35.20585" lon="135.53871"><ele>202</ele></trkpt>
<trkpt lat="35.20621" lon="135.53963"><ele>202</ele></trkpt>
<trkpt lat="35.2066" lon="135.54181"><ele>203</ele></trkpt>
<trkpt lat="35.20795" lon="135.54334"><ele>203</ele></trkpt>
<trkpt lat="35.20871" lon="135.54493"><ele>211</ele></trkpt>
<trkpt lat="35.20925" lon="135.54694"><ele>209</ele></trkpt>
<trkpt lat="35.2094" lon="135.54861"><ele>210</ele></trkpt>
<trkpt lat="35.21007" lon="135.54953"><ele>215</ele></trkpt>
<trkpt lat="35.21086" lon="135.55209"><ele>210</ele></trkpt>
<trkpt lat="35.21203" lon="135.55271"><ele>216</ele></trkpt>
<trkpt lat="35.21329" lon="135.55388"><ele>216</ele></trkpt>
<trkpt lat="35.21366" lon="135.55458"><ele>221</ele></trkpt>
<trkpt lat="35.21364" lon="135.55634"><ele>220</ele></trkpt>
<trkpt lat="35.21194" lon="135.55853"><ele>222</ele></trkpt>
<trkpt lat="35.21178" lon="135.55897"><ele>221</ele></trkpt>
<trkpt lat="35.21195" lon="135.55968"><ele>221</ele></trkpt>
<trkpt lat="35.21277" lon="135.56031"><ele>224</ele></trkpt>
<trkpt lat="35.2131" lon="135.56093"><ele>224</ele></trkpt>
<trkpt lat="35.21329" lon="135.56222"><ele>225</ele></trkpt>
<trkpt lat="35.21246" lon="135.56366"><ele>224</ele></trkpt>
<trkpt lat="35.2105" lon="135.56812"><ele>237</ele></trkpt>
<trkpt lat="35.21061" lon="135.57085"><ele>231</ele></trkpt>
<trkpt lat="35.21208" lon="135.57069"><ele>253</ele></trkpt>
<trkpt lat="35.21344" lon="135.56984"><ele>259</ele></trkpt>
<trkpt lat="35.21445" lon="135.56945"><ele>271</ele></trkpt>
<trkpt lat="35.21611" lon="135.56947"><ele>276</ele></trkpt>
<trkpt lat="35.21924" lon="135.57034"><ele>284</ele></trkpt>
<trkpt lat="35.22086" lon="135.57161"><ele>295</ele></trkpt>
<trkpt lat="35.22293" lon="135.57241"><ele>352</ele></trkpt>
<trkpt lat="35.22965" lon="135.5743"><ele>277</ele></trkpt>
<trkpt lat="35.23034" lon="135.57424"><ele>261</ele></trkpt>
<trkpt lat="35.23114" lon="135.57355"><ele>255</ele></trkpt>
<trkpt lat="35.2321" lon="135.57141"><ele>247</ele></trkpt>
<trkpt lat="35.23339" lon="135.57025"><ele>243</ele></trkpt>
<trkpt lat="35.23364" lon="135.56959"><ele>242</ele></trkpt>
<trkpt lat="35.23375" lon="135.56829"><ele>240</ele></trkpt>
<trkpt lat="35.23465" lon="135.56658"><ele>238</ele></trkpt>
<trkpt lat="35.23632" lon="135.5644"><ele>234</ele></trkpt>
<trkpt lat="35.23796" lon="135.56352"><ele>225</ele></trkpt>
<trkpt lat="35.24191" lon="135.55907"><ele>230</ele></trkpt>
<trkpt lat="35.24456" lon="135.55875"><ele>236</ele></trkpt>
<trkpt lat="35.24768" lon="135.5594"><ele>237</ele></trkpt>
<trkpt lat="35.24888" lon="135.5611"><ele>217</ele></trkpt>
<trkpt lat="35.25225" lon="135.56197"><ele>208</ele></trkpt>
<trkpt lat="35.25336" lon="135.5633"><ele>204</ele></trkpt>
<trkpt lat="35.25581" lon="135.56514"><ele>214</ele></trkpt>
<trkpt lat="35.25643" lon="135.56625"><ele>215</ele></trkpt>
<trkpt lat="35.25702" lon="135.56872"><ele>220</ele></trkpt>
<trkpt lat="35.25738" lon="135.56931"><ele>211</ele></trkpt>
<trkpt lat="35.25845" lon="135.57003"><ele>204</ele></trkpt>
<trkpt lat="35.25958" lon="135.5714"><ele>210</ele></trkpt>
<trkpt lat="35.26265" lon="135.57227"><ele>215</ele></trkpt>
<trkpt lat="35.26364" lon="135.5731"><ele>212</ele></trkpt>
<trkpt lat="35.2641" lon="135.57289"><ele>210</ele></trkpt>
<trkpt lat="35.26494" lon="135.57164"><ele>210</ele></trkpt>
<trkpt lat="35.26583" lon="135.57203"><ele>215</ele></trkpt>
<trkpt lat="35.26782" lon="135.57152"><ele>219</ele></trkpt>
<trkpt lat="35.26817" lon="135.57166"><ele>220</ele></trkpt>
<trkpt lat="35.26885" lon="135.57251"><ele>225</ele></trkpt>
<trkpt lat="35.26965" lon="135.57511"><ele>221</ele></trkpt>
<trkpt lat="35.27" lon="135.57564"><ele>209</ele></trkpt>
<trkpt lat="35.27194" lon="135.57745"><ele>209</ele></trkpt>
<trkpt lat="35.27246" lon="135.5776"><ele>207</ele></trkpt>
<trkpt lat="35.27378" lon="135.57755"><ele>227</ele></trkpt>
<trkpt lat="35.27431" lon="135.57782"><ele>232</ele></trkpt>
<trkpt lat="35.27479" lon="135.5784"><ele>234</ele></trkpt>
<trkpt lat="35.27477" lon="135.57924"><ele>228</ele></trkpt>
<trkpt lat="35.27514" lon="135.57946"><ele>234</ele></trkpt>
<trkpt lat="35.27514" lon="135.57946"><ele>234</ele></trkpt>
<trkpt lat="35.27519" lon="135.58028"><ele>230</ele></trkpt>
<trkpt lat="35.27565" lon="135.58187"><ele>229</ele></trkpt>
<trkpt lat="35.27663" lon="135.58305"><ele>226</ele></trkpt>
<trkpt lat="35.2772" lon="135.58589"><ele>224</ele></trkpt>
<trkpt lat="35.27801" lon="135.58793"><ele>224</ele></trkpt>
<trkpt lat="35.27809" lon="135.58956"><ele>221</ele></trkpt>
<trkpt lat="35.27865" lon="135.59029"><ele>224</ele></trkpt>
<trkpt lat="35.27975" lon="135.59071"><ele>226</ele></trkpt>
<trkpt lat="35.28162" lon="135.59195"><ele>237</ele></trkpt>
<trkpt lat="35.28308" lon="135.59307"><ele>250</ele></trkpt>
<trkpt lat="35.28412" lon="135.59418"><ele>249</ele></trkpt>
<trkpt lat="35.28571" lon="135.59443"><ele>245</ele></trkpt>
<trkpt lat="35.28675" lon="135.59643"><ele>250</ele></trkpt>
<trkpt lat="35.28698" lon="135.59739"><ele>248</ele></trkpt>
<trkpt lat="35.28831" lon="135.59935"><ele>241</ele></trkpt>
<trkpt lat="35.28898" lon="135.5997"><ele>232</ele></trkpt>
<trkpt lat="35.29029" lon="135.59992"><ele>232</ele></trkpt>
<trkpt lat="35.29141" lon="135.60074"><ele>223</ele></trkpt>
<trkpt lat="35.29354" lon="135.60117"><ele>239</ele></trkpt>
<trkpt lat="35.29483" lon="135.60228"><ele>245</ele></trkpt>
<trkpt lat="35.29641" lon="135.60327"><ele>238</ele></trkpt>
<trkpt lat="35.29793" lon="135.60667"><ele>239</ele></trkpt>
<trkpt lat="35.29824" lon="135.61016"><ele>236</ele></trkpt>
<trkpt lat="35.29782" lon="135.61118"><ele>246</ele></trkpt>
<trkpt lat="35.29669" lon="135.61184"><ele>234</ele></trkpt>
<trkpt lat="35.29615" lon="135.61271"><ele>237</ele></trkpt>
<trkpt lat="35.29618" lon="135.61355"><ele>240</ele></trkpt>
<trkpt lat="35.29674" lon="135.61505"><ele>247</ele></trkpt>
<trkpt lat="35.29743" lon="135.6155"><ele>252</ele></trkpt>
<trkpt lat="35.29938" lon="135.61446"><ele>265</ele></trkpt>
<trkpt lat="35.30103" lon="135.61436"><ele>269</ele></trkpt>
<trkpt lat="35.30194" lon="135.61448"><ele>269</ele></trkpt>
<trkpt lat="35.30284" lon="135.61501"><ele>261</ele></trkpt>
<trkpt lat="35.30438" lon="135.617"><ele>259</ele></trkpt>
<trkpt lat="35.30452" lon="135.62129"><ele>257</ele></trkpt>
<trkpt lat="35.30501" lon="135.62268"><ele>256</ele></trkpt>
<trkpt lat="35.30542" lon="135.62315"><ele>253</ele></trkpt>
<trkpt lat="35.3064" lon="135.62327"><ele>256</ele></trkpt>
<trkpt lat="35.30707" lon="135.62311"><ele>259</ele></trkpt>
<trkpt lat="35.30831" lon="135.62164"><ele>258</ele></trkpt>
<trkpt lat="35.31015" lon="135.62118"><ele>244</ele></trkpt>
<trkpt lat="35.31077" lon="135.62144"><ele>244</ele></trkpt>
<trkpt lat="35.31176" lon="135.62233"><ele>245</ele></trkpt>
<trkpt lat="35.31211" lon="135.62289"><ele>245</ele></trkpt>
<trkpt lat="35.31211" lon="135.62289"><ele>245</ele></trkpt>
<trkpt lat="35.31176" lon="135.62233"><ele>245</ele></trkpt>
<trkpt lat="35.31077" lon="135.62144"><ele>244</ele></trkpt>
<trkpt lat="35.31015" lon="135.62118"><ele>244</ele></trkpt>
<trkpt lat="35.30831" lon="135.62164"><ele>258</ele></trkpt>
<trkpt lat="35.30707" lon="135.62311"><ele>259</ele></trkpt>
<trkpt lat="35.3064" lon="135.62327"><ele>256</ele></trkpt>
<trkpt lat="35.30542" lon="135.62315"><ele>253</ele></trkpt>
<trkpt lat="35.30501" lon="135.62268"><ele>256</ele></trkpt>
<trkpt lat="35.30452" lon="135.62129"><ele>257</ele></trkpt>
<trkpt lat="35.30433" lon="135.61694"><ele>258</ele></trkpt>
<trkpt lat="35.30283" lon="135.61503"><ele>260</ele></trkpt>
<trkpt lat="35.30194" lon="135.6145"><ele>268</ele></trkpt>
<trkpt lat="35.30092" lon="135.61439"><ele>268</ele></trkpt>
<trkpt lat="35.29939" lon="135.61449"><ele>263</ele></trkpt>
<trkpt lat="35.29755" lon="135.61551"><ele>252</ele></trkpt>
<trkpt lat="35.2972" lon="135.61546"><ele>249</ele></trkpt>
<trkpt lat="35.29673" lon="135.61507"><ele>247</ele></trkpt>
<trkpt lat="35.29614" lon="135.61349"><ele>239</ele></trkpt>
<trkpt lat="35.29613" lon="135.6127"><ele>237</ele></trkpt>
<trkpt lat="35.29668" lon="135.61181"><ele>233</ele></trkpt>
<trkpt lat="35.2978" lon="135.61116"><ele>245</ele></trkpt>
<trkpt lat="35.29821" lon="135.61016"><ele>236</ele></trkpt>
<trkpt lat="35.29791" lon="135.60669"><ele>239</ele></trkpt>
<trkpt lat="35.29634" lon="135.60321"><ele>238</ele></trkpt>
<trkpt lat="35.29482" lon="135.6023"><ele>246</ele></trkpt>
<trkpt lat="35.29359" lon="135.60122"><ele>240</ele></trkpt>
<trkpt lat="35.2912" lon="135.6007"><ele>224</ele></trkpt>
<trkpt lat="35.29021" lon="135.59992"><ele>231</ele></trkpt>
<trkpt lat="35.28891" lon="135.59972"><ele>232</ele></trkpt>
<trkpt lat="35.28816" lon="135.59928"><ele>241</ele></trkpt>
<trkpt lat="35.28698" lon="135.59746"><ele>247</ele></trkpt>
<trkpt lat="35.28667" lon="135.59632"><ele>248</ele></trkpt>
<trkpt lat="35.28569" lon="135.59446"><ele>245</ele></trkpt>
<trkpt lat="35.28414" lon="135.59424"><ele>248</ele></trkpt>
<trkpt lat="35.28306" lon="135.5931"><ele>249</ele></trkpt>
<trkpt lat="35.28168" lon="135.59203"><ele>236</ele></trkpt>
<trkpt lat="35.27965" lon="135.5907"><ele>226</ele></trkpt>
<trkpt lat="35.27856" lon="135.59024"><ele>223</ele></trkpt>
<trkpt lat="35.27805" lon="135.58953"><ele>221</ele></trkpt>
<trkpt lat="35.27797" lon="135.58787"><ele>224</ele></trkpt>
<trkpt lat="35.27714" lon="135.58579"><ele>224</ele></trkpt>
<trkpt lat="35.27661" lon="135.58306"><ele>226</ele></trkpt>
<trkpt lat="35.27565" lon="135.58194"><ele>229</ele></trkpt>
<trkpt lat="35.27519" lon="135.5804"><ele>230</ele></trkpt>
<trkpt lat="35.27511" lon="135.57943"><ele>233</ele></trkpt>
<trkpt lat="35.27511" lon="135.57943"><ele>233</ele></trkpt>
<trkpt lat="35.2748" lon="135.57922"><ele>228</ele></trkpt>
<trkpt lat="35.27482" lon="135.57839"><ele>235</ele></trkpt>
<trkpt lat="35.27388" lon="135.57754"><ele>229</ele></trkpt>
<trkpt lat="35.27239" lon="135.57756"><ele>207</ele></trkpt>
<trkpt lat="35.27187" lon="135.57737"><ele>209</ele></trkpt>
<trkpt lat="35.27003" lon="135.5756"><ele>208</ele></trkpt>
<trkpt lat="35.2697" lon="135.57511"><ele>219</ele></trkpt>
<trkpt lat="35.26884" lon="135.5724"><ele>224</ele></trkpt>
<trkpt lat="35.26819" lon="135.57163"><ele>220</ele></trkpt>
<trkpt lat="35.26778" lon="135.57148"><ele>218</ele></trkpt>
<trkpt lat="35.26579" lon="135.57199"><ele>214</ele></trkpt>
<trkpt lat="35.26494" lon="135.5716"><ele>210</ele></trkpt>
<trkpt lat="35.26408" lon="135.57286"><ele>210</ele></trkpt>
<trkpt lat="35.26362" lon="135.57306"><ele>212</ele></trkpt>
<trkpt lat="35.26266" lon="135.57224"><ele>214</ele></trkpt>
<trkpt lat="35.25963" lon="135.57139"><ele>209</ele></trkpt>
<trkpt lat="35.2585" lon="135.57003"><ele>204</ele></trkpt>
<trkpt lat="35.25731" lon="135.56914"><ele>211</ele></trkpt>
<trkpt lat="35.25684" lon="135.56824"><ele>221</ele></trkpt>
<trkpt lat="35.25647" lon="135.56627"><ele>213</ele></trkpt>
<trkpt lat="35.25602" lon="135.56535"><ele>215</ele></trkpt>
<trkpt lat="35.25602" lon="135.56535"><ele>215</ele></trkpt>
<trkpt lat="35.25879" lon="135.5621"><ele>207</ele></trkpt>
<trkpt lat="35.26023" lon="135.5598"><ele>252</ele></trkpt>
<trkpt lat="35.26049" lon="135.5577"><ele>229</ele></trkpt>
<trkpt lat="35.25983" lon="135.55595"><ele>211</ele></trkpt>
<trkpt lat="35.2595" lon="135.55392"><ele>205</ele></trkpt>
<trkpt lat="35.25969" lon="135.55276"><ele>197</ele></trkpt>
<trkpt lat="35.26056" lon="135.55155"><ele>188</ele></trkpt>
<trkpt lat="35.26433" lon="135.55006"><ele>204</ele></trkpt>
<trkpt lat="35.26542" lon="135.55052"><ele>181</ele></trkpt>
<trkpt lat="35.26604" lon="135.55053"><ele>180</ele></trkpt>
<trkpt lat="35.26789" lon="135.54943"><ele>180</ele></trkpt>
<trkpt lat="35.26897" lon="135.54989"><ele>178</ele></trkpt>
<trkpt lat="35.2704" lon="135.54974"><ele>182</ele></trkpt>
<trkpt lat="35.27155" lon="135.55015"><ele>186</ele></trkpt>
<trkpt lat="35.27236" lon="135.55073"><ele>185</ele></trkpt>
<trkpt lat="35.27344" lon="135.55061"><ele>180</ele></trkpt>
<trkpt lat="35.27476" lon="135.55139"><ele>181</ele></trkpt>
<trkpt lat="35.2754" lon="135.55125"><ele>183</ele></trkpt>
<trkpt lat="35.2754" lon="135.55125"><ele>183</ele></trkpt>
<trkpt lat="35.27506" lon="135.55036"><ele>181</ele></trkpt>
<trkpt lat="35.2747" lon="135.54834"><ele>184</ele></trkpt>
<trkpt lat="35.27496" lon="135.54695"><ele>185</ele></trkpt>
<trkpt lat="35.27497" lon="135.54562"><ele>184</ele></trkpt>
<trkpt lat="35.27659" lon="135.54358"><ele>181</ele></trkpt>
<trkpt lat="35.27927" lon="135.54103"><ele>181</ele></trkpt>
<trkpt lat="35.28047" lon="135.53936"><ele>192</ele></trkpt>
<trkpt lat="35.28097" lon="135.53729"><ele>193</ele></trkpt>
<trkpt lat="35.28211" lon="135.53395"><ele>184</ele></trkpt>
<trkpt lat="35.28262" lon="135.5314"><ele>183</ele></trkpt>
<trkpt lat="35.2826" lon="135.52995"><ele>185</ele></trkpt>
<trkpt lat="35.2818" lon="135.52656"><ele>181</ele></trkpt>
<trkpt lat="35.27898" lon="135.52213"><ele>199</ele></trkpt>
<trkpt lat="35.27732" lon="135.51997"><ele>178</ele></trkpt>
<trkpt lat="35.277" lon="135.51907"><ele>180</ele></trkpt>
<trkpt lat="35.27699" lon="135.51842"><ele>179</ele></trkpt>
<trkpt lat="35.27744" lon="135.51714"><ele>182</ele></trkpt>
<trkpt lat="35.27779" lon="135.51152"><ele>190</ele></trkpt>
<trkpt lat="35.27851" lon="135.51075"><ele>188</ele></trkpt>
<trkpt lat="35.27836" lon="135.51032"><ele>190</ele></trkpt>
<trkpt lat="35.27745" lon="135.50992"><ele>179</ele></trkpt>
<trkpt lat="35.27745" lon="135.50813"><ele>186</ele></trkpt>
<trkpt lat="35.27716" lon="135.50774"><ele>183</ele></trkpt>
<trkpt lat="35.2733" lon="135.50498"><ele>192</ele></trkpt>
<trkpt lat="35.27186" lon="135.50238"><ele>192</ele></trkpt>
<trkpt lat="35.27096" lon="135.50122"><ele>187</ele></trkpt>
<trkpt lat="35.27078" lon="135.50074"><ele>185</ele></trkpt>
<trkpt lat="35.27081" lon="135.4999"><ele>183</ele></trkpt>
<trkpt lat="35.27165" lon="135.49794"><ele>202</ele></trkpt>
<trkpt lat="35.27152" lon="135.49689"><ele>207</ele></trkpt>
<trkpt lat="35.27123" lon="135.49632"><ele>216</ele></trkpt>
<trkpt lat="35.2708" lon="135.49593"><ele>214</ele></trkpt>
<trkpt lat="35.26869" lon="135.49505"><ele>189</ele></trkpt>
<trkpt lat="35.26809" lon="135.49418"><ele>186</ele></trkpt>
<trkpt lat="35.26653" lon="135.49367"><ele>181</ele></trkpt>
<trkpt lat="35.26571" lon="135.49307"><ele>182</ele></trkpt>
<trkpt lat="35.26486" lon="135.4917"><ele>187</ele></trkpt>
<trkpt lat="35.26437" lon="135.48966"><ele>191</ele></trkpt>
<trkpt lat="35.2644" lon="135.48871"><ele>189</ele></trkpt>
<trkpt lat="35.26576" lon="135.48461"><ele>180</ele></trkpt>
<trkpt lat="35.26638" lon="135.48362"><ele>176</ele></trkpt>
<trkpt lat="35.26734" lon="135.48304"><ele>181</ele></trkpt>
<trkpt lat="35.26805" lon="135.48122"><ele>197</ele></trkpt>
<trkpt lat="35.26817" lon="135.47973"><ele>200</ele></trkpt>
<trkpt lat="35.26767" lon="135.47772"><ele>185</ele></trkpt>
<trkpt lat="35.26771" lon="135.4754"><ele>185</ele></trkpt>
<trkpt lat="35.2688" lon="135.47354"><ele>187</ele></trkpt>
<trkpt lat="35.26979" lon="135.47229"><ele>182</ele></trkpt>
<trkpt lat="35.271" lon="135.47167"><ele>184</ele></trkpt>
<trkpt lat="35.27149" lon="135.4711"><ele>180</ele></trkpt>
<trkpt lat="35.27225" lon="135.46708"><ele>191</ele></trkpt>
<trkpt lat="35.27131" lon="135.4664"><ele>190</ele></trkpt>
<trkpt lat="35.27019" lon="135.46458"><ele>213</ele></trkpt>
<trkpt lat="35.26964" lon="135.46416"><ele>233</ele></trkpt>
<trkpt lat="35.26851" lon="135.46422"><ele>238</ele></trkpt>
<trkpt lat="35.26777" lon="135.46448"><ele>206</ele></trkpt>
<trkpt lat="35.26713" lon="135.46436"><ele>197</ele></trkpt>
<trkpt lat="35.2668" lon="135.46392"><ele>201</ele></trkpt>
<trkpt lat="35.26605" lon="135.46192"><ele>193</ele></trkpt>
<trkpt lat="35.26498" lon="135.46038"><ele>182</ele></trkpt>
<trkpt lat="35.26444" lon="135.4591"><ele>189</ele></trkpt>
<trkpt lat="35.26205" lon="135.45843"><ele>191</ele></trkpt>
<trkpt lat="35.26125" lon="135.45769"><ele>217</ele></trkpt>
<trkpt lat="35.26062" lon="135.45753"><ele>195</ele></trkpt>
<trkpt lat="35.25951" lon="135.45615"><ele>195</ele></trkpt>
<trkpt lat="35.25918" lon="135.45438"><ele>190</ele></trkpt>
<trkpt lat="35.25932" lon="135.45388"><ele>186</ele></trkpt>
<trkpt lat="35.26217" lon="135.45225"><ele>183</ele></trkpt>
<trkpt lat="35.264" lon="135.44969"><ele>172</ele></trkpt>
<trkpt lat="35.26377" lon="135.44795"><ele>159</ele></trkpt>
<trkpt lat="35.26341" lon="135.4476"><ele>160</ele></trkpt>
<trkpt lat="35.26187" lon="135.44693"><ele>164</ele></trkpt>
<trkpt lat="35.26158" lon="135.4465"><ele>158</ele></trkpt>
<trkpt lat="35.26139" lon="135.44523"><ele>159</ele></trkpt>
<trkpt lat="35.26237" lon="135.44202"><ele>164</ele></trkpt>
<trkpt lat="35.26347" lon="135.43997"><ele>170</ele></trkpt>
<trkpt lat="35.26375" lon="135.43883"><ele>167</ele></trkpt>
<trkpt lat="35.26414" lon="135.43339"><ele>141</ele></trkpt>
<trkpt lat="35.26391" lon="135.43028"><ele>141</ele></trkpt>
<trkpt lat="35.26298" lon="135.42956"><ele>145</ele></trkpt>
<trkpt lat="35.26088" lon="135.42902"><ele>138</ele></trkpt>
<trkpt lat="35.25866" lon="135.42805"><ele>141</ele></trkpt>
<trkpt lat="35.25748" lon="135.42643"><ele>145</ele></trkpt>
<trkpt lat="35.25546" lon="135.42454"><ele>147</ele></trkpt>
<trkpt lat="35.25477" lon="135.42335"><ele>151</ele></trkpt>
<trkpt lat="35.25232" lon="135.422"><ele>152</ele></trkpt>
<trkpt lat="35.24891" lon="135.41864"><ele>135</ele></trkpt>
<trkpt lat="35.24891" lon="135.41864"><ele>135</ele></trkpt>
<trkpt lat="35.2483" lon="135.41902"><ele>130</ele></trkpt>
<trkpt lat="35.24691" lon="135.41936"><ele>133</ele></trkpt>
<trkpt lat="35.24626" lon="135.41902"><ele>140</ele></trkpt>
<trkpt lat="35.24542" lon="135.41743"><ele>143</ele></trkpt>
<trkpt lat="35.24491" lon="135.41704"><ele>144</ele></trkpt>
<trkpt lat="35.24322" lon="135.41698"><ele>142</ele></trkpt>
<trkpt lat="35.24176" lon="135.4167"><ele>148</ele></trkpt>
<trkpt lat="35.24078" lon="135.41702"><ele>167</ele></trkpt>
<trkpt lat="35.24031" lon="135.41698"><ele>168</ele></trkpt>
<trkpt lat="35.23892" lon="135.41544"><ele>166</ele></trkpt>
<trkpt lat="35.23825" lon="135.41413"><ele>147</ele></trkpt>
<trkpt lat="35.23737" lon="135.41352"><ele>145</ele></trkpt>
<trkpt lat="35.23556" lon="135.41294"><ele>142</ele></trkpt>
<trkpt lat="35.23304" lon="135.4137"><ele>144</ele></trkpt>
<trkpt lat="35.2295" lon="135.41547"><ele>153</ele></trkpt>
<trkpt lat="35.22709" lon="135.41627"><ele>150</ele></trkpt>
<trkpt lat="35.22164" lon="135.42024"><ele>151</ele></trkpt>
<trkpt lat="35.22164" lon="135.42024"><ele>151</ele></trkpt>
<trkpt lat="35.22144" lon="135.42004"><ele>144</ele></trkpt>
<trkpt lat="35.2207" lon="135.4204"><ele>148</ele></trkpt>
<trkpt lat="35.21984" lon="135.41996"><ele>141</ele></trkpt>
<trkpt lat="35.21801" lon="135.41973"><ele>137</ele></trkpt>
<trkpt lat="35.21679" lon="135.41971"><ele>142</ele></trkpt>
<trkpt lat="35.21636" lon="135.41987"><ele>143</ele></trkpt>
<trkpt lat="35.21584" lon="135.42039"><ele>141</ele></trkpt>
<trkpt lat="35.21429" lon="135.42371"><ele>138</ele></trkpt>
<trkpt lat="35.21378" lon="135.42441"><ele>137</ele></trkpt>
<trkpt lat="35.21202" lon="135.42522"><ele>135</ele></trkpt>
<trkpt lat="35.21072" lon="135.42654"><ele>138</ele></trkpt>
<trkpt lat="35.20954" lon="135.42738"><ele>141</ele></trkpt>
<trkpt lat="35.20907" lon="135.42742"><ele>145</ele></trkpt>
<trkpt lat="35.20835" lon="135.42708"><ele>149</ele></trkpt>
<trkpt lat="35.20814" lon="135.42669"><ele>147</ele></trkpt>
<trkpt lat="35.20837" lon="135.42543"><ele>161</ele></trkpt>
<trkpt lat="35.20823" lon="135.42498"><ele>162</ele></trkpt>
<trkpt lat="35.20843" lon="135.42541"><ele>162</ele></trkpt>
<trkpt lat="35.20831" lon="135.42664"><ele>146</ele></trkpt>
<trkpt lat="35.20928" lon="135.42715"><ele>147</ele></trkpt>
<trkpt lat="35.21015" lon="135.42606"><ele>149</ele></trkpt>
<trkpt lat="35.21103" lon="135.42409"><ele>163</ele></trkpt>
<trkpt lat="35.21254" lon="135.42285"><ele>162</ele></trkpt>
<trkpt lat="35.2143" lon="135.42074"><ele>164</ele></trkpt>
<trkpt lat="35.21402" lon="135.41994"><ele>169</ele></trkpt>
<trkpt lat="35.2155" lon="135.41773"><ele>172</ele></trkpt>
<trkpt lat="35.21648" lon="135.41442"><ele>175</ele></trkpt>
<trkpt lat="35.21655" lon="135.41339"><ele>175</ele></trkpt>
<trkpt lat="35.21629" lon="135.41254"><ele>174</ele></trkpt>
<trkpt lat="35.21475" lon="135.41077"><ele>176</ele></trkpt>
<trkpt lat="35.215" lon="135.40969"><ele>175</ele></trkpt>
<trkpt lat="35.21481" lon="135.40892"><ele>177</ele></trkpt>
<trkpt lat="35.21239" lon="135.40774"><ele>181</ele></trkpt>
<trkpt lat="35.21188" lon="135.4057"><ele>194</ele></trkpt>
<trkpt lat="35.21232" lon="135.40424"><ele>174</ele></trkpt>
<trkpt lat="35.21174" lon="135.40254"><ele>169</ele></trkpt>
<trkpt lat="35.2108" lon="135.40174"><ele>179</ele></trkpt>
<trkpt lat="35.20837" lon="135.39801"><ele>170</ele></trkpt>
<trkpt lat="35.20795" lon="135.39587"><ele>169</ele></trkpt>
<trkpt lat="35.20829" lon="135.39428"><ele>170</ele></trkpt>
<trkpt lat="35.20827" lon="135.39251"><ele>174</ele></trkpt>
<trkpt lat="35.20883" lon="135.39168"><ele>183</ele></trkpt>
<trkpt lat="35.20883" lon="135.39168"><ele>183</ele></trkpt>
<trkpt lat="35.20783" lon="135.39023"><ele>180</ele></trkpt>
<trkpt lat="35.20669" lon="135.38972"><ele>190</ele></trkpt>
<trkpt lat="35.2059" lon="135.38902"><ele>189</ele></trkpt>
<trkpt lat="35.20525" lon="135.38706"><ele>203</ele></trkpt>
<trkpt lat="35.20387" lon="135.38565"><ele>195</ele></trkpt>
<trkpt lat="35.20172" lon="135.38204"><ele>209</ele></trkpt>
<trkpt lat="35.20119" lon="135.37679"><ele>243</ele></trkpt>
<trkpt lat="35.20199" lon="135.37372"><ele>258</ele></trkpt>
<trkpt lat="35.20135" lon="135.37217"><ele>278</ele></trkpt>
<trkpt lat="35.2001" lon="135.36588"><ele>237</ele></trkpt>
<trkpt lat="35.19785" lon="135.36116"><ele>199</ele></trkpt>
<trkpt lat="35.1972" lon="135.3615"><ele>200</ele></trkpt>
<trkpt lat="35.19461" lon="135.36206"><ele>194</ele></trkpt>
<trkpt lat="35.19387" lon="135.36195"><ele>196</ele></trkpt>
<trkpt lat="35.19288" lon="135.36129"><ele>195</ele></trkpt>
<trkpt lat="35.19236" lon="135.36134"><ele>196</ele></trkpt>
<trkpt lat="35.19172" lon="135.36192"><ele>198</ele></trkpt>
<trkpt lat="35.19034" lon="135.36271"><ele>193</ele></trkpt>
<trkpt lat="35.18862" lon="135.3648"><ele>205</ele></trkpt>
<trkpt lat="35.18782" lon="135.36517"><ele>201</ele></trkpt>
<trkpt lat="35.18621" lon="135.36518"><ele>186</ele></trkpt>
<trkpt lat="35.18321" lon="135.36789"><ele>181</ele></trkpt>
<trkpt lat="35.18088" lon="135.36889"><ele>185</ele></trkpt>
<trkpt lat="35.18034" lon="135.36895"><ele>188</ele></trkpt>
<trkpt lat="35.1786" lon="135.36841"><ele>190</ele></trkpt>
<trkpt lat="35.17811" lon="135.36803"><ele>187</ele></trkpt>
<trkpt lat="35.177" lon="135.36539"><ele>187</ele></trkpt>
<trkpt lat="35.17472" lon="135.3622"><ele>199</ele></trkpt>
<trkpt lat="35.17388" lon="135.3613"><ele>202</ele></trkpt>
<trkpt lat="35.17145" lon="135.35973"><ele>205</ele></trkpt>
<trkpt lat="35.17039" lon="135.35974"><ele>209</ele></trkpt>
<trkpt lat="35.16805" lon="135.36061"><ele>211</ele></trkpt>
<trkpt lat="35.16809" lon="135.3612"><ele>213</ele></trkpt>
<trkpt lat="35.16679" lon="135.3625"><ele>214</ele></trkpt>
<trkpt lat="35.16465" lon="135.36687"><ele>228</ele></trkpt>
<trkpt lat="35.16321" lon="135.36726"><ele>225</ele></trkpt>
<trkpt lat="35.16284" lon="135.36761"><ele>228</ele></trkpt>
<trkpt lat="35.1624" lon="135.3693"><ele>233</ele></trkpt>
<trkpt lat="35.16261" lon="135.37479"><ele>223</ele></trkpt>
<trkpt lat="35.16423" lon="135.37997"><ele>205</ele></trkpt>
<trkpt lat="35.16703" lon="135.38381"><ele>197</ele></trkpt>
<trkpt lat="35.1691" lon="135.38558"><ele>194</ele></trkpt>
<trkpt lat="35.1691" lon="135.38558"><ele>194</ele></trkpt>
<trkpt lat="35.1683" lon="135.38689"><ele>188</ele></trkpt>
<trkpt lat="35.16769" lon="135.38749"><ele>180</ele></trkpt>
<trkpt lat="35.16725" lon="135.38841"><ele>183</ele></trkpt>
<trkpt lat="35.1672" lon="135.38975"><ele>195</ele></trkpt>
<trkpt lat="35.16651" lon="135.39162"><ele>196</ele></trkpt>
<trkpt lat="35.16679" lon="135.39353"><ele>190</ele></trkpt>
<trkpt lat="35.16677" lon="135.39481"><ele>181</ele></trkpt>
<trkpt lat="35.16568" lon="135.39677"><ele>176</ele></trkpt>
<trkpt lat="35.1657" lon="135.39832"><ele>172</ele></trkpt>
<trkpt lat="35.16499" lon="135.40022"><ele>180</ele></trkpt>
<trkpt lat="35.16459" lon="135.40257"><ele>178</ele></trkpt>
<trkpt lat="35.16221" lon="135.40649"><ele>181</ele></trkpt>
<trkpt lat="35.16177" lon="135.40836"><ele>179</ele></trkpt>
<trkpt lat="35.16034" lon="135.41033"><ele>175</ele></trkpt>
<trkpt lat="35.15708" lon="135.42129"><ele>208</ele></trkpt>
<trkpt lat="35.15701" lon="135.42285"><ele>199</ele></trkpt>
<trkpt lat="35.15641" lon="135.42396"><ele>185</ele></trkpt>
<trkpt lat="35.15608" lon="135.42543"><ele>178</ele></trkpt>
<trkpt lat="35.15608" lon="135.42543"><ele>178</ele></trkpt>
<trkpt lat="35.15409" lon="135.42553"><ele>178</ele></trkpt>
<trkpt lat="35.15141" lon="135.4268"><ele>180</ele></trkpt>
<trkpt lat="35.15141" lon="135.4268"><ele>180</ele></trkpt>
<trkpt lat="35.15071" lon="135.4276"><ele>175</ele></trkpt>
<trkpt lat="35.14874" lon="135.42688"><ele>185</ele></trkpt>
<trkpt lat="35.14874" lon="135.42688"><ele>185</ele></trkpt>
<trkpt lat="35.14844" lon="135.42702"><ele>180</ele></trkpt>
<trkpt lat="35.1451" lon="135.42672"><ele>183</ele></trkpt>
<trkpt lat="35.1451" lon="135.42672"><ele>183</ele></trkpt>
<trkpt lat="35.14316" lon="135.42452"><ele>191</ele></trkpt>
<trkpt lat="35.14314" lon="135.42229"><ele>198</ele></trkpt>
<trkpt lat="35.14256" lon="135.42086"><ele>188</ele></trkpt>
<trkpt lat="35.1414" lon="135.41946"><ele>190</ele></trkpt>
<trkpt lat="35.14086" lon="135.41824"><ele>191</ele></trkpt>
<trkpt lat="35.13932" lon="135.41679"><ele>195</ele></trkpt>
<trkpt lat="35.13603" lon="135.41561"><ele>200</ele></trkpt>
<trkpt lat="35.13519" lon="135.41549"><ele>195</ele></trkpt>
<trkpt lat="35.13298" lon="135.41299"><ele>200</ele></trkpt>
<trkpt lat="35.13158" lon="135.41224"><ele>198</ele></trkpt>
<trkpt lat="35.1297" lon="135.41172"><ele>203</ele></trkpt>
<trkpt lat="35.12683" lon="135.41173"><ele>207</ele></trkpt>
<trkpt lat="35.12561" lon="135.41221"><ele>209</ele></trkpt>
<trkpt lat="35.12561" lon="135.41221"><ele>209</ele></trkpt>
<trkpt lat="35.12543" lon="135.414"><ele>213</ele></trkpt>
<trkpt lat="35.12499" lon="135.41492"><ele>216</ele></trkpt>
<trkpt lat="35.12405" lon="135.41559"><ele>217</ele></trkpt>
<trkpt lat="35.12167" lon="135.41841"><ele>228</ele></trkpt>
<trkpt lat="35.1191" lon="135.42054"><ele>236</ele></trkpt>
<trkpt lat="35.11693" lon="135.42145"><ele>247</ele></trkpt>
<trkpt lat="35.11535" lon="135.42318"><ele>252</ele></trkpt>
<trkpt lat="35.11433" lon="135.42601"><ele>275</ele></trkpt>
<trkpt lat="35.11388" lon="135.4288"><ele>262</ele></trkpt>
<trkpt lat="35.11327" lon="135.4303"><ele>230</ele></trkpt>
<trkpt lat="35.11362" lon="135.43053"><ele>227</ele></trkpt>
<trkpt lat="35.11384" lon="135.43008"><ele>238</ele></trkpt>
<trkpt lat="35.11428" lon="135.42991"><ele>242</ele></trkpt>
<trkpt lat="35.11429" lon="135.42951"><ele>250</ele></trkpt>
<trkpt lat="35.1148" lon="135.42895"><ele>259</ele></trkpt>
<trkpt lat="35.11506" lon="135.43003"><ele>230</ele></trkpt>
<trkpt lat="35.11551" lon="135.42979"><ele>237</ele></trkpt>
<trkpt lat="35.11594" lon="135.42985"><ele>238</ele></trkpt>
<trkpt lat="35.11629" lon="135.42955"><ele>247</ele></trkpt>
<trkpt lat="35.11641" lon="135.43011"><ele>242</ele></trkpt>
<trkpt lat="35.11577" lon="135.43036"><ele>232</ele></trkpt>
<trkpt lat="35.11515" lon="135.43123"><ele>226</ele></trkpt>
<trkpt lat="35.11287" lon="135.43232"><ele>200</ele></trkpt>
<trkpt lat="35.11262" lon="135.43305"><ele>196</ele></trkpt>
<trkpt lat="35.11285" lon="135.43437"><ele>214</ele></trkpt>
<trkpt lat="35.11215" lon="135.43402"><ele>196</ele></trkpt>
<trkpt lat="35.11141" lon="135.43487"><ele>189</ele></trkpt>
<trkpt lat="35.11091" lon="135.4362"><ele>178</ele></trkpt>
<trkpt lat="35.11018" lon="135.43718"><ele>169</ele></trkpt>
<trkpt lat="35.10848" lon="135.44166"><ele>148</ele></trkpt>
<trkpt lat="35.1061" lon="135.44335"><ele>139</ele></trkpt>
<trkpt lat="35.10144" lon="135.44241"><ele>143</ele></trkpt>
<trkpt lat="35.09178" lon="135.44465"><ele>144</ele></trkpt>
<trkpt lat="35.09102" lon="135.44463"><ele>146</ele></trkpt>
<trkpt lat="35.08808" lon="135.44319"><ele>147</ele></trkpt>
<trkpt lat="35.08349" lon="135.44033"><ele>167</ele></trkpt>
<trkpt lat="35.08297" lon="135.43972"><ele>160</ele></trkpt>
<trkpt lat="35.08231" lon="135.43822"><ele>155</ele></trkpt>
<trkpt lat="35.08121" lon="135.43729"><ele>158</ele></trkpt>
<trkpt lat="35.07855" lon="135.43676"><ele>168</ele></trkpt>
<trkpt lat="35.07726" lon="135.43777"><ele>158</ele></trkpt>
<trkpt lat="35.07499" lon="135.4383"><ele>163</ele></trkpt>
<trkpt lat="35.07397" lon="135.43794"><ele>166</ele></trkpt>
<trkpt lat="35.07207" lon="135.43674"><ele>172</ele></trkpt>
<trkpt lat="35.06942" lon="135.43622"><ele>170</ele></trkpt>
<trkpt lat="35.06815" lon="135.43482"><ele>175</ele></trkpt>
<trkpt lat="35.06621" lon="135.43398"><ele>173</ele></trkpt>
<trkpt lat="35.06523" lon="135.43335"><ele>174</ele></trkpt>
<trkpt lat="35.06466" lon="135.43219"><ele>178</ele></trkpt>
<trkpt lat="35.06466" lon="135.43219"><ele>178</ele></trkpt>
<trkpt lat="35.06361" lon="135.43331"><ele>183</ele></trkpt>
<trkpt lat="35.06182" lon="135.4367"><ele>186</ele></trkpt>
<trkpt lat="35.06016" lon="135.43918"><ele>195</ele></trkpt>
<trkpt lat="35.05975" lon="135.44039"><ele>204</ele></trkpt>
<trkpt lat="35.05964" lon="135.4415"><ele>210</ele></trkpt>
<trkpt lat="35.05979" lon="135.44408"><ele>206</ele></trkpt>
<trkpt lat="35.0627" lon="135.45046"><ele>171</ele></trkpt>
<trkpt lat="35.06279" lon="135.4514"><ele>168</ele></trkpt>
<trkpt lat="35.06258" lon="135.45378"><ele>164</ele></trkpt>
<trkpt lat="35.06064" lon="135.45852"><ele>164</ele></trkpt>
<trkpt lat="35.05816" lon="135.46289"><ele>168</ele></trkpt>
<trkpt lat="35.05512" lon="135.46647"><ele>169</ele></trkpt>
<trkpt lat="35.05398" lon="135.46917"><ele>172</ele></trkpt>
<trkpt lat="35.05242" lon="135.47194"><ele>167</ele></trkpt>
<trkpt lat="35.04858" lon="135.47674"><ele>169</ele></trkpt>
<trkpt lat="35.04617" lon="135.47906"><ele>172</ele></trkpt>
<trkpt lat="35.04166" lon="135.48315"><ele>178</ele></trkpt>
<trkpt lat="35.03828" lon="135.48428"><ele>179</ele></trkpt>
<trkpt lat="35.03493" lon="135.48649"><ele>181</ele></trkpt>
<trkpt lat="35.03368" lon="135.48771"><ele>183</ele></trkpt>
<trkpt lat="35.03233" lon="135.48987"><ele>183</ele></trkpt>
<trkpt lat="35.0318" lon="135.49037"><ele>183</ele></trkpt>
<trkpt lat="35.02499" lon="135.49393"><ele>192</ele></trkpt>
<trkpt lat="35.02395" lon="135.49469"><ele>189</ele></trkpt>
<trkpt lat="35.02338" lon="135.49583"><ele>197</ele></trkpt>
<trkpt lat="35.02255" lon="135.50011"><ele>202</ele></trkpt>
<trkpt lat="35.02134" lon="135.50237"><ele>193</ele></trkpt>
<trkpt lat="35.0212" lon="135.50394"><ele>191</ele></trkpt>
<trkpt lat="35.02167" lon="135.50515"><ele>182</ele></trkpt>
<trkpt lat="35.02123" lon="135.50568"><ele>184</ele></trkpt>
<trkpt lat="35.02022" lon="135.5088"><ele>200</ele></trkpt>
<trkpt lat="35.02038" lon="135.51034"><ele>198</ele></trkpt>
<trkpt lat="35.0201" lon="135.51387"><ele>210</ele></trkpt>
<trkpt lat="35.01947" lon="135.51544"><ele>217</ele></trkpt>
<trkpt lat="35.01848" lon="135.51913"><ele>170</ele></trkpt>
<trkpt lat="35.01743" lon="135.52014"><ele>159</ele></trkpt>
<trkpt lat="35.01699" lon="135.521"><ele>160</ele></trkpt>
<trkpt lat="35.01701" lon="135.52308"><ele>142</ele></trkpt>
<trkpt lat="35.01613" lon="135.52531"><ele>128</ele></trkpt>
<trkpt lat="35.01636" lon="135.5277"><ele>117</ele></trkpt>
<trkpt lat="35.01784" lon="135.53019"><ele>112</ele></trkpt>
<trkpt lat="35.01784" lon="135.53019"><ele>112</ele></trkpt>
<trkpt lat="35.01672" lon="135.53295"><ele>108</ele></trkpt>
<trkpt lat="35.01527" lon="135.53782"><ele>105</ele></trkpt>
<trkpt lat="35.0148" lon="135.54007"><ele>103</ele></trkpt>
<trkpt lat="35.01441" lon="135.54408"><ele>100</ele></trkpt>
<trkpt lat="35.0131" lon="135.5477"><ele>102</ele></trkpt>
<trkpt lat="35.01316" lon="135.5579"><ele>103</ele></trkpt>
<trkpt lat="35.01162" lon="135.55907"><ele>104</ele></trkpt>
<trkpt lat="35.01162" lon="135.55907"><ele>104</ele></trkpt>
<trkpt lat="35.01237" lon="135.56022"><ele>102</ele></trkpt>
<trkpt lat="35.01324" lon="135.56103"><ele>101</ele></trkpt>
<trkpt lat="35.01428" lon="135.5628"><ele>100</ele></trkpt>
<trkpt lat="35.01612" lon="135.56415"><ele>103</ele></trkpt>
<trkpt lat="35.01708" lon="135.56437"><ele>103</ele></trkpt>
<trkpt lat="35.01708" lon="135.56437"><ele>103</ele></trkpt>
<trkpt lat="35.01526" lon="135.56732"><ele>101</ele></trkpt>
<trkpt lat="35.01378" lon="135.57124"><ele>101</ele></trkpt>
<trkpt lat="35.01378" lon="135.57124"><ele>101</ele></trkpt>
<trkpt lat="35.01415" lon="135.5732"><ele>101</ele></trkpt>
<trkpt lat="35.0168" lon="135.57358"><ele>97</ele></trkpt>
<trkpt lat="35.0169" lon="135.5747"><ele>99</ele></trkpt>
<trkpt lat="35.01744" lon="135.57668"><ele>92</ele></trkpt>
<trkpt lat="35.01744" lon="135.57668"><ele>92</ele></trkpt>
<trkpt lat="35.0175" lon="135.57855"><ele>91</ele></trkpt>
<trkpt lat="35.01795" lon="135.57914"><ele>89</ele></trkpt>
<trkpt lat="35.0184" lon="135.58084"><ele>90</ele></trkpt>
<trkpt lat="35.01837" lon="135.58465"><ele>90</ele></trkpt>
<trkpt lat="35.01801" lon="135.58543"><ele>90</ele></trkpt>
</trkseg></trk></gpx>
