<?xml version="1.0" encoding="UTF-8"?>
<gpx version="1.1" creator="kyototamba-karuta" xmlns="http://www.topografix.com/GPX/1/1">
<metadata><name>京都丹波縦断ライド（京都丹波サイクルルート）</name><desc>京都丹波サイクルルート 公式110kmコース（advanced）。出典: 京都府 https://www.pref.kyoto.jp/doroke/news/bic-kyototamba.html ／ Ride with GPS route 37332755。走行は交通ルールに従い自己責任で。</desc><link href="https://www.pref.kyoto.jp/doroke/news/bic-kyototamba.html"/></metadata>
<trk><name>京都丹波縦断ライド</name><trkseg>
<trkpt lat="35.01793" lon="135.5856"><ele>90</ele></trkpt>
<trkpt lat="35.01689" lon="135.58705"><ele>89</ele></trkpt>
<trkpt lat="35.01888" lon="135.58907"><ele>88</ele></trkpt>
<trkpt lat="35.01965" lon="135.5895"><ele>89</ele></trkpt>
<trkpt lat="35.02076" lon="135.58967"><ele>92</ele></trkpt>
<trkpt lat="35.02291" lon="135.58912"><ele>95</ele></trkpt>
<trkpt lat="35.02509" lon="135.58747"><ele>96</ele></trkpt>
<trkpt lat="35.02573" lon="135.58723"><ele>98</ele></trkpt>
<trkpt lat="35.02717" lon="135.58724"><ele>102</ele></trkpt>
<trkpt lat="35.02816" lon="135.58747"><ele>97</ele></trkpt>
<trkpt lat="35.03023" lon="135.58724"><ele>94</ele></trkpt>
<trkpt lat="35.03095" lon="135.58649"><ele>94</ele></trkpt>
<trkpt lat="35.03227" lon="135.58324"><ele>93</ele></trkpt>
<trkpt lat="35.0326" lon="135.58286"><ele>92</ele></trkpt>
<trkpt lat="35.03321" lon="135.58258"><ele>91</ele></trkpt>
<trkpt lat="35.04006" lon="135.58247"><ele>117</ele></trkpt>
<trkpt lat="35.04161" lon="135.58277"><ele>122</ele></trkpt>
<trkpt lat="35.0434" lon="135.58356"><ele>128</ele></trkpt>
<trkpt lat="35.04654" lon="135.58364"><ele>129</ele></trkpt>
<trkpt lat="35.04742" lon="135.58307"><ele>127</ele></trkpt>
<trkpt lat="35.04794" lon="135.58242"><ele>124</ele></trkpt>
<trkpt lat="35.05046" lon="135.58026"><ele>121</ele></trkpt>
<trkpt lat="35.05046" lon="135.58026"><ele>121</ele></trkpt>
<trkpt lat="35.05081" lon="135.58032"><ele>122</ele></trkpt>
<trkpt lat="35.05301" lon="135.57947"><ele>121</ele></trkpt>
<trkpt lat="35.05559" lon="135.57935"><ele>122</ele></trkpt>
<trkpt lat="35.05716" lon="135.57855"><ele>124</ele></trkpt>
<trkpt lat="35.05818" lon="135.57827"><ele>125</ele></trkpt>
<trkpt lat="35.05855" lon="135.57754"><ele>119</ele></trkpt>
<trkpt lat="35.05855" lon="135.57754"><ele>119</ele></trkpt>
<trkpt lat="35.05725" lon="135.57622"><ele>105</ele></trkpt>
<trkpt lat="35.05737" lon="135.57138"><ele>101</ele></trkpt>
<trkpt lat="35.05753" lon="135.57076"><ele>100</ele></trkpt>
<trkpt lat="35.05715" lon="135.56968"><ele>101</ele></trkpt>
<trkpt lat="35.05724" lon="135.56927"><ele>101</ele></trkpt>
<trkpt lat="35.05724" lon="135.56927"><ele>101</ele></trkpt>
<trkpt lat="35.06342" lon="135.56662"><ele>109</ele></trkpt>
<trkpt lat="35.06445" lon="135.56665"><ele>109</ele></trkpt>
<trkpt lat="35.06445" lon="135.56665"><ele>109</ele></trkpt>
<trkpt lat="35.06606" lon="135.56734"><ele>102</ele></trkpt>
<trkpt lat="35.06687" lon="135.56746"><ele>102</ele></trkpt>
<trkpt lat="35.07254" lon="135.56588"><ele>114</ele></trkpt>
<trkpt lat="35.07508" lon="135.56597"><ele>118</ele></trkpt>
<trkpt lat="35.08208" lon="135.56567"><ele>141</ele></trkpt>
<trkpt lat="35.08314" lon="135.56502"><ele>142</ele></trkpt>
<trkpt lat="35.08334" lon="135.56456"><ele>140</ele></trkpt>
<trkpt lat="35.08334" lon="135.56456"><ele>140</ele></trkpt>
<trkpt lat="35.08406" lon="135.56467"><ele>143</ele></trkpt>
<trkpt lat="35.08406" lon="135.56467"><ele>143</ele></trkpt>
<trkpt lat="35.08707" lon="135.56239"><ele>138</ele></trkpt>
<trkpt lat="35.0875" lon="135.56043"><ele>132</ele></trkpt>
<trkpt lat="35.08903" lon="135.5587"><ele>132</ele></trkpt>
<trkpt lat="35.08923" lon="135.55823"><ele>129</ele></trkpt>
<trkpt lat="35.0893" lon="135.54782"><ele>113</ele></trkpt>
<trkpt lat="35.0893" lon="135.54782"><ele>113</ele></trkpt>
<trkpt lat="35.09597" lon="135.54787"><ele>123</ele></trkpt>
<trkpt lat="35.09683" lon="135.54736"><ele>125</ele></trkpt>
<trkpt lat="35.09735" lon="135.54652"><ele>125</ele></trkpt>
<trkpt lat="35.09729" lon="135.54506"><ele>122</ele></trkpt>
<trkpt lat="35.09795" lon="135.54358"><ele>122</ele></trkpt>
<trkpt lat="35.09882" lon="135.5428"><ele>133</ele></trkpt>
<trkpt lat="35.10022" lon="135.54223"><ele>154</ele></trkpt>
<trkpt lat="35.1007" lon="135.54061"><ele>133</ele></trkpt>
<trkpt lat="35.10059" lon="135.53858"><ele>126</ele></trkpt>
<trkpt lat="35.10015" lon="135.53672"><ele>126</ele></trkpt>
<trkpt lat="35.09994" lon="135.53457"><ele>128</ele></trkpt>
<trkpt lat="35.10004" lon="135.53401"><ele>127</ele></trkpt>
<trkpt lat="35.10114" lon="135.53201"><ele>127</ele></trkpt>
<trkpt lat="35.10298" lon="135.53021"><ele>129</ele></trkpt>
<trkpt lat="35.10372" lon="135.5286"><ele>124</ele></trkpt>
<trkpt lat="35.10444" lon="135.52773"><ele>123</ele></trkpt>
<trkpt lat="35.10442" lon="135.5268"><ele>121</ele></trkpt>
<trkpt lat="35.10442" lon="135.5268"><ele>121</ele></trkpt>
<trkpt lat="35.10546" lon="135.52611"><ele>124</ele></trkpt>
<trkpt lat="35.1063" lon="135.52513"><ele>126</ele></trkpt>
<trkpt lat="35.109" lon="135.52026"><ele>122</ele></trkpt>
<trkpt lat="35.11006" lon="135.51921"><ele>121</ele></trkpt>
<trkpt lat="35.11133" lon="135.51866"><ele>122</ele></trkpt>
<trkpt lat="35.11285" lon="135.51812"><ele>131</ele></trkpt>
<trkpt lat="35.11615" lon="135.51757"><ele>128</ele></trkpt>
<trkpt lat="35.11794" lon="135.51593"><ele>143</ele></trkpt>
<trkpt lat="35.11886" lon="135.51426"><ele>147</ele></trkpt>
<trkpt lat="35.11942" lon="135.51141"><ele>140</ele></trkpt>
<trkpt lat="35.11934" lon="135.51088"><ele>133</ele></trkpt>
<trkpt lat="35.11855" lon="135.50932"><ele>125</ele></trkpt>
<trkpt lat="35.11861" lon="135.50874"><ele>125</ele></trkpt>
<trkpt lat="35.12002" lon="135.50727"><ele>130</ele></trkpt>
<trkpt lat="35.12373" lon="135.50578"><ele>140</ele></trkpt>
<trkpt lat="35.12489" lon="135.50458"><ele>127</ele></trkpt>
<trkpt lat="35.12595" lon="135.50216"><ele>126</ele></trkpt>
<trkpt lat="35.12768" lon="135.49945"><ele>132</ele></trkpt>
<trkpt lat="35.12798" lon="135.495"><ele>129</ele></trkpt>
<trkpt lat="35.12855" lon="135.49378"><ele>149</ele></trkpt>
<trkpt lat="35.13026" lon="135.49304"><ele>145</ele></trkpt>
<trkpt lat="35.13421" lon="135.49337"><ele>133</ele></trkpt>
<trkpt lat="35.13485" lon="135.49311"><ele>132</ele></trkpt>
<trkpt lat="35.13527" lon="135.49262"><ele>137</ele></trkpt>
<trkpt lat="35.13571" lon="135.49138"><ele>136</ele></trkpt>
<trkpt lat="35.13557" lon="135.49004"><ele>134</ele></trkpt>
<trkpt lat="35.13578" lon="135.48984"><ele>135</ele></trkpt>
<trkpt lat="35.13578" lon="135.48984"><ele>135</ele></trkpt>
<trkpt lat="35.13573" lon="135.48954"><ele>136</ele></trkpt>
<trkpt lat="35.1342" lon="135.48698"><ele>146</ele></trkpt>
<trkpt lat="35.12484" lon="135.48243"><ele>135</ele></trkpt>
<trkpt lat="35.12781" lon="135.48383"><ele>135</ele></trkpt>
<trkpt lat="35.12797" lon="135.48086"><ele>135</ele></trkpt>
<trkpt lat="35.1279" lon="135.47589"><ele>140</ele></trkpt>
<trkpt lat="35.1279" lon="135.47589"><ele>140</ele></trkpt>
<trkpt lat="35.1296" lon="135.47586"><ele>142</ele></trkpt>
<trkpt lat="35.13006" lon="135.47567"><ele>144</ele></trkpt>
<trkpt lat="35.13052" lon="135.47429"><ele>152</ele></trkpt>
<trkpt lat="35.13251" lon="135.47165"><ele>176</ele></trkpt>
<trkpt lat="35.133" lon="135.47"><ele>197</ele></trkpt>
<trkpt lat="35.13393" lon="135.4689"><ele>207</ele></trkpt>
<trkpt lat="35.13607" lon="135.46862"><ele>231</ele></trkpt>
<trkpt lat="35.13701" lon="135.46909"><ele>231</ele></trkpt>
<trkpt lat="35.13948" lon="135.46899"><ele>254</ele></trkpt>
<trkpt lat="35.14092" lon="135.46851"><ele>270</ele></trkpt>
<trkpt lat="35.14179" lon="135.46773"><ele>277</ele></trkpt>
<trkpt lat="35.1424" lon="135.46751"><ele>281</ele></trkpt>
<trkpt lat="35.14676" lon="135.4681"><ele>333</ele></trkpt>
<trkpt lat="35.14775" lon="135.46863"><ele>284</ele></trkpt>
<trkpt lat="35.1495" lon="135.47074"><ele>250</ele></trkpt>
<trkpt lat="35.1523" lon="135.47123"><ele>231</ele></trkpt>
<trkpt lat="35.15377" lon="135.47253"><ele>222</ele></trkpt>
<trkpt lat="35.15644" lon="135.47267"><ele>198</ele></trkpt>
<trkpt lat="35.15714" lon="135.47239"><ele>190</ele></trkpt>
<trkpt lat="35.15811" lon="135.47165"><ele>187</ele></trkpt>
<trkpt lat="35.15896" lon="135.47198"><ele>197</ele></trkpt>
<trkpt lat="35.16064" lon="135.47214"><ele>197</ele></trkpt>
<trkpt lat="35.16064" lon="135.47214"><ele>197</ele></trkpt>
<trkpt lat="35.16263" lon="135.47393"><ele>197</ele></trkpt>
<trkpt lat="35.16286" lon="135.47501"><ele>199</ele></trkpt>
<trkpt lat="35.16252" lon="135.47611"><ele>190</ele></trkpt>
<trkpt lat="35.16335" lon="135.4771"><ele>189</ele></trkpt>
<trkpt lat="35.16335" lon="135.4771"><ele>189</ele></trkpt>
<trkpt lat="35.16388" lon="135.47673"><ele>199</ele></trkpt>
<trkpt lat="35.16595" lon="135.47645"><ele>235</ele></trkpt>
<trkpt lat="35.16733" lon="135.47491"><ele>242</ele></trkpt>
<trkpt lat="35.16966" lon="135.47399"><ele>227</ele></trkpt>
<trkpt lat="35.17002" lon="135.47343"><ele>226</ele></trkpt>
<trkpt lat="35.17051" lon="135.47092"><ele>244</ele></trkpt>
<trkpt lat="35.17087" lon="135.47017"><ele>254</ele></trkpt>
<trkpt lat="35.1714" lon="135.46966"><ele>265</ele></trkpt>
<trkpt lat="35.1725" lon="135.46905"><ele>263</ele></trkpt>
<trkpt lat="35.17421" lon="135.46745"><ele>234</ele></trkpt>
<trkpt lat="35.17478" lon="135.46745"><ele>231</ele></trkpt>
<trkpt lat="35.17521" lon="135.46782"><ele>231</ele></trkpt>
<trkpt lat="35.17605" lon="135.47036"><ele>230</ele></trkpt>
<trkpt lat="35.17652" lon="135.47092"><ele>232</ele></trkpt>
<trkpt lat="35.17912" lon="135.47131"><ele>213</ele></trkpt>
<trkpt lat="35.18107" lon="135.47102"><ele>215</ele></trkpt>
<trkpt lat="35.18229" lon="135.46962"><ele>231</ele></trkpt>
<trkpt lat="35.18432" lon="135.46936"><ele>240</ele></trkpt>
<trkpt lat="35.18647" lon="135.46732"><ele>213</ele></trkpt>
<trkpt lat="35.18909" lon="135.46643"><ele>192</ele></trkpt>
<trkpt lat="35.18972" lon="135.46509"><ele>196</ele></trkpt>
<trkpt lat="35.1911" lon="135.46357"><ele>191</ele></trkpt>
<trkpt lat="35.19231" lon="135.46173"><ele>199</ele></trkpt>
<trkpt lat="35.19231" lon="135.46173"><ele>199</ele></trkpt>
<trkpt lat="35.19334" lon="135.46235"><ele>199</ele></trkpt>
<trkpt lat="35.19518" lon="135.46261"><ele>200</ele></trkpt>
<trkpt lat="35.19682" lon="135.46413"><ele>191</ele></trkpt>
<trkpt lat="35.19682" lon="135.46413"><ele>191</ele></trkpt>
<trkpt lat="35.1974" lon="135.46414"><ele>193</ele></trkpt>
<trkpt lat="35.19798" lon="135.4638"><ele>195</ele></trkpt>
<trkpt lat="35.20148" lon="135.46035"><ele>204</ele></trkpt>
<trkpt lat="35.20356" lon="135.46059"><ele>213</ele></trkpt>
<trkpt lat="35.20494" lon="135.46051"><ele>220</ele></trkpt>
<trkpt lat="35.20441" lon="135.45779"><ele>209</ele></trkpt>
<trkpt lat="35.20374" lon="135.45641"><ele>205</ele></trkpt>
<trkpt lat="35.2016" lon="135.45521"><ele>203</ele></trkpt>
<trkpt lat="35.20134" lon="135.45362"><ele>205</ele></trkpt>
<trkpt lat="35.20134" lon="135.45362"><ele>205</ele></trkpt>
<trkpt lat="35.19794" lon="135.45399"><ele>208</ele></trkpt>
<trkpt lat="35.19794" lon="135.45399"><ele>208</ele></trkpt>
<trkpt lat="35.19694" lon="135.4526"><ele>216</ele></trkpt>
<trkpt lat="35.1971" lon="135.44998"><ele>220</ele></trkpt>
<trkpt lat="35.19752" lon="135.44793"><ele>216</ele></trkpt>
<trkpt lat="35.19822" lon="135.447"><ele>212</ele></trkpt>
<trkpt lat="35.1995" lon="135.44419"><ele>204</ele></trkpt>
<trkpt lat="35.20039" lon="135.44324"><ele>201</ele></trkpt>
<trkpt lat="35.2014" lon="135.44141"><ele>213</ele></trkpt>
<trkpt lat="35.20316" lon="135.44052"><ele>200</ele></trkpt>
<trkpt lat="35.20382" lon="135.43997"><ele>192</ele></trkpt>
<trkpt lat="35.2037" lon="135.43914"><ele>197</ele></trkpt>
<trkpt lat="35.20425" lon="135.43765"><ele>192</ele></trkpt>
<trkpt lat="35.20487" lon="135.43707"><ele>187</ele></trkpt>
<trkpt lat="35.20563" lon="135.43551"><ele>185</ele></trkpt>
<trkpt lat="35.20512" lon="135.43393"><ele>187</ele></trkpt>
<trkpt lat="35.20301" lon="135.43168"><ele>185</ele></trkpt>
<trkpt lat="35.20317" lon="135.43092"><ele>184</ele></trkpt>
<trkpt lat="35.20317" lon="135.43092"><ele>184</ele></trkpt>
<trkpt lat="35.20502" lon="135.43326"><ele>187</ele></trkpt>
<trkpt lat="35.20607" lon="135.43412"><ele>182</ele></trkpt>
<trkpt lat="35.20726" lon="135.43456"><ele>177</ele></trkpt>
<trkpt lat="35.20912" lon="135.43445"><ele>164</ele></trkpt>
<trkpt lat="35.21422" lon="135.43122"><ele>195</ele></trkpt>
<trkpt lat="35.21743" lon="135.42689"><ele>180</ele></trkpt>
<trkpt lat="35.21971" lon="135.42192"><ele>166</ele></trkpt>
<trkpt lat="35.22173" lon="135.4201"><ele>148</ele></trkpt>
<trkpt lat="35.22715" lon="135.41619"><ele>149</ele></trkpt>
<trkpt lat="35.22715" lon="135.41619"><ele>149</ele></trkpt>
<trkpt lat="35.22943" lon="135.41546"><ele>152</ele></trkpt>
<trkpt lat="35.22943" lon="135.41546"><ele>152</ele></trkpt>
<trkpt lat="35.23278" lon="135.41376"><ele>143</ele></trkpt>
<trkpt lat="35.23569" lon="135.41288"><ele>142</ele></trkpt>
<trkpt lat="35.23595" lon="135.4126"><ele>137</ele></trkpt>
<trkpt lat="35.23778" lon="135.41342"><ele>136</ele></trkpt>
<trkpt lat="35.23818" lon="135.41288"><ele>131</ele></trkpt>
<trkpt lat="35.23945" lon="135.41295"><ele>137</ele></trkpt>
<trkpt lat="35.24001" lon="135.41231"><ele>144</ele></trkpt>
<trkpt lat="35.24008" lon="135.41263"><ele>146</ele></trkpt>
<trkpt lat="35.23947" lon="135.41322"><ele>138</ele></trkpt>
<trkpt lat="35.23948" lon="135.41349"><ele>140</ele></trkpt>
<trkpt lat="35.23967" lon="135.41351"><ele>144</ele></trkpt>
<trkpt lat="35.24019" lon="135.41303"><ele>151</ele></trkpt>
<trkpt lat="35.24109" lon="135.4132"><ele>159</ele></trkpt>
<trkpt lat="35.24119" lon="135.41282"><ele>161</ele></trkpt>
<trkpt lat="35.24064" lon="135.41226"><ele>158</ele></trkpt>
<trkpt lat="35.24073" lon="135.41133"><ele>161</ele></trkpt>
<trkpt lat="35.24118" lon="135.41091"><ele>164</ele></trkpt>
<trkpt lat="35.24152" lon="135.41009"><ele>172</ele></trkpt>
<trkpt lat="35.24256" lon="135.41009"><ele>176</ele></trkpt>
<trkpt lat="35.24283" lon="135.40941"><ele>197</ele></trkpt>
<trkpt lat="35.24345" lon="135.41014"><ele>178</ele></trkpt>
<trkpt lat="35.24405" lon="135.41027"><ele>176</ele></trkpt>
<trkpt lat="35.24438" lon="135.41013"><ele>181</ele></trkpt>
<trkpt lat="35.24488" lon="135.40939"><ele>191</ele></trkpt>
<trkpt lat="35.24623" lon="135.40921"><ele>186</ele></trkpt>
<trkpt lat="35.24871" lon="135.41197"><ele>162</ele></trkpt>
<trkpt lat="35.24975" lon="135.41415"><ele>148</ele></trkpt>
<trkpt lat="35.25057" lon="135.41468"><ele>137</ele></trkpt>
<trkpt lat="35.25111" lon="135.41462"><ele>134</ele></trkpt>
<trkpt lat="35.25308" lon="135.41301"><ele>127</ele></trkpt>
<trkpt lat="35.25308" lon="135.41301"><ele>127</ele></trkpt>
<trkpt lat="35.25541" lon="135.41182"><ele>125</ele></trkpt>
<trkpt lat="35.25602" lon="135.411"><ele>127</ele></trkpt>
<trkpt lat="35.25677" lon="135.40852"><ele>122</ele></trkpt>
<trkpt lat="35.25777" lon="135.40802"><ele>110</ele></trkpt>
<trkpt lat="35.25876" lon="135.40672"><ele>109</ele></trkpt>
<trkpt lat="35.25942" lon="135.40514"><ele>108</ele></trkpt>
<trkpt lat="35.25938" lon="135.40425"><ele>106</ele></trkpt>
<trkpt lat="35.25938" lon="135.40425"><ele>106</ele></trkpt>
<trkpt lat="35.26029" lon="135.4037"><ele>108</ele></trkpt>
<trkpt lat="35.26009" lon="135.40282"><ele>106</ele></trkpt>
<trkpt lat="35.25921" lon="135.40106"><ele>104</ele></trkpt>
<trkpt lat="35.25959" lon="135.39806"><ele>104</ele></trkpt>
<trkpt lat="35.2603" lon="135.39704"><ele>105</ele></trkpt>
<trkpt lat="35.2614" lon="135.39625"><ele>105</ele></trkpt>
<trkpt lat="35.26213" lon="135.39635"><ele>104</ele></trkpt>
<trkpt lat="35.26432" lon="135.39906"><ele>101</ele></trkpt>
<trkpt lat="35.26522" lon="135.39972"><ele>101</ele></trkpt>
<trkpt lat="35.26585" lon="135.39991"><ele>101</ele></trkpt>
<trkpt lat="35.27054" lon="135.39897"><ele>97</ele></trkpt>
<trkpt lat="35.27126" lon="135.39807"><ele>101</ele></trkpt>
<trkpt lat="35.2706" lon="135.39717"><ele>97</ele></trkpt>
<trkpt lat="35.27016" lon="135.39732"><ele>98</ele></trkpt>
<trkpt lat="35.27048" lon="135.39694"><ele>98</ele></trkpt>
<trkpt lat="35.27131" lon="135.39786"><ele>101</ele></trkpt>
<trkpt lat="35.27121" lon="135.39845"><ele>103</ele></trkpt>
<trkpt lat="35.27048" lon="135.39914"><ele>98</ele></trkpt>
<trkpt lat="35.27048" lon="135.39914"><ele>98</ele></trkpt>
<trkpt lat="35.26593" lon="135.40004"><ele>101</ele></trkpt>
<trkpt lat="35.26461" lon="135.3995"><ele>103</ele></trkpt>
<trkpt lat="35.26461" lon="135.3995"><ele>103</ele></trkpt>
<trkpt lat="35.26209" lon="135.39648"><ele>105</ele></trkpt>
<trkpt lat="35.26134" lon="135.3964"><ele>105</ele></trkpt>
<trkpt lat="35.26006" lon="135.39738"><ele>104</ele></trkpt>
<trkpt lat="35.25965" lon="135.39815"><ele>105</ele></trkpt>
<trkpt lat="35.25965" lon="135.39815"><ele>105</ele></trkpt>
<trkpt lat="35.2593" lon="135.40109"><ele>105</ele></trkpt>
<trkpt lat="35.26027" lon="135.40297"><ele>109</ele></trkpt>
<trkpt lat="35.26073" lon="135.40473"><ele>114</ele></trkpt>
<trkpt lat="35.26102" lon="135.40733"><ele>118</ele></trkpt>
<trkpt lat="35.26102" lon="135.40733"><ele>118</ele></trkpt>
<trkpt lat="35.25942" lon="135.41041"><ele>111</ele></trkpt>
<trkpt lat="35.25736" lon="135.41146"><ele>116</ele></trkpt>
<trkpt lat="35.25614" lon="135.41252"><ele>122</ele></trkpt>
<trkpt lat="35.25434" lon="135.41529"><ele>118</ele></trkpt>
<trkpt lat="35.25231" lon="135.41764"><ele>128</ele></trkpt>
<trkpt lat="35.24985" lon="135.41785"><ele>136</ele></trkpt>
<trkpt lat="35.24841" lon="135.41898"><ele>131</ele></trkpt>
<trkpt lat="35.24673" lon="135.41932"><ele>136</ele></trkpt>
<trkpt lat="35.2462" lon="135.41895"><ele>140</ele></trkpt>
<trkpt lat="35.24542" lon="135.41743"><ele>143</ele></trkpt>
<trkpt lat="35.24491" lon="135.41704"><ele>144</ele></trkpt>
<trkpt lat="35.24001" lon="135.41697"><ele>170</ele></trkpt>
<trkpt lat="35.24001" lon="135.41697"><ele>170</ele></trkpt>
<trkpt lat="35.23874" lon="135.41535"><ele>173</ele></trkpt>
<trkpt lat="35.23874" lon="135.41535"><ele>173</ele></trkpt>
<trkpt lat="35.23835" lon="135.4143"><ele>152</ele></trkpt>
<trkpt lat="35.23835" lon="135.4143"><ele>152</ele></trkpt>
<trkpt lat="35.23736" lon="135.4136"><ele>148</ele></trkpt>
<trkpt lat="35.23736" lon="135.4136"><ele>148</ele></trkpt>
<trkpt lat="35.23606" lon="135.41312"><ele>145</ele></trkpt>
<trkpt lat="35.23481" lon="135.41319"><ele>144</ele></trkpt>
<trkpt lat="35.23481" lon="135.41319"><ele>144</ele></trkpt>
<trkpt lat="35.23286" lon="135.41386"><ele>145</ele></trkpt>
<trkpt lat="35.23286" lon="135.41386"><ele>145</ele></trkpt>
<trkpt lat="35.22936" lon="135.41562"><ele>154</ele></trkpt>
<trkpt lat="35.22936" lon="135.41562"><ele>154</ele></trkpt>
<trkpt lat="35.22736" lon="135.41637"><ele>151</ele></trkpt>
<trkpt lat="35.22165" lon="135.42042"><ele>155</ele></trkpt>
<trkpt lat="35.22143" lon="135.42004"><ele>144</ele></trkpt>
<trkpt lat="35.2207" lon="135.4204"><ele>148</ele></trkpt>
<trkpt lat="35.21975" lon="135.41994"><ele>140</ele></trkpt>
<trkpt lat="35.2177" lon="135.41971"><ele>139</ele></trkpt>
<trkpt lat="35.21636" lon="135.41987"><ele>143</ele></trkpt>
<trkpt lat="35.21584" lon="135.42039"><ele>141</ele></trkpt>
<trkpt lat="35.21429" lon="135.42371"><ele>138</ele></trkpt>
<trkpt lat="35.21378" lon="135.42441"><ele>137</ele></trkpt>
<trkpt lat="35.21202" lon="135.42522"><ele>135</ele></trkpt>
<trkpt lat="35.20977" lon="135.42725"><ele>140</ele></trkpt>
<trkpt lat="35.209" lon="135.4274"><ele>146</ele></trkpt>
<trkpt lat="35.20841" lon="135.42711"><ele>149</ele></trkpt>
<trkpt lat="35.20813" lon="135.42669"><ele>147</ele></trkpt>
<trkpt lat="35.20829" lon="135.42516"><ele>162</ele></trkpt>
<trkpt lat="35.20829" lon="135.42516"><ele>162</ele></trkpt>
<trkpt lat="35.20826" lon="135.42659"><ele>147</ele></trkpt>
<trkpt lat="35.209" lon="135.42713"><ele>149</ele></trkpt>
<trkpt lat="35.20935" lon="135.4271"><ele>147</ele></trkpt>
<trkpt lat="35.21103" lon="135.42409"><ele>163</ele></trkpt>
<trkpt lat="35.21254" lon="135.42285"><ele>162</ele></trkpt>
<trkpt lat="35.2143" lon="135.42074"><ele>164</ele></trkpt>
<trkpt lat="35.21402" lon="135.41994"><ele>169</ele></trkpt>
<trkpt lat="35.2155" lon="135.41773"><ele>172</ele></trkpt>
<trkpt lat="35.21648" lon="135.41442"><ele>175</ele></trkpt>
<trkpt lat="35.21655" lon="135.41339"><ele>175</ele></trkpt>
<trkpt lat="35.21629" lon="135.41254"><ele>174</ele></trkpt>
<trkpt lat="35.21475" lon="135.41077"><ele>176</ele></trkpt>
<trkpt lat="35.215" lon="135.40969"><ele>175</ele></trkpt>
<trkpt lat="35.21481" lon="135.40892"><ele>177</ele></trkpt>
<trkpt lat="35.21239" lon="135.40774"><ele>181</ele></trkpt>
<trkpt lat="35.21188" lon="135.4057"><ele>194</ele></trkpt>
<trkpt lat="35.21232" lon="135.40424"><ele>174</ele></trkpt>
<trkpt lat="35.21174" lon="135.40254"><ele>169</ele></trkpt>
<trkpt lat="35.2108" lon="135.40174"><ele>179</ele></trkpt>
<trkpt lat="35.20837" lon="135.39801"><ele>170</ele></trkpt>
<trkpt lat="35.20795" lon="135.39587"><ele>169</ele></trkpt>
<trkpt lat="35.20829" lon="135.39428"><ele>170</ele></trkpt>
<trkpt lat="35.20827" lon="135.39251"><ele>174</ele></trkpt>
<trkpt lat="35.20883" lon="135.39168"><ele>183</ele></trkpt>
<trkpt lat="35.20883" lon="135.39168"><ele>183</ele></trkpt>
<trkpt lat="35.20783" lon="135.39023"><ele>180</ele></trkpt>
<trkpt lat="35.20669" lon="135.38972"><ele>190</ele></trkpt>
<trkpt lat="35.2059" lon="135.38902"><ele>189</ele></trkpt>
<trkpt lat="35.20525" lon="135.38706"><ele>203</ele></trkpt>
<trkpt lat="35.20387" lon="135.38565"><ele>195</ele></trkpt>
<trkpt lat="35.20172" lon="135.38204"><ele>209</ele></trkpt>
<trkpt lat="35.20119" lon="135.37679"><ele>243</ele></trkpt>
<trkpt lat="35.20199" lon="135.37372"><ele>258</ele></trkpt>
<trkpt lat="35.20135" lon="135.37217"><ele>278</ele></trkpt>
<trkpt lat="35.20012" lon="135.36611"><ele>239</ele></trkpt>
<trkpt lat="35.19783" lon="135.36114"><ele>198</ele></trkpt>
<trkpt lat="35.19783" lon="135.36114"><ele>198</ele></trkpt>
<trkpt lat="35.19721" lon="135.36146"><ele>200</ele></trkpt>
<trkpt lat="35.19453" lon="135.36202"><ele>194</ele></trkpt>
<trkpt lat="35.19378" lon="135.36182"><ele>196</ele></trkpt>
<trkpt lat="35.19302" lon="135.36126"><ele>195</ele></trkpt>
<trkpt lat="35.19241" lon="135.36128"><ele>195</ele></trkpt>
<trkpt lat="35.19158" lon="135.36198"><ele>198</ele></trkpt>
<trkpt lat="35.19037" lon="135.36264"><ele>193</ele></trkpt>
<trkpt lat="35.18869" lon="135.3647"><ele>204</ele></trkpt>
<trkpt lat="35.1877" lon="135.3652"><ele>201</ele></trkpt>
<trkpt lat="35.18654" lon="135.36515"><ele>188</ele></trkpt>
<trkpt lat="35.186" lon="135.36531"><ele>185</ele></trkpt>
<trkpt lat="35.18321" lon="135.36786"><ele>181</ele></trkpt>
<trkpt lat="35.18092" lon="135.36884"><ele>185</ele></trkpt>
<trkpt lat="35.1803" lon="135.36892"><ele>188</ele></trkpt>
<trkpt lat="35.17867" lon="135.3684"><ele>191</ele></trkpt>
<trkpt lat="35.17805" lon="135.36791"><ele>187</ele></trkpt>
<trkpt lat="35.17674" lon="135.36501"><ele>189</ele></trkpt>
<trkpt lat="35.17509" lon="135.36298"><ele>195</ele></trkpt>
<trkpt lat="35.1744" lon="135.36184"><ele>198</ele></trkpt>
<trkpt lat="35.17316" lon="135.36074"><ele>202</ele></trkpt>
<trkpt lat="35.17128" lon="135.35971"><ele>205</ele></trkpt>
<trkpt lat="35.17023" lon="135.35978"><ele>210</ele></trkpt>
<trkpt lat="35.1681" lon="135.36054"><ele>211</ele></trkpt>
<trkpt lat="35.1681" lon="135.36054"><ele>211</ele></trkpt>
<trkpt lat="35.16809" lon="135.3612"><ele>213</ele></trkpt>
<trkpt lat="35.16687" lon="135.3623"><ele>215</ele></trkpt>
<trkpt lat="35.16465" lon="135.36687"><ele>228</ele></trkpt>
<trkpt lat="35.16321" lon="135.36726"><ele>225</ele></trkpt>
<trkpt lat="35.16284" lon="135.36761"><ele>228</ele></trkpt>
<trkpt lat="35.16245" lon="135.36878"><ele>232</ele></trkpt>
<trkpt lat="35.16241" lon="135.37021"><ele>234</ele></trkpt>
<trkpt lat="35.16267" lon="135.37519"><ele>222</ele></trkpt>
<trkpt lat="35.16428" lon="135.3801"><ele>205</ele></trkpt>
<trkpt lat="35.16703" lon="135.38381"><ele>197</ele></trkpt>
<trkpt lat="35.1691" lon="135.38558"><ele>194</ele></trkpt>
<trkpt lat="35.1691" lon="135.38558"><ele>194</ele></trkpt>
<trkpt lat="35.1683" lon="135.38689"><ele>188</ele></trkpt>
<trkpt lat="35.16769" lon="135.38749"><ele>180</ele></trkpt>
<trkpt lat="35.16725" lon="135.38841"><ele>183</ele></trkpt>
<trkpt lat="35.1672" lon="135.38975"><ele>195</ele></trkpt>
<trkpt lat="35.16651" lon="135.39162"><ele>196</ele></trkpt>
<trkpt lat="35.16679" lon="135.39353"><ele>190</ele></trkpt>
<trkpt lat="35.16677" lon="135.39481"><ele>181</ele></trkpt>
<trkpt lat="35.16568" lon="135.39677"><ele>176</ele></trkpt>
<trkpt lat="35.1657" lon="135.39832"><ele>172</ele></trkpt>
<trkpt lat="35.16499" lon="135.40022"><ele>180</ele></trkpt>
<trkpt lat="35.16454" lon="135.40272"><ele>178</ele></trkpt>
<trkpt lat="35.16221" lon="135.40649"><ele>181</ele></trkpt>
<trkpt lat="35.16177" lon="135.40836"><ele>179</ele></trkpt>
<trkpt lat="35.16038" lon="135.41023"><ele>175</ele></trkpt>
<trkpt lat="35.15712" lon="135.42114"><ele>205</ele></trkpt>
<trkpt lat="35.15701" lon="135.42285"><ele>199</ele></trkpt>
<trkpt lat="35.15622" lon="135.42452"><ele>181</ele></trkpt>
<trkpt lat="35.15599" lon="135.42652"><ele>174</ele></trkpt>
<trkpt lat="35.15604" lon="135.42999"><ele>171</ele></trkpt>
<trkpt lat="35.15667" lon="135.43215"><ele>175</ele></trkpt>
<trkpt lat="35.1552" lon="135.43128"><ele>181</ele></trkpt>
<trkpt lat="35.15506" lon="135.43082"><ele>174</ele></trkpt>
<trkpt lat="35.15345" lon="135.42907"><ele>174</ele></trkpt>
<trkpt lat="35.15301" lon="135.42885"><ele>174</ele></trkpt>
<trkpt lat="35.15167" lon="135.42868"><ele>181</ele></trkpt>
<trkpt lat="35.1512" lon="135.42823"><ele>176</ele></trkpt>
<trkpt lat="35.14912" lon="135.42912"><ele>186</ele></trkpt>
<trkpt lat="35.14864" lon="135.43001"><ele>196</ele></trkpt>
<trkpt lat="35.14833" lon="135.43007"><ele>186</ele></trkpt>
<trkpt lat="35.14743" lon="135.43141"><ele>186</ele></trkpt>
<trkpt lat="35.14658" lon="135.43087"><ele>188</ele></trkpt>
<trkpt lat="35.1444" lon="135.43121"><ele>212</ele></trkpt>
<trkpt lat="35.14352" lon="135.43163"><ele>211</ele></trkpt>
<trkpt lat="35.1429" lon="135.43273"><ele>214</ele></trkpt>
<trkpt lat="35.14211" lon="135.43353"><ele>220</ele></trkpt>
<trkpt lat="35.14047" lon="135.43468"><ele>229</ele></trkpt>
<trkpt lat="35.13936" lon="135.43621"><ele>240</ele></trkpt>
<trkpt lat="35.14047" lon="135.43468"><ele>229</ele></trkpt>
<trkpt lat="35.14211" lon="135.43353"><ele>220</ele></trkpt>
<trkpt lat="35.1429" lon="135.43273"><ele>214</ele></trkpt>
<trkpt lat="35.14352" lon="135.43163"><ele>211</ele></trkpt>
<trkpt lat="35.1444" lon="135.43121"><ele>212</ele></trkpt>
<trkpt lat="35.14658" lon="135.43087"><ele>188</ele></trkpt>
<trkpt lat="35.14743" lon="135.43141"><ele>186</ele></trkpt>
<trkpt lat="35.14833" lon="135.43007"><ele>186</ele></trkpt>
<trkpt lat="35.14864" lon="135.43001"><ele>196</ele></trkpt>
<trkpt lat="35.14903" lon="135.42917"><ele>186</ele></trkpt>
<trkpt lat="35.14977" lon="135.42899"><ele>193</ele></trkpt>
<trkpt lat="35.15027" lon="135.42749"><ele>176</ele></trkpt>
<trkpt lat="35.15027" lon="135.42749"><ele>176</ele></trkpt>
<trkpt lat="35.14874" lon="135.42688"><ele>185</ele></trkpt>
<trkpt lat="35.14874" lon="135.42688"><ele>185</ele></trkpt>
<trkpt lat="35.14844" lon="135.42702"><ele>180</ele></trkpt>
<trkpt lat="35.14511" lon="135.42672"><ele>183</ele></trkpt>
<trkpt lat="35.14315" lon="135.42453"><ele>190</ele></trkpt>
<trkpt lat="35.14309" lon="135.42209"><ele>198</ele></trkpt>
<trkpt lat="35.14256" lon="135.42086"><ele>188</ele></trkpt>
<trkpt lat="35.14126" lon="135.41935"><ele>190</ele></trkpt>
<trkpt lat="35.14126" lon="135.41935"><ele>190</ele></trkpt>
<trkpt lat="35.14078" lon="135.41814"><ele>191</ele></trkpt>
<trkpt lat="35.13924" lon="135.41673"><ele>195</ele></trkpt>
<trkpt lat="35.13603" lon="135.41561"><ele>200</ele></trkpt>
<trkpt lat="35.13519" lon="135.41549"><ele>195</ele></trkpt>
<trkpt lat="35.13298" lon="135.41299"><ele>200</ele></trkpt>
<trkpt lat="35.13158" lon="135.41224"><ele>198</ele></trkpt>
<trkpt lat="35.1297" lon="135.41172"><ele>203</ele></trkpt>
<trkpt lat="35.12676" lon="135.41174"><ele>207</ele></trkpt>
<trkpt lat="35.12561" lon="135.41221"><ele>209</ele></trkpt>
<trkpt lat="35.12561" lon="135.41221"><ele>209</ele></trkpt>
<trkpt lat="35.12543" lon="135.414"><ele>213</ele></trkpt>
<trkpt lat="35.12499" lon="135.41492"><ele>216</ele></trkpt>
<trkpt lat="35.12405" lon="135.41559"><ele>217</ele></trkpt>
<trkpt lat="35.12167" lon="135.41841"><ele>228</ele></trkpt>
<trkpt lat="35.1191" lon="135.42054"><ele>236</ele></trkpt>
<trkpt lat="35.11693" lon="135.42145"><ele>247</ele></trkpt>
<trkpt lat="35.11524" lon="135.42336"><ele>251</ele></trkpt>
<trkpt lat="35.11421" lon="135.42647"><ele>278</ele></trkpt>
<trkpt lat="35.11388" lon="135.4288"><ele>262</ele></trkpt>
<trkpt lat="35.11327" lon="135.4303"><ele>230</ele></trkpt>
<trkpt lat="35.11362" lon="135.43053"><ele>227</ele></trkpt>
<trkpt lat="35.11384" lon="135.43008"><ele>238</ele></trkpt>
<trkpt lat="35.11428" lon="135.42991"><ele>242</ele></trkpt>
<trkpt lat="35.11429" lon="135.42951"><ele>250</ele></trkpt>
<trkpt lat="35.1148" lon="135.42895"><ele>259</ele></trkpt>
<trkpt lat="35.11506" lon="135.43003"><ele>230</ele></trkpt>
<trkpt lat="35.11551" lon="135.42979"><ele>237</ele></trkpt>
<trkpt lat="35.11594" lon="135.42985"><ele>238</ele></trkpt>
<trkpt lat="35.11629" lon="135.42955"><ele>247</ele></trkpt>
<trkpt lat="35.11641" lon="135.43011"><ele>242</ele></trkpt>
<trkpt lat="35.11577" lon="135.43036"><ele>232</ele></trkpt>
<trkpt lat="35.11515" lon="135.43123"><ele>226</ele></trkpt>
<trkpt lat="35.11287" lon="135.43232"><ele>200</ele></trkpt>
<trkpt lat="35.11262" lon="135.43305"><ele>196</ele></trkpt>
<trkpt lat="35.11285" lon="135.43437"><ele>214</ele></trkpt>
<trkpt lat="35.11215" lon="135.43402"><ele>196</ele></trkpt>
<trkpt lat="35.11141" lon="135.43487"><ele>189</ele></trkpt>
<trkpt lat="35.11091" lon="135.4362"><ele>178</ele></trkpt>
<trkpt lat="35.11018" lon="135.43718"><ele>169</ele></trkpt>
<trkpt lat="35.10848" lon="135.44166"><ele>148</ele></trkpt>
<trkpt lat="35.10665" lon="135.44309"><ele>141</ele></trkpt>
<trkpt lat="35.10592" lon="135.44339"><ele>138</ele></trkpt>
<trkpt lat="35.10455" lon="135.44296"><ele>141</ele></trkpt>
<trkpt lat="35.10144" lon="135.44241"><ele>143</ele></trkpt>
<trkpt lat="35.09178" lon="135.44465"><ele>144</ele></trkpt>
<trkpt lat="35.09086" lon="135.44459"><ele>146</ele></trkpt>
<trkpt lat="35.08916" lon="135.44377"><ele>147</ele></trkpt>
<trkpt lat="35.08916" lon="135.44377"><ele>147</ele></trkpt>
<trkpt lat="35.08866" lon="135.4453"><ele>162</ele></trkpt>
<trkpt lat="35.08882" lon="135.447"><ele>187</ele></trkpt>
<trkpt lat="35.08943" lon="135.44727"><ele>180</ele></trkpt>
<trkpt lat="35.08908" lon="135.44841"><ele>203</ele></trkpt>
<trkpt lat="35.08937" lon="135.45076"><ele>233</ele></trkpt>
<trkpt lat="35.0892" lon="135.45288"><ele>209</ele></trkpt>
<trkpt lat="35.08883" lon="135.45341"><ele>210</ele></trkpt>
<trkpt lat="35.08887" lon="135.45412"><ele>195</ele></trkpt>
<trkpt lat="35.0886" lon="135.45468"><ele>192</ele></trkpt>
<trkpt lat="35.08925" lon="135.4559"><ele>168</ele></trkpt>
<trkpt lat="35.0891" lon="135.45607"><ele>167</ele></trkpt>
<trkpt lat="35.08871" lon="135.45606"><ele>171</ele></trkpt>
<trkpt lat="35.08847" lon="135.45645"><ele>167</ele></trkpt>
<trkpt lat="35.08812" lon="135.45781"><ele>154</ele></trkpt>
<trkpt lat="35.08676" lon="135.46099"><ele>149</ele></trkpt>
<trkpt lat="35.08557" lon="135.46315"><ele>153</ele></trkpt>
<trkpt lat="35.08491" lon="135.46397"><ele>151</ele></trkpt>
<trkpt lat="35.08437" lon="135.46559"><ele>156</ele></trkpt>
<trkpt lat="35.0833" lon="135.48188"><ele>160</ele></trkpt>
<trkpt lat="35.08355" lon="135.48302"><ele>167</ele></trkpt>
<trkpt lat="35.08339" lon="135.48417"><ele>166</ele></trkpt>
<trkpt lat="35.08292" lon="135.48495"><ele>168</ele></trkpt>
<trkpt lat="35.0827" lon="135.48614"><ele>174</ele></trkpt>
<trkpt lat="35.08295" lon="135.48678"><ele>179</ele></trkpt>
<trkpt lat="35.0837" lon="135.4872"><ele>189</ele></trkpt>
<trkpt lat="35.08488" lon="135.48733"><ele>197</ele></trkpt>
<trkpt lat="35.08607" lon="135.48826"><ele>173</ele></trkpt>
<trkpt lat="35.08598" lon="135.4891"><ele>157</ele></trkpt>
<trkpt lat="35.08589" lon="135.48835"><ele>168</ele></trkpt>
<trkpt lat="35.0857" lon="135.48822"><ele>174</ele></trkpt>
<trkpt lat="35.08557" lon="135.48838"><ele>171</ele></trkpt>
<trkpt lat="35.08558" lon="135.4896"><ele>151</ele></trkpt>
<trkpt lat="35.0857" lon="135.49016"><ele>144</ele></trkpt>
<trkpt lat="35.08617" lon="135.49089"><ele>135</ele></trkpt>
<trkpt lat="35.08751" lon="135.49237"><ele>131</ele></trkpt>
<trkpt lat="35.08862" lon="135.49295"><ele>132</ele></trkpt>
<trkpt lat="35.09029" lon="135.49438"><ele>126</ele></trkpt>
<trkpt lat="35.09089" lon="135.49547"><ele>121</ele></trkpt>
<trkpt lat="35.09161" lon="135.49613"><ele>121</ele></trkpt>
<trkpt lat="35.09208" lon="135.49726"><ele>118</ele></trkpt>
<trkpt lat="35.09301" lon="135.49802"><ele>118</ele></trkpt>
<trkpt lat="35.09301" lon="135.49802"><ele>118</ele></trkpt>
<trkpt lat="35.09247" lon="135.50862"><ele>120</ele></trkpt>
<trkpt lat="35.09066" lon="135.51022"><ele>114</ele></trkpt>
<trkpt lat="35.08779" lon="135.51134"><ele>113</ele></trkpt>
<trkpt lat="35.08733" lon="135.51344"><ele>120</ele></trkpt>
<trkpt lat="35.0859" lon="135.5144"><ele>121</ele></trkpt>
<trkpt lat="35.08482" lon="135.51598"><ele>124</ele></trkpt>
<trkpt lat="35.08315" lon="135.51662"><ele>123</ele></trkpt>
<trkpt lat="35.08135" lon="135.51683"><ele>114</ele></trkpt>
<trkpt lat="35.0802" lon="135.51826"><ele>109</ele></trkpt>
<trkpt lat="35.07949" lon="135.52003"><ele>109</ele></trkpt>
<trkpt lat="35.07926" lon="135.52112"><ele>109</ele></trkpt>
<trkpt lat="35.07908" lon="135.52334"><ele>114</ele></trkpt>
<trkpt lat="35.07927" lon="135.52484"><ele>112</ele></trkpt>
<trkpt lat="35.07844" lon="135.52725"><ele>112</ele></trkpt>
<trkpt lat="35.07748" lon="135.52875"><ele>111</ele></trkpt>
<trkpt lat="35.07686" lon="135.53041"><ele>109</ele></trkpt>
<trkpt lat="35.07628" lon="135.53097"><ele>107</ele></trkpt>
<trkpt lat="35.07628" lon="135.53097"><ele>107</ele></trkpt>
<trkpt lat="35.07729" lon="135.53454"><ele>108</ele></trkpt>
<trkpt lat="35.07729" lon="135.53454"><ele>108</ele></trkpt>
<trkpt lat="35.07666" lon="135.53489"><ele>108</ele></trkpt>
<trkpt lat="35.07588" lon="135.53653"><ele>105</ele></trkpt>
<trkpt lat="35.07588" lon="135.53653"><ele>105</ele></trkpt>
<trkpt lat="35.07517" lon="135.53661"><ele>107</ele></trkpt>
<trkpt lat="35.07368" lon="135.53729"><ele>106</ele></trkpt>
<trkpt lat="35.07206" lon="135.53774"><ele>106</ele></trkpt>
<trkpt lat="35.0708" lon="135.53861"><ele>104</ele></trkpt>
<trkpt lat="35.06903" lon="135.54025"><ele>104</ele></trkpt>
<trkpt lat="35.06669" lon="135.54309"><ele>104</ele></trkpt>
<trkpt lat="35.06515" lon="135.54557"><ele>104</ele></trkpt>
<trkpt lat="35.06357" lon="135.54733"><ele>104</ele></trkpt>
<trkpt lat="35.06202" lon="135.54991"><ele>101</ele></trkpt>
<trkpt lat="35.06059" lon="135.55125"><ele>100</ele></trkpt>
<trkpt lat="35.0596" lon="135.55175"><ele>101</ele></trkpt>
<trkpt lat="35.05752" lon="135.55219"><ele>99</ele></trkpt>
<trkpt lat="35.05481" lon="135.55167"><ele>98</ele></trkpt>
<trkpt lat="35.05347" lon="135.55176"><ele>97</ele></trkpt>
<trkpt lat="35.05229" lon="135.55213"><ele>98</ele></trkpt>
<trkpt lat="35.05092" lon="135.55295"><ele>99</ele></trkpt>
<trkpt lat="35.04892" lon="135.55528"><ele>98</ele></trkpt>
<trkpt lat="35.04548" lon="135.55764"><ele>96</ele></trkpt>
<trkpt lat="35.04574" lon="135.55911"><ele>96</ele></trkpt>
<trkpt lat="35.04569" lon="135.56206"><ele>93</ele></trkpt>
<trkpt lat="35.04569" lon="135.56206"><ele>93</ele></trkpt>
<trkpt lat="35.03951" lon="135.56217"><ele>94</ele></trkpt>
<trkpt lat="35.0394" lon="135.56818"><ele>93</ele></trkpt>
<trkpt lat="35.0394" lon="135.56818"><ele>93</ele></trkpt>
<trkpt lat="35.0359" lon="135.56828"><ele>93</ele></trkpt>
<trkpt lat="35.03395" lon="135.56953"><ele>92</ele></trkpt>
<trkpt lat="35.02963" lon="135.56965"><ele>94</ele></trkpt>
<trkpt lat="35.02852" lon="135.57054"><ele>93</ele></trkpt>
<trkpt lat="35.02781" lon="135.57199"><ele>92</ele></trkpt>
<trkpt lat="35.02781" lon="135.57199"><ele>92</ele></trkpt>
<trkpt lat="35.02548" lon="135.57028"><ele>93</ele></trkpt>
<trkpt lat="35.02548" lon="135.57028"><ele>93</ele></trkpt>
<trkpt lat="35.0237" lon="135.57565"><ele>91</ele></trkpt>
<trkpt lat="35.02309" lon="135.57942"><ele>89</ele></trkpt>
<trkpt lat="35.02253" lon="135.58118"><ele>89</ele></trkpt>
<trkpt lat="35.02123" lon="135.58324"><ele>87</ele></trkpt>
<trkpt lat="35.01963" lon="135.58493"><ele>88</ele></trkpt>
<trkpt lat="35.01925" lon="135.58502"><ele>89</ele></trkpt>
</trkseg></trk></gpx>
