<?xml version="1.0" encoding="UTF-8"?>
<gpx version="1.1" creator="kyototamba-karuta" xmlns="http://www.topografix.com/GPX/1/1">
  <metadata>
    <name>京都丹波・年表かるた「琴滝コース」（公式コースの主要地点）</name>
    <desc>道の駅丹波マーケスから玉雲寺をへて琴滝へ。約5km・約1時間15分。 地点間の道順は含みません。公式マップ: https://www.town.kyotamba.kyoto.jp/material/files/group/16/kototaki.pdf</desc>
  </metadata>
  <wpt lat="35.15471" lon="135.42869"><name>道の駅 丹波マーケス</name></wpt>
  <wpt lat="35.14384" lon="135.44049"><name>玉雲寺</name></wpt>
  <wpt lat="35.13883" lon="135.43931"><name>琴滝</name></wpt>
  <rte>
    <name>京都丹波・年表かるた「琴滝コース」（公式コースの主要地点）</name>
    <rtept lat="35.15471" lon="135.42869"><name>道の駅 丹波マーケス</name></rtept>
    <rtept lat="35.14384" lon="135.44049"><name>玉雲寺</name></rtept>
    <rtept lat="35.13883" lon="135.43931"><name>琴滝</name></rtept>
  </rte>
</gpx>
