<?xml version="1.0" encoding="UTF-8"?>
<gpx version="1.1" creator="kyototamba-karuta" xmlns="http://www.topografix.com/GPX/1/1">
<metadata><name>京都丹波周遊ライド（京都丹波サイクルルート）</name><desc>京都丹波サイクルルート 公式85kmコース（intermediate）。出典: 京都府 https://www.pref.kyoto.jp/doroke/news/bic-kyototamba.html ／ Ride with GPS route 37332754。走行は交通ルールに従い自己責任で。</desc><link href="https://www.pref.kyoto.jp/doroke/news/bic-kyototamba.html"/></metadata>
<trk><name>京都丹波周遊ライド</name><trkseg>
<trkpt lat="35.01793" lon="135.58564"><ele>90</ele></trkpt>
<trkpt lat="35.01698" lon="135.58707"><ele>89</ele></trkpt>
<trkpt lat="35.01888" lon="135.58907"><ele>88</ele></trkpt>
<trkpt lat="35.01965" lon="135.5895"><ele>89</ele></trkpt>
<trkpt lat="35.02076" lon="135.58967"><ele>92</ele></trkpt>
<trkpt lat="35.02291" lon="135.58912"><ele>95</ele></trkpt>
<trkpt lat="35.02509" lon="135.58747"><ele>96</ele></trkpt>
<trkpt lat="35.02573" lon="135.58723"><ele>98</ele></trkpt>
<trkpt lat="35.02717" lon="135.58724"><ele>102</ele></trkpt>
<trkpt lat="35.02816" lon="135.58747"><ele>97</ele></trkpt>
<trkpt lat="35.03023" lon="135.58724"><ele>94</ele></trkpt>
<trkpt lat="35.03095" lon="135.58649"><ele>94</ele></trkpt>
<trkpt lat="35.03227" lon="135.58324"><ele>93</ele></trkpt>
<trkpt lat="35.0326" lon="135.58286"><ele>92</ele></trkpt>
<trkpt lat="35.03321" lon="135.58258"><ele>91</ele></trkpt>
<trkpt lat="35.04006" lon="135.58247"><ele>117</ele></trkpt>
<trkpt lat="35.04161" lon="135.58277"><ele>122</ele></trkpt>
<trkpt lat="35.0434" lon="135.58356"><ele>128</ele></trkpt>
<trkpt lat="35.04658" lon="135.58362"><ele>128</ele></trkpt>
<trkpt lat="35.04742" lon="135.58307"><ele>127</ele></trkpt>
<trkpt lat="35.04784" lon="135.5825"><ele>124</ele></trkpt>
<trkpt lat="35.05046" lon="135.58026"><ele>121</ele></trkpt>
<trkpt lat="35.05046" lon="135.58026"><ele>121</ele></trkpt>
<trkpt lat="35.05081" lon="135.58032"><ele>122</ele></trkpt>
<trkpt lat="35.05301" lon="135.57947"><ele>121</ele></trkpt>
<trkpt lat="35.05559" lon="135.57935"><ele>122</ele></trkpt>
<trkpt lat="35.05716" lon="135.57855"><ele>124</ele></trkpt>
<trkpt lat="35.05818" lon="135.57827"><ele>125</ele></trkpt>
<trkpt lat="35.05855" lon="135.57754"><ele>119</ele></trkpt>
<trkpt lat="35.05855" lon="135.57754"><ele>119</ele></trkpt>
<trkpt lat="35.05725" lon="135.57622"><ele>105</ele></trkpt>
<trkpt lat="35.05737" lon="135.57138"><ele>101</ele></trkpt>
<trkpt lat="35.05753" lon="135.57076"><ele>100</ele></trkpt>
<trkpt lat="35.05715" lon="135.56968"><ele>101</ele></trkpt>
<trkpt lat="35.05724" lon="135.56927"><ele>101</ele></trkpt>
<trkpt lat="35.05724" lon="135.56927"><ele>101</ele></trkpt>
<trkpt lat="35.06361" lon="135.56658"><ele>110</ele></trkpt>
<trkpt lat="35.06445" lon="135.56665"><ele>109</ele></trkpt>
<trkpt lat="35.06612" lon="135.56737"><ele>102</ele></trkpt>
<trkpt lat="35.06687" lon="135.56746"><ele>102</ele></trkpt>
<trkpt lat="35.07213" lon="135.56592"><ele>117</ele></trkpt>
<trkpt lat="35.07508" lon="135.56597"><ele>118</ele></trkpt>
<trkpt lat="35.08219" lon="135.56564"><ele>142</ele></trkpt>
<trkpt lat="35.08314" lon="135.56502"><ele>142</ele></trkpt>
<trkpt lat="35.08334" lon="135.56456"><ele>140</ele></trkpt>
<trkpt lat="35.08334" lon="135.56456"><ele>140</ele></trkpt>
<trkpt lat="35.08406" lon="135.56467"><ele>143</ele></trkpt>
<trkpt lat="35.08406" lon="135.56467"><ele>143</ele></trkpt>
<trkpt lat="35.08707" lon="135.56239"><ele>138</ele></trkpt>
<trkpt lat="35.0875" lon="135.56043"><ele>132</ele></trkpt>
<trkpt lat="35.08903" lon="135.5587"><ele>132</ele></trkpt>
<trkpt lat="35.08903" lon="135.5587"><ele>132</ele></trkpt>
<trkpt lat="35.08969" lon="135.55936"><ele>139</ele></trkpt>
<trkpt lat="35.09251" lon="135.55939"><ele>150</ele></trkpt>
<trkpt lat="35.09373" lon="135.55994"><ele>165</ele></trkpt>
<trkpt lat="35.0944" lon="135.56055"><ele>180</ele></trkpt>
<trkpt lat="35.09509" lon="135.56032"><ele>174</ele></trkpt>
<trkpt lat="35.09601" lon="135.56054"><ele>182</ele></trkpt>
<trkpt lat="35.09799" lon="135.56193"><ele>205</ele></trkpt>
<trkpt lat="35.09871" lon="135.56201"><ele>208</ele></trkpt>
<trkpt lat="35.10028" lon="135.56259"><ele>220</ele></trkpt>
<trkpt lat="35.10147" lon="135.56389"><ele>247</ele></trkpt>
<trkpt lat="35.10149" lon="135.56327"><ele>247</ele></trkpt>
<trkpt lat="35.10107" lon="135.56263"><ele>235</ele></trkpt>
<trkpt lat="35.10105" lon="135.56229"><ele>233</ele></trkpt>
<trkpt lat="35.10211" lon="135.56153"><ele>260</ele></trkpt>
<trkpt lat="35.10269" lon="135.56133"><ele>276</ele></trkpt>
<trkpt lat="35.10269" lon="135.56118"><ele>276</ele></trkpt>
<trkpt lat="35.10224" lon="135.56092"><ele>268</ele></trkpt>
<trkpt lat="35.10204" lon="135.56051"><ele>283</ele></trkpt>
<trkpt lat="35.10168" lon="135.56082"><ele>268</ele></trkpt>
<trkpt lat="35.10133" lon="135.56065"><ele>280</ele></trkpt>
<trkpt lat="35.10111" lon="135.56091"><ele>271</ele></trkpt>
<trkpt lat="35.1003" lon="135.56097"><ele>264</ele></trkpt>
<trkpt lat="35.09994" lon="135.55984"><ele>311</ele></trkpt>
<trkpt lat="35.09862" lon="135.55993"><ele>282</ele></trkpt>
<trkpt lat="35.0982" lon="135.55929"><ele>283</ele></trkpt>
<trkpt lat="35.09772" lon="135.55912"><ele>279</ele></trkpt>
<trkpt lat="35.09774" lon="135.55885"><ele>273</ele></trkpt>
<trkpt lat="35.09808" lon="135.55893"><ele>276</ele></trkpt>
<trkpt lat="35.09866" lon="135.55971"><ele>287</ele></trkpt>
<trkpt lat="35.09992" lon="135.55928"><ele>329</ele></trkpt>
<trkpt lat="35.10058" lon="135.55995"><ele>319</ele></trkpt>
<trkpt lat="35.1008" lon="135.55932"><ele>343</ele></trkpt>
<trkpt lat="35.10125" lon="135.55922"><ele>340</ele></trkpt>
<trkpt lat="35.10142" lon="135.55865"><ele>356</ele></trkpt>
<trkpt lat="35.10192" lon="135.55842"><ele>364</ele></trkpt>
<trkpt lat="35.10309" lon="135.55922"><ele>355</ele></trkpt>
<trkpt lat="35.10345" lon="135.55921"><ele>362</ele></trkpt>
<trkpt lat="35.10376" lon="135.55893"><ele>365</ele></trkpt>
<trkpt lat="35.10427" lon="135.55902"><ele>371</ele></trkpt>
<trkpt lat="35.1047" lon="135.55961"><ele>373</ele></trkpt>
<trkpt lat="35.10512" lon="135.55972"><ele>380</ele></trkpt>
<trkpt lat="35.1054" lon="135.56008"><ele>377</ele></trkpt>
<trkpt lat="35.10602" lon="135.56004"><ele>379</ele></trkpt>
<trkpt lat="35.10658" lon="135.5608"><ele>380</ele></trkpt>
<trkpt lat="35.10689" lon="135.56271"><ele>397</ele></trkpt>
<trkpt lat="35.10742" lon="135.56326"><ele>399</ele></trkpt>
<trkpt lat="35.10738" lon="135.56512"><ele>400</ele></trkpt>
<trkpt lat="35.10784" lon="135.56606"><ele>386</ele></trkpt>
<trkpt lat="35.10823" lon="135.56767"><ele>368</ele></trkpt>
<trkpt lat="35.10893" lon="135.56878"><ele>363</ele></trkpt>
<trkpt lat="35.10899" lon="135.56962"><ele>354</ele></trkpt>
<trkpt lat="35.10936" lon="135.57009"><ele>355</ele></trkpt>
<trkpt lat="35.10971" lon="135.5723"><ele>352</ele></trkpt>
<trkpt lat="35.11035" lon="135.57274"><ele>351</ele></trkpt>
<trkpt lat="35.11127" lon="135.57395"><ele>358</ele></trkpt>
<trkpt lat="35.11127" lon="135.57395"><ele>358</ele></trkpt>
<trkpt lat="35.11193" lon="135.57344"><ele>363</ele></trkpt>
<trkpt lat="35.11342" lon="135.57303"><ele>370</ele></trkpt>
<trkpt lat="35.11372" lon="135.57278"><ele>374</ele></trkpt>
<trkpt lat="35.11433" lon="135.57129"><ele>362</ele></trkpt>
<trkpt lat="35.11407" lon="135.56944"><ele>342</ele></trkpt>
<trkpt lat="35.11424" lon="135.56869"><ele>336</ele></trkpt>
<trkpt lat="35.11583" lon="135.56775"><ele>331</ele></trkpt>
<trkpt lat="35.1168" lon="135.56643"><ele>312</ele></trkpt>
<trkpt lat="35.11838" lon="135.56502"><ele>314</ele></trkpt>
<trkpt lat="35.12073" lon="135.56373"><ele>295</ele></trkpt>
<trkpt lat="35.1215" lon="135.56237"><ele>282</ele></trkpt>
<trkpt lat="35.12162" lon="135.56115"><ele>264</ele></trkpt>
<trkpt lat="35.12214" lon="135.56006"><ele>257</ele></trkpt>
<trkpt lat="35.12343" lon="135.55986"><ele>268</ele></trkpt>
<trkpt lat="35.12486" lon="135.55927"><ele>268</ele></trkpt>
<trkpt lat="35.12572" lon="135.5594"><ele>266</ele></trkpt>
<trkpt lat="35.12643" lon="135.5587"><ele>251</ele></trkpt>
<trkpt lat="35.12733" lon="135.55852"><ele>247</ele></trkpt>
<trkpt lat="35.12731" lon="135.55837"><ele>244</ele></trkpt>
<trkpt lat="35.1284" lon="135.55828"><ele>242</ele></trkpt>
<trkpt lat="35.1295" lon="135.55856"><ele>215</ele></trkpt>
<trkpt lat="35.12981" lon="135.55832"><ele>211</ele></trkpt>
<trkpt lat="35.13031" lon="135.55733"><ele>219</ele></trkpt>
<trkpt lat="35.13154" lon="135.55733"><ele>199</ele></trkpt>
<trkpt lat="35.13166" lon="135.55694"><ele>198</ele></trkpt>
<trkpt lat="35.13234" lon="135.5564"><ele>212</ele></trkpt>
<trkpt lat="35.13503" lon="135.55646"><ele>217</ele></trkpt>
<trkpt lat="35.13632" lon="135.55605"><ele>234</ele></trkpt>
<trkpt lat="35.1361" lon="135.55533"><ele>219</ele></trkpt>
<trkpt lat="35.1365" lon="135.55429"><ele>228</ele></trkpt>
<trkpt lat="35.13654" lon="135.55242"><ele>232</ele></trkpt>
<trkpt lat="35.13605" lon="135.55033"><ele>207</ele></trkpt>
<trkpt lat="35.13641" lon="135.5492"><ele>215</ele></trkpt>
<trkpt lat="35.13583" lon="135.5481"><ele>206</ele></trkpt>
<trkpt lat="35.13664" lon="135.54595"><ele>207</ele></trkpt>
<trkpt lat="35.13734" lon="135.54605"><ele>224</ele></trkpt>
<trkpt lat="35.13746" lon="135.54547"><ele>210</ele></trkpt>
<trkpt lat="35.138" lon="135.54531"><ele>220</ele></trkpt>
<trkpt lat="35.13811" lon="135.54485"><ele>212</ele></trkpt>
<trkpt lat="35.1391" lon="135.54421"><ele>211</ele></trkpt>
<trkpt lat="35.13927" lon="135.54383"><ele>214</ele></trkpt>
<trkpt lat="35.13916" lon="135.5433"><ele>214</ele></trkpt>
<trkpt lat="35.13822" lon="135.54259"><ele>225</ele></trkpt>
<trkpt lat="35.13772" lon="135.54142"><ele>219</ele></trkpt>
<trkpt lat="35.13792" lon="135.5407"><ele>215</ele></trkpt>
<trkpt lat="35.13843" lon="135.5402"><ele>213</ele></trkpt>
<trkpt lat="35.13903" lon="135.53996"><ele>207</ele></trkpt>
<trkpt lat="35.1386" lon="135.53726"><ele>209</ele></trkpt>
<trkpt lat="35.13755" lon="135.53748"><ele>216</ele></trkpt>
<trkpt lat="35.13687" lon="135.53818"><ele>215</ele></trkpt>
<trkpt lat="35.13642" lon="135.53824"><ele>221</ele></trkpt>
<trkpt lat="35.1358" lon="135.53868"><ele>218</ele></trkpt>
<trkpt lat="35.13539" lon="135.53869"><ele>222</ele></trkpt>
<trkpt lat="35.1347" lon="135.53933"><ele>209</ele></trkpt>
<trkpt lat="35.13226" lon="135.53967"><ele>217</ele></trkpt>
<trkpt lat="35.1318" lon="135.53949"><ele>226</ele></trkpt>
<trkpt lat="35.13213" lon="135.53862"><ele>225</ele></trkpt>
<trkpt lat="35.13321" lon="135.53785"><ele>224</ele></trkpt>
<trkpt lat="35.13462" lon="135.53554"><ele>215</ele></trkpt>
<trkpt lat="35.13774" lon="135.53356"><ele>242</ele></trkpt>
<trkpt lat="35.13996" lon="135.52884"><ele>226</ele></trkpt>
<trkpt lat="35.14066" lon="135.52833"><ele>216</ele></trkpt>
<trkpt lat="35.14179" lon="135.52815"><ele>210</ele></trkpt>
<trkpt lat="35.14246" lon="135.5276"><ele>206</ele></trkpt>
<trkpt lat="35.14277" lon="135.52678"><ele>201</ele></trkpt>
<trkpt lat="35.14272" lon="135.5261"><ele>206</ele></trkpt>
<trkpt lat="35.14168" lon="135.52419"><ele>226</ele></trkpt>
<trkpt lat="35.14161" lon="135.52303"><ele>216</ele></trkpt>
<trkpt lat="35.14314" lon="135.52033"><ele>219</ele></trkpt>
<trkpt lat="35.14482" lon="135.51855"><ele>204</ele></trkpt>
<trkpt lat="35.14684" lon="135.51579"><ele>208</ele></trkpt>
<trkpt lat="35.1472" lon="135.51554"><ele>217</ele></trkpt>
<trkpt lat="35.14878" lon="135.51532"><ele>199</ele></trkpt>
<trkpt lat="35.15199" lon="135.51566"><ele>166</ele></trkpt>
<trkpt lat="35.1526" lon="135.51542"><ele>171</ele></trkpt>
<trkpt lat="35.15308" lon="135.51496"><ele>169</ele></trkpt>
<trkpt lat="35.15354" lon="135.51345"><ele>168</ele></trkpt>
<trkpt lat="35.15333" lon="135.51204"><ele>157</ele></trkpt>
<trkpt lat="35.15259" lon="135.51066"><ele>155</ele></trkpt>
<trkpt lat="35.15209" lon="135.509"><ele>162</ele></trkpt>
<trkpt lat="35.15209" lon="135.509"><ele>162</ele></trkpt>
<trkpt lat="35.15367" lon="135.5083"><ele>148</ele></trkpt>
<trkpt lat="35.1558" lon="135.50775"><ele>203</ele></trkpt>
<trkpt lat="35.15711" lon="135.50676"><ele>162</ele></trkpt>
<trkpt lat="35.15858" lon="135.50615"><ele>155</ele></trkpt>
<trkpt lat="35.16279" lon="135.50364"><ele>160</ele></trkpt>
<trkpt lat="35.16381" lon="135.5023"><ele>160</ele></trkpt>
<trkpt lat="35.16501" lon="135.49883"><ele>160</ele></trkpt>
<trkpt lat="35.1655" lon="135.4982"><ele>160</ele></trkpt>
<trkpt lat="35.16594" lon="135.49798"><ele>160</ele></trkpt>
<trkpt lat="35.16594" lon="135.49798"><ele>160</ele></trkpt>
<trkpt lat="35.16621" lon="135.496"><ele>163</ele></trkpt>
<trkpt lat="35.16602" lon="135.49181"><ele>176</ele></trkpt>
<trkpt lat="35.16534" lon="135.48989"><ele>175</ele></trkpt>
<trkpt lat="35.16502" lon="135.48827"><ele>172</ele></trkpt>
<trkpt lat="35.16537" lon="135.4871"><ele>187</ele></trkpt>
<trkpt lat="35.16503" lon="135.48535"><ele>186</ele></trkpt>
<trkpt lat="35.16455" lon="135.48463"><ele>183</ele></trkpt>
<trkpt lat="35.16468" lon="135.48234"><ele>192</ele></trkpt>
<trkpt lat="35.16433" lon="135.48125"><ele>188</ele></trkpt>
<trkpt lat="35.16391" lon="135.48075"><ele>186</ele></trkpt>
<trkpt lat="35.16405" lon="135.47947"><ele>192</ele></trkpt>
<trkpt lat="35.16335" lon="135.4771"><ele>189</ele></trkpt>
<trkpt lat="35.16252" lon="135.47611"><ele>190</ele></trkpt>
<trkpt lat="35.16286" lon="135.47501"><ele>199</ele></trkpt>
<trkpt lat="35.16266" lon="135.47399"><ele>197</ele></trkpt>
<trkpt lat="35.16171" lon="135.47295"><ele>197</ele></trkpt>
<trkpt lat="35.16074" lon="135.47228"><ele>196</ele></trkpt>
<trkpt lat="35.16059" lon="135.47186"><ele>200</ele></trkpt>
<trkpt lat="35.16072" lon="135.47118"><ele>203</ele></trkpt>
<trkpt lat="35.16219" lon="135.46831"><ele>211</ele></trkpt>
<trkpt lat="35.16236" lon="135.46688"><ele>207</ele></trkpt>
<trkpt lat="35.16306" lon="135.46528"><ele>211</ele></trkpt>
<trkpt lat="35.1635" lon="135.46"><ele>231</ele></trkpt>
<trkpt lat="35.16396" lon="135.45889"><ele>239</ele></trkpt>
<trkpt lat="35.16594" lon="135.45547"><ele>217</ele></trkpt>
<trkpt lat="35.16614" lon="135.45445"><ele>212</ele></trkpt>
<trkpt lat="35.16596" lon="135.45381"><ele>212</ele></trkpt>
<trkpt lat="35.16504" lon="135.45235"><ele>212</ele></trkpt>
<trkpt lat="35.16458" lon="135.45068"><ele>212</ele></trkpt>
<trkpt lat="35.1638" lon="135.44946"><ele>210</ele></trkpt>
<trkpt lat="35.16365" lon="135.4479"><ele>213</ele></trkpt>
<trkpt lat="35.16341" lon="135.4476"><ele>216</ele></trkpt>
<trkpt lat="35.16182" lon="135.44675"><ele>219</ele></trkpt>
<trkpt lat="35.16155" lon="135.44627"><ele>217</ele></trkpt>
<trkpt lat="35.16181" lon="135.44437"><ele>206</ele></trkpt>
<trkpt lat="35.16109" lon="135.44195"><ele>207</ele></trkpt>
<trkpt lat="35.16057" lon="135.43481"><ele>180</ele></trkpt>
<trkpt lat="35.1603" lon="135.43445"><ele>175</ele></trkpt>
<trkpt lat="35.15914" lon="135.43394"><ele>172</ele></trkpt>
<trkpt lat="35.15803" lon="135.43303"><ele>177</ele></trkpt>
<trkpt lat="35.15531" lon="135.43135"><ele>181</ele></trkpt>
<trkpt lat="35.15485" lon="135.43058"><ele>176</ele></trkpt>
<trkpt lat="35.15347" lon="135.4291"><ele>174</ele></trkpt>
<trkpt lat="35.15167" lon="135.42868"><ele>181</ele></trkpt>
<trkpt lat="35.15119" lon="135.4282"><ele>176</ele></trkpt>
<trkpt lat="35.15119" lon="135.4282"><ele>176</ele></trkpt>
<trkpt lat="35.14903" lon="135.42917"><ele>186</ele></trkpt>
<trkpt lat="35.14864" lon="135.43001"><ele>196</ele></trkpt>
<trkpt lat="35.14833" lon="135.43007"><ele>186</ele></trkpt>
<trkpt lat="35.14743" lon="135.43141"><ele>186</ele></trkpt>
<trkpt lat="35.14658" lon="135.43087"><ele>188</ele></trkpt>
<trkpt lat="35.1444" lon="135.43121"><ele>212</ele></trkpt>
<trkpt lat="35.14352" lon="135.43163"><ele>211</ele></trkpt>
<trkpt lat="35.1429" lon="135.43273"><ele>214</ele></trkpt>
<trkpt lat="35.14211" lon="135.43353"><ele>220</ele></trkpt>
<trkpt lat="35.14047" lon="135.43468"><ele>229</ele></trkpt>
<trkpt lat="35.13944" lon="135.43622"><ele>240</ele></trkpt>
<trkpt lat="35.14047" lon="135.43468"><ele>229</ele></trkpt>
<trkpt lat="35.14211" lon="135.43353"><ele>220</ele></trkpt>
<trkpt lat="35.1429" lon="135.43273"><ele>214</ele></trkpt>
<trkpt lat="35.14352" lon="135.43163"><ele>211</ele></trkpt>
<trkpt lat="35.1444" lon="135.43121"><ele>212</ele></trkpt>
<trkpt lat="35.14658" lon="135.43087"><ele>188</ele></trkpt>
<trkpt lat="35.14743" lon="135.43141"><ele>186</ele></trkpt>
<trkpt lat="35.14833" lon="135.43007"><ele>186</ele></trkpt>
<trkpt lat="35.14864" lon="135.43001"><ele>196</ele></trkpt>
<trkpt lat="35.14898" lon="135.42924"><ele>187</ele></trkpt>
<trkpt lat="35.14982" lon="135.42887"><ele>190</ele></trkpt>
<trkpt lat="35.15027" lon="135.42749"><ele>176</ele></trkpt>
<trkpt lat="35.15027" lon="135.42749"><ele>176</ele></trkpt>
<trkpt lat="35.14874" lon="135.42688"><ele>185</ele></trkpt>
<trkpt lat="35.14874" lon="135.42688"><ele>185</ele></trkpt>
<trkpt lat="35.14844" lon="135.42702"><ele>180</ele></trkpt>
<trkpt lat="35.1451" lon="135.42672"><ele>183</ele></trkpt>
<trkpt lat="35.1451" lon="135.42672"><ele>183</ele></trkpt>
<trkpt lat="35.14316" lon="135.42452"><ele>191</ele></trkpt>
<trkpt lat="35.14314" lon="135.42229"><ele>198</ele></trkpt>
<trkpt lat="35.14256" lon="135.42086"><ele>188</ele></trkpt>
<trkpt lat="35.1414" lon="135.41946"><ele>190</ele></trkpt>
<trkpt lat="35.14078" lon="135.41814"><ele>191</ele></trkpt>
<trkpt lat="35.13924" lon="135.41673"><ele>195</ele></trkpt>
<trkpt lat="35.13603" lon="135.41561"><ele>200</ele></trkpt>
<trkpt lat="35.13519" lon="135.41549"><ele>195</ele></trkpt>
<trkpt lat="35.13298" lon="135.41299"><ele>200</ele></trkpt>
<trkpt lat="35.13158" lon="135.41224"><ele>198</ele></trkpt>
<trkpt lat="35.12939" lon="135.4117"><ele>204</ele></trkpt>
<trkpt lat="35.12683" lon="135.41173"><ele>207</ele></trkpt>
<trkpt lat="35.12582" lon="135.41202"><ele>208</ele></trkpt>
<trkpt lat="35.12548" lon="135.41249"><ele>210</ele></trkpt>
<trkpt lat="35.12543" lon="135.414"><ele>213</ele></trkpt>
<trkpt lat="35.12496" lon="135.41496"><ele>216</ele></trkpt>
<trkpt lat="35.12405" lon="135.41559"><ele>217</ele></trkpt>
<trkpt lat="35.12152" lon="135.41854"><ele>230</ele></trkpt>
<trkpt lat="35.1191" lon="135.42054"><ele>236</ele></trkpt>
<trkpt lat="35.11693" lon="135.42145"><ele>247</ele></trkpt>
<trkpt lat="35.11524" lon="135.42336"><ele>251</ele></trkpt>
<trkpt lat="35.11421" lon="135.42647"><ele>278</ele></trkpt>
<trkpt lat="35.11388" lon="135.4288"><ele>262</ele></trkpt>
<trkpt lat="35.11327" lon="135.4303"><ele>230</ele></trkpt>
<trkpt lat="35.11362" lon="135.43053"><ele>227</ele></trkpt>
<trkpt lat="35.11384" lon="135.43008"><ele>238</ele></trkpt>
<trkpt lat="35.11428" lon="135.42991"><ele>242</ele></trkpt>
<trkpt lat="35.11429" lon="135.42951"><ele>250</ele></trkpt>
<trkpt lat="35.1148" lon="135.42895"><ele>259</ele></trkpt>
<trkpt lat="35.11506" lon="135.43003"><ele>230</ele></trkpt>
<trkpt lat="35.11551" lon="135.42979"><ele>237</ele></trkpt>
<trkpt lat="35.11594" lon="135.42985"><ele>238</ele></trkpt>
<trkpt lat="35.11629" lon="135.42955"><ele>247</ele></trkpt>
<trkpt lat="35.11641" lon="135.43011"><ele>242</ele></trkpt>
<trkpt lat="35.11577" lon="135.43036"><ele>232</ele></trkpt>
<trkpt lat="35.11515" lon="135.43123"><ele>226</ele></trkpt>
<trkpt lat="35.11287" lon="135.43232"><ele>200</ele></trkpt>
<trkpt lat="35.11262" lon="135.43305"><ele>196</ele></trkpt>
<trkpt lat="35.11285" lon="135.43437"><ele>214</ele></trkpt>
<trkpt lat="35.11215" lon="135.43402"><ele>196</ele></trkpt>
<trkpt lat="35.11141" lon="135.43487"><ele>189</ele></trkpt>
<trkpt lat="35.11091" lon="135.4362"><ele>178</ele></trkpt>
<trkpt lat="35.11018" lon="135.43718"><ele>169</ele></trkpt>
<trkpt lat="35.10848" lon="135.44166"><ele>148</ele></trkpt>
<trkpt lat="35.10665" lon="135.44309"><ele>141</ele></trkpt>
<trkpt lat="35.10592" lon="135.44339"><ele>138</ele></trkpt>
<trkpt lat="35.10455" lon="135.44296"><ele>141</ele></trkpt>
<trkpt lat="35.10144" lon="135.44241"><ele>143</ele></trkpt>
<trkpt lat="35.09178" lon="135.44465"><ele>144</ele></trkpt>
<trkpt lat="35.09086" lon="135.44459"><ele>146</ele></trkpt>
<trkpt lat="35.08808" lon="135.44319"><ele>147</ele></trkpt>
<trkpt lat="35.08349" lon="135.44033"><ele>167</ele></trkpt>
<trkpt lat="35.08297" lon="135.43972"><ele>160</ele></trkpt>
<trkpt lat="35.08231" lon="135.43822"><ele>155</ele></trkpt>
<trkpt lat="35.08121" lon="135.43729"><ele>158</ele></trkpt>
<trkpt lat="35.07855" lon="135.43676"><ele>168</ele></trkpt>
<trkpt lat="35.07726" lon="135.43777"><ele>158</ele></trkpt>
<trkpt lat="35.07503" lon="135.43827"><ele>163</ele></trkpt>
<trkpt lat="35.07369" lon="135.43775"><ele>168</ele></trkpt>
<trkpt lat="35.07217" lon="135.43674"><ele>173</ele></trkpt>
<trkpt lat="35.06954" lon="135.43624"><ele>171</ele></trkpt>
<trkpt lat="35.06807" lon="135.43472"><ele>177</ele></trkpt>
<trkpt lat="35.06607" lon="135.43387"><ele>174</ele></trkpt>
<trkpt lat="35.06524" lon="135.43332"><ele>174</ele></trkpt>
<trkpt lat="35.06443" lon="135.43137"><ele>180</ele></trkpt>
<trkpt lat="35.06404" lon="135.43085"><ele>180</ele></trkpt>
<trkpt lat="35.06096" lon="135.42976"><ele>183</ele></trkpt>
<trkpt lat="35.06004" lon="135.42922"><ele>186</ele></trkpt>
<trkpt lat="35.05932" lon="135.42788"><ele>201</ele></trkpt>
<trkpt lat="35.05877" lon="135.42729"><ele>210</ele></trkpt>
<trkpt lat="35.05504" lon="135.42623"><ele>237</ele></trkpt>
<trkpt lat="35.05391" lon="135.42629"><ele>245</ele></trkpt>
<trkpt lat="35.05333" lon="135.42663"><ele>240</ele></trkpt>
<trkpt lat="35.05094" lon="135.42526"><ele>262</ele></trkpt>
<trkpt lat="35.05074" lon="135.42487"><ele>265</ele></trkpt>
<trkpt lat="35.05091" lon="135.4234"><ele>280</ele></trkpt>
<trkpt lat="35.05161" lon="135.4223"><ele>294</ele></trkpt>
<trkpt lat="35.05233" lon="135.4221"><ele>311</ele></trkpt>
<trkpt lat="35.05238" lon="135.42176"><ele>312</ele></trkpt>
<trkpt lat="35.05219" lon="135.42148"><ele>313</ele></trkpt>
<trkpt lat="35.05177" lon="135.42143"><ele>307</ele></trkpt>
<trkpt lat="35.0513" lon="135.42083"><ele>328</ele></trkpt>
<trkpt lat="35.05101" lon="135.41938"><ele>335</ele></trkpt>
<trkpt lat="35.05131" lon="135.41811"><ele>329</ele></trkpt>
<trkpt lat="35.05055" lon="135.41721"><ele>325</ele></trkpt>
<trkpt lat="35.04936" lon="135.41485"><ele>315</ele></trkpt>
<trkpt lat="35.04936" lon="135.41485"><ele>315</ele></trkpt>
<trkpt lat="35.04854" lon="135.41475"><ele>321</ele></trkpt>
<trkpt lat="35.04834" lon="135.41433"><ele>317</ele></trkpt>
<trkpt lat="35.04729" lon="135.41412"><ele>324</ele></trkpt>
<trkpt lat="35.04644" lon="135.41258"><ele>338</ele></trkpt>
<trkpt lat="35.04549" lon="135.4117"><ele>354</ele></trkpt>
<trkpt lat="35.04446" lon="135.41173"><ele>367</ele></trkpt>
<trkpt lat="35.04389" lon="135.41126"><ele>379</ele></trkpt>
<trkpt lat="35.04357" lon="135.41125"><ele>381</ele></trkpt>
<trkpt lat="35.04309" lon="135.41173"><ele>378</ele></trkpt>
<trkpt lat="35.04281" lon="135.41251"><ele>376</ele></trkpt>
<trkpt lat="35.04203" lon="135.41295"><ele>376</ele></trkpt>
<trkpt lat="35.04123" lon="135.41293"><ele>387</ele></trkpt>
<trkpt lat="35.04066" lon="135.41315"><ele>385</ele></trkpt>
<trkpt lat="35.03919" lon="135.41188"><ele>411</ele></trkpt>
<trkpt lat="35.03932" lon="135.41167"><ele>420</ele></trkpt>
<trkpt lat="35.03979" lon="135.41215"><ele>412</ele></trkpt>
<trkpt lat="35.04035" lon="135.41228"><ele>410</ele></trkpt>
<trkpt lat="35.0411" lon="135.4121"><ele>415</ele></trkpt>
<trkpt lat="35.04098" lon="135.41188"><ele>425</ele></trkpt>
<trkpt lat="35.04064" lon="135.41195"><ele>424</ele></trkpt>
<trkpt lat="35.03988" lon="135.4117"><ele>430</ele></trkpt>
<trkpt lat="35.03879" lon="135.41092"><ele>435</ele></trkpt>
<trkpt lat="35.03928" lon="135.40913"><ele>468</ele></trkpt>
<trkpt lat="35.03896" lon="135.40902"><ele>461</ele></trkpt>
<trkpt lat="35.03853" lon="135.40812"><ele>475</ele></trkpt>
<trkpt lat="35.03797" lon="135.40753"><ele>476</ele></trkpt>
<trkpt lat="35.03768" lon="135.40614"><ele>495</ele></trkpt>
<trkpt lat="35.03695" lon="135.40595"><ele>482</ele></trkpt>
<trkpt lat="35.03653" lon="135.40431"><ele>505</ele></trkpt>
<trkpt lat="35.03538" lon="135.40253"><ele>518</ele></trkpt>
<trkpt lat="35.03513" lon="135.40243"><ele>518</ele></trkpt>
<trkpt lat="35.03396" lon="135.40292"><ele>518</ele></trkpt>
<trkpt lat="35.03269" lon="135.40282"><ele>523</ele></trkpt>
<trkpt lat="35.03152" lon="135.40121"><ele>525</ele></trkpt>
<trkpt lat="35.03155" lon="135.40032"><ele>529</ele></trkpt>
<trkpt lat="35.03101" lon="135.39939"><ele>523</ele></trkpt>
<trkpt lat="35.03102" lon="135.39883"><ele>524</ele></trkpt>
<trkpt lat="35.03227" lon="135.39792"><ele>532</ele></trkpt>
<trkpt lat="35.03356" lon="135.39626"><ele>533</ele></trkpt>
<trkpt lat="35.03373" lon="135.39577"><ele>532</ele></trkpt>
<trkpt lat="35.03356" lon="135.39507"><ele>532</ele></trkpt>
<trkpt lat="35.03293" lon="135.39472"><ele>535</ele></trkpt>
<trkpt lat="35.03196" lon="135.39491"><ele>536</ele></trkpt>
<trkpt lat="35.03156" lon="135.39448"><ele>546</ele></trkpt>
<trkpt lat="35.03101" lon="135.39429"><ele>554</ele></trkpt>
<trkpt lat="35.0308" lon="135.393"><ele>561</ele></trkpt>
<trkpt lat="35.02952" lon="135.39082"><ele>567</ele></trkpt>
<trkpt lat="35.02895" lon="135.39047"><ele>571</ele></trkpt>
<trkpt lat="35.02861" lon="135.38997"><ele>574</ele></trkpt>
<trkpt lat="35.02758" lon="135.38947"><ele>570</ele></trkpt>
<trkpt lat="35.0267" lon="135.38989"><ele>565</ele></trkpt>
<trkpt lat="35.02589" lon="135.38991"><ele>555</ele></trkpt>
<trkpt lat="35.02547" lon="135.38917"><ele>553</ele></trkpt>
<trkpt lat="35.02549" lon="135.38869"><ele>547</ele></trkpt>
<trkpt lat="35.02587" lon="135.38819"><ele>549</ele></trkpt>
<trkpt lat="35.02587" lon="135.3878"><ele>540</ele></trkpt>
<trkpt lat="35.02632" lon="135.38771"><ele>552</ele></trkpt>
<trkpt lat="35.02637" lon="135.38752"><ele>551</ele></trkpt>
<trkpt lat="35.02568" lon="135.38687"><ele>534</ele></trkpt>
<trkpt lat="35.02517" lon="135.38669"><ele>522</ele></trkpt>
<trkpt lat="35.02472" lon="135.38592"><ele>518</ele></trkpt>
<trkpt lat="35.02465" lon="135.38504"><ele>516</ele></trkpt>
<trkpt lat="35.02412" lon="135.3844"><ele>516</ele></trkpt>
<trkpt lat="35.02393" lon="135.38443"><ele>515</ele></trkpt>
<trkpt lat="35.02413" lon="135.38518"><ele>507</ele></trkpt>
<trkpt lat="35.02384" lon="135.38657"><ele>496</ele></trkpt>
<trkpt lat="35.0242" lon="135.38766"><ele>493</ele></trkpt>
<trkpt lat="35.02371" lon="135.38952"><ele>491</ele></trkpt>
<trkpt lat="35.02411" lon="135.39162"><ele>487</ele></trkpt>
<trkpt lat="35.02357" lon="135.3919"><ele>480</ele></trkpt>
<trkpt lat="35.02267" lon="135.39285"><ele>473</ele></trkpt>
<trkpt lat="35.02218" lon="135.39429"><ele>475</ele></trkpt>
<trkpt lat="35.02206" lon="135.3954"><ele>476</ele></trkpt>
<trkpt lat="35.02143" lon="135.39594"><ele>462</ele></trkpt>
<trkpt lat="35.02107" lon="135.39716"><ele>456</ele></trkpt>
<trkpt lat="35.02169" lon="135.39961"><ele>453</ele></trkpt>
<trkpt lat="35.0215" lon="135.40275"><ele>440</ele></trkpt>
<trkpt lat="35.02138" lon="135.40312"><ele>440</ele></trkpt>
<trkpt lat="35.02071" lon="135.4038"><ele>428</ele></trkpt>
<trkpt lat="35.0194" lon="135.40797"><ele>407</ele></trkpt>
<trkpt lat="35.01804" lon="135.40954"><ele>400</ele></trkpt>
<trkpt lat="35.01795" lon="135.41264"><ele>386</ele></trkpt>
<trkpt lat="35.01732" lon="135.41568"><ele>365</ele></trkpt>
<trkpt lat="35.01736" lon="135.41854"><ele>345</ele></trkpt>
<trkpt lat="35.01758" lon="135.41943"><ele>343</ele></trkpt>
<trkpt lat="35.0172" lon="135.42032"><ele>340</ele></trkpt>
<trkpt lat="35.01734" lon="135.42114"><ele>341</ele></trkpt>
<trkpt lat="35.01536" lon="135.42391"><ele>320</ele></trkpt>
<trkpt lat="35.01504" lon="135.42466"><ele>315</ele></trkpt>
<trkpt lat="35.015" lon="135.42521"><ele>312</ele></trkpt>
<trkpt lat="35.01605" lon="135.42619"><ele>314</ele></trkpt>
<trkpt lat="35.01611" lon="135.42662"><ele>312</ele></trkpt>
<trkpt lat="35.0159" lon="135.4272"><ele>307</ele></trkpt>
<trkpt lat="35.01522" lon="135.42766"><ele>301</ele></trkpt>
<trkpt lat="35.01431" lon="135.43082"><ele>289</ele></trkpt>
<trkpt lat="35.01428" lon="135.43174"><ele>290</ele></trkpt>
<trkpt lat="35.01249" lon="135.43563"><ele>300</ele></trkpt>
<trkpt lat="35.01265" lon="135.43688"><ele>307</ele></trkpt>
<trkpt lat="35.01232" lon="135.43792"><ele>310</ele></trkpt>
<trkpt lat="35.01322" lon="135.43953"><ele>326</ele></trkpt>
<trkpt lat="35.01354" lon="135.44414"><ele>339</ele></trkpt>
<trkpt lat="35.01295" lon="135.44537"><ele>342</ele></trkpt>
<trkpt lat="35.01258" lon="135.44705"><ele>344</ele></trkpt>
<trkpt lat="35.0117" lon="135.448"><ele>349</ele></trkpt>
<trkpt lat="35.01128" lon="135.45133"><ele>374</ele></trkpt>
<trkpt lat="35.01107" lon="135.45184"><ele>378</ele></trkpt>
<trkpt lat="35.0105" lon="135.45243"><ele>382</ele></trkpt>
<trkpt lat="35.01016" lon="135.45371"><ele>393</ele></trkpt>
<trkpt lat="35.01018" lon="135.45422"><ele>389</ele></trkpt>
<trkpt lat="35.01078" lon="135.45554"><ele>381</ele></trkpt>
<trkpt lat="35.01026" lon="135.45775"><ele>362</ele></trkpt>
<trkpt lat="35.01023" lon="135.4592"><ele>354</ele></trkpt>
<trkpt lat="35.01071" lon="135.46056"><ele>351</ele></trkpt>
<trkpt lat="35.01036" lon="135.46144"><ele>341</ele></trkpt>
<trkpt lat="35.01008" lon="135.4606"><ele>340</ele></trkpt>
<trkpt lat="35.00986" lon="135.46038"><ele>340</ele></trkpt>
<trkpt lat="35.00971" lon="135.46045"><ele>338</ele></trkpt>
<trkpt lat="35.00988" lon="135.46127"><ele>332</ele></trkpt>
<trkpt lat="35.00967" lon="135.46452"><ele>315</ele></trkpt>
<trkpt lat="35.0095" lon="135.46448"><ele>312</ele></trkpt>
<trkpt lat="35.00894" lon="135.46273"><ele>310</ele></trkpt>
<trkpt lat="35.00867" lon="135.46285"><ele>307</ele></trkpt>
<trkpt lat="35.00835" lon="135.46353"><ele>296</ele></trkpt>
<trkpt lat="35.00828" lon="135.46454"><ele>290</ele></trkpt>
<trkpt lat="35.00876" lon="135.46601"><ele>288</ele></trkpt>
<trkpt lat="35.00831" lon="135.46742"><ele>278</ele></trkpt>
<trkpt lat="35.00828" lon="135.46973"><ele>268</ele></trkpt>
<trkpt lat="35.00797" lon="135.47065"><ele>258</ele></trkpt>
<trkpt lat="35.00707" lon="135.472"><ele>235</ele></trkpt>
<trkpt lat="35.00684" lon="135.47278"><ele>227</ele></trkpt>
<trkpt lat="35.00625" lon="135.47518"><ele>219</ele></trkpt>
<trkpt lat="35.00603" lon="135.47804"><ele>210</ele></trkpt>
<trkpt lat="35.0062" lon="135.4791"><ele>211</ele></trkpt>
<trkpt lat="35.00688" lon="135.48014"><ele>212</ele></trkpt>
<trkpt lat="35.01051" lon="135.48219"><ele>207</ele></trkpt>
<trkpt lat="35.01173" lon="135.48409"><ele>202</ele></trkpt>
<trkpt lat="35.01211" lon="135.4853"><ele>201</ele></trkpt>
<trkpt lat="35.01334" lon="135.48584"><ele>201</ele></trkpt>
<trkpt lat="35.01347" lon="135.4865"><ele>199</ele></trkpt>
<trkpt lat="35.01323" lon="135.48828"><ele>201</ele></trkpt>
<trkpt lat="35.01335" lon="135.4887"><ele>205</ele></trkpt>
<trkpt lat="35.01503" lon="135.49022"><ele>201</ele></trkpt>
<trkpt lat="35.01562" lon="135.49123"><ele>203</ele></trkpt>
<trkpt lat="35.01909" lon="135.4995"><ele>205</ele></trkpt>
<trkpt lat="35.01943" lon="135.50085"><ele>194</ele></trkpt>
<trkpt lat="35.02025" lon="135.50217"><ele>192</ele></trkpt>
<trkpt lat="35.0207" lon="135.50342"><ele>188</ele></trkpt>
<trkpt lat="35.02115" lon="135.50375"><ele>191</ele></trkpt>
<trkpt lat="35.02122" lon="135.50434"><ele>189</ele></trkpt>
<trkpt lat="35.02161" lon="135.5051"><ele>183</ele></trkpt>
<trkpt lat="35.02119" lon="135.50568"><ele>184</ele></trkpt>
<trkpt lat="35.02019" lon="135.50884"><ele>200</ele></trkpt>
<trkpt lat="35.02035" lon="135.51015"><ele>198</ele></trkpt>
<trkpt lat="35.01999" lon="135.51412"><ele>208</ele></trkpt>
<trkpt lat="35.01945" lon="135.5154"><ele>217</ele></trkpt>
<trkpt lat="35.01842" lon="135.51923"><ele>168</ele></trkpt>
<trkpt lat="35.01742" lon="135.52012"><ele>159</ele></trkpt>
<trkpt lat="35.01695" lon="135.52112"><ele>160</ele></trkpt>
<trkpt lat="35.01697" lon="135.52325"><ele>141</ele></trkpt>
<trkpt lat="35.01612" lon="135.52531"><ele>127</ele></trkpt>
<trkpt lat="35.01634" lon="135.52766"><ele>118</ele></trkpt>
<trkpt lat="35.01782" lon="135.53017"><ele>112</ele></trkpt>
<trkpt lat="35.01661" lon="135.53322"><ele>107</ele></trkpt>
<trkpt lat="35.01527" lon="135.53782"><ele>105</ele></trkpt>
<trkpt lat="35.0148" lon="135.54007"><ele>103</ele></trkpt>
<trkpt lat="35.01441" lon="135.54408"><ele>100</ele></trkpt>
<trkpt lat="35.0131" lon="135.5477"><ele>102</ele></trkpt>
<trkpt lat="35.01316" lon="135.5579"><ele>103</ele></trkpt>
<trkpt lat="35.01162" lon="135.55907"><ele>104</ele></trkpt>
<trkpt lat="35.01162" lon="135.55907"><ele>104</ele></trkpt>
<trkpt lat="35.01237" lon="135.56022"><ele>102</ele></trkpt>
<trkpt lat="35.01324" lon="135.56103"><ele>101</ele></trkpt>
<trkpt lat="35.01428" lon="135.5628"><ele>100</ele></trkpt>
<trkpt lat="35.01612" lon="135.56415"><ele>103</ele></trkpt>
<trkpt lat="35.01708" lon="135.56437"><ele>103</ele></trkpt>
<trkpt lat="35.01708" lon="135.56437"><ele>103</ele></trkpt>
<trkpt lat="35.01526" lon="135.56732"><ele>101</ele></trkpt>
<trkpt lat="35.01378" lon="135.57124"><ele>101</ele></trkpt>
<trkpt lat="35.01378" lon="135.57124"><ele>101</ele></trkpt>
<trkpt lat="35.01415" lon="135.5732"><ele>101</ele></trkpt>
<trkpt lat="35.0168" lon="135.57358"><ele>97</ele></trkpt>
<trkpt lat="35.0169" lon="135.5747"><ele>99</ele></trkpt>
<trkpt lat="35.01744" lon="135.57668"><ele>92</ele></trkpt>
<trkpt lat="35.01744" lon="135.57668"><ele>92</ele></trkpt>
<trkpt lat="35.0175" lon="135.57855"><ele>91</ele></trkpt>
<trkpt lat="35.01795" lon="135.57914"><ele>89</ele></trkpt>
<trkpt lat="35.0184" lon="135.58084"><ele>90</ele></trkpt>
<trkpt lat="35.01837" lon="135.58465"><ele>90</ele></trkpt>
<trkpt lat="35.01798" lon="135.58548"><ele>90</ele></trkpt>
</trkseg></trk></gpx>
