<?xml version="1.0" encoding="UTF-8"?>
<gpx version="1.1" creator="kyototamba-karuta" xmlns="http://www.topografix.com/GPX/1/1">
<metadata><name>亀岡観光ショートコース（京都丹波サイクルルート）</name><desc>京都丹波サイクルルート 公式30kmコース（beginner）。出典: 京都府 https://www.pref.kyoto.jp/doroke/news/bic-kyototamba.html ／ Ride with GPS route 37332747。走行は交通ルールに従い自己責任で。</desc><link href="https://www.pref.kyoto.jp/doroke/news/bic-kyototamba.html"/></metadata>
<trk><name>亀岡観光ショートコース</name><trkseg>
<trkpt lat="35.01748" lon="135.58597"><ele>90</ele></trkpt>
<trkpt lat="35.01687" lon="135.58701"><ele>89</ele></trkpt>
<trkpt lat="35.01898" lon="135.58914"><ele>88</ele></trkpt>
<trkpt lat="35.0199" lon="135.58958"><ele>89</ele></trkpt>
<trkpt lat="35.02087" lon="135.58966"><ele>93</ele></trkpt>
<trkpt lat="35.02312" lon="135.589"><ele>96</ele></trkpt>
<trkpt lat="35.02545" lon="135.5873"><ele>97</ele></trkpt>
<trkpt lat="35.02606" lon="135.58719"><ele>99</ele></trkpt>
<trkpt lat="35.02925" lon="135.58746"><ele>91</ele></trkpt>
<trkpt lat="35.03052" lon="135.58708"><ele>95</ele></trkpt>
<trkpt lat="35.03099" lon="135.58643"><ele>94</ele></trkpt>
<trkpt lat="35.03227" lon="135.58327"><ele>93</ele></trkpt>
<trkpt lat="35.03302" lon="135.58263"><ele>91</ele></trkpt>
<trkpt lat="35.04007" lon="135.58248"><ele>117</ele></trkpt>
<trkpt lat="35.04161" lon="135.58278"><ele>122</ele></trkpt>
<trkpt lat="35.04312" lon="135.58349"><ele>127</ele></trkpt>
<trkpt lat="35.0466" lon="135.58362"><ele>128</ele></trkpt>
<trkpt lat="35.04742" lon="135.58307"><ele>127</ele></trkpt>
<trkpt lat="35.04785" lon="135.58251"><ele>125</ele></trkpt>
<trkpt lat="35.05051" lon="135.58022"><ele>120</ele></trkpt>
<trkpt lat="35.05071" lon="135.58035"><ele>122</ele></trkpt>
<trkpt lat="35.05305" lon="135.57945"><ele>121</ele></trkpt>
<trkpt lat="35.05557" lon="135.57935"><ele>122</ele></trkpt>
<trkpt lat="35.05716" lon="135.57854"><ele>124</ele></trkpt>
<trkpt lat="35.05818" lon="135.5783"><ele>125</ele></trkpt>
<trkpt lat="35.05854" lon="135.57754"><ele>119</ele></trkpt>
<trkpt lat="35.05725" lon="135.57626"><ele>105</ele></trkpt>
<trkpt lat="35.05737" lon="135.57148"><ele>102</ele></trkpt>
<trkpt lat="35.05753" lon="135.57076"><ele>100</ele></trkpt>
<trkpt lat="35.05715" lon="135.56969"><ele>101</ele></trkpt>
<trkpt lat="35.05725" lon="135.56927"><ele>101</ele></trkpt>
<trkpt lat="35.05537" lon="135.57014"><ele>99</ele></trkpt>
<trkpt lat="35.05458" lon="135.57074"><ele>99</ele></trkpt>
<trkpt lat="35.05434" lon="135.57009"><ele>98</ele></trkpt>
<trkpt lat="35.05443" lon="135.56441"><ele>99</ele></trkpt>
<trkpt lat="35.0542" lon="135.562"><ele>98</ele></trkpt>
<trkpt lat="35.05204" lon="135.55309"><ele>97</ele></trkpt>
<trkpt lat="35.05062" lon="135.54869"><ele>100</ele></trkpt>
<trkpt lat="35.05036" lon="135.54485"><ele>101</ele></trkpt>
<trkpt lat="35.05057" lon="135.53539"><ele>110</ele></trkpt>
<trkpt lat="35.05111" lon="135.53332"><ele>111</ele></trkpt>
<trkpt lat="35.05262" lon="135.53249"><ele>117</ele></trkpt>
<trkpt lat="35.05379" lon="135.52974"><ele>128</ele></trkpt>
<trkpt lat="35.05367" lon="135.52918"><ele>131</ele></trkpt>
<trkpt lat="35.05296" lon="135.5285"><ele>139</ele></trkpt>
<trkpt lat="35.05265" lon="135.52781"><ele>144</ele></trkpt>
<trkpt lat="35.05263" lon="135.52609"><ele>157</ele></trkpt>
<trkpt lat="35.053" lon="135.52539"><ele>166</ele></trkpt>
<trkpt lat="35.05281" lon="135.52439"><ele>169</ele></trkpt>
<trkpt lat="35.05229" lon="135.52388"><ele>168</ele></trkpt>
<trkpt lat="35.05265" lon="135.52281"><ele>168</ele></trkpt>
<trkpt lat="35.05261" lon="135.52228"><ele>166</ele></trkpt>
<trkpt lat="35.05302" lon="135.52045"><ele>172</ele></trkpt>
<trkpt lat="35.05313" lon="135.51827"><ele>172</ele></trkpt>
<trkpt lat="35.05402" lon="135.51638"><ele>177</ele></trkpt>
<trkpt lat="35.05341" lon="135.51394"><ele>174</ele></trkpt>
<trkpt lat="35.0536" lon="135.5118"><ele>185</ele></trkpt>
<trkpt lat="35.0534" lon="135.51129"><ele>180</ele></trkpt>
<trkpt lat="35.05189" lon="135.50954"><ele>186</ele></trkpt>
<trkpt lat="35.05151" lon="135.50849"><ele>193</ele></trkpt>
<trkpt lat="35.0513" lon="135.50465"><ele>195</ele></trkpt>
<trkpt lat="35.05156" lon="135.50233"><ele>189</ele></trkpt>
<trkpt lat="35.05101" lon="135.50041"><ele>201</ele></trkpt>
<trkpt lat="35.05006" lon="135.49815"><ele>200</ele></trkpt>
<trkpt lat="35.04967" lon="135.49556"><ele>196</ele></trkpt>
<trkpt lat="35.04667" lon="135.48934"><ele>189</ele></trkpt>
<trkpt lat="35.04608" lon="135.48584"><ele>186</ele></trkpt>
<trkpt lat="35.04275" lon="135.48227"><ele>178</ele></trkpt>
<trkpt lat="35.04123" lon="135.48341"><ele>179</ele></trkpt>
<trkpt lat="35.038" lon="135.48447"><ele>178</ele></trkpt>
<trkpt lat="35.03425" lon="135.48706"><ele>181</ele></trkpt>
<trkpt lat="35.0318" lon="135.49032"><ele>183</ele></trkpt>
<trkpt lat="35.02405" lon="135.49454"><ele>188</ele></trkpt>
<trkpt lat="35.02334" lon="135.49582"><ele>197</ele></trkpt>
<trkpt lat="35.02246" lon="135.50023"><ele>202</ele></trkpt>
<trkpt lat="35.02123" lon="135.5026"><ele>191</ele></trkpt>
<trkpt lat="35.02115" lon="135.50399"><ele>191</ele></trkpt>
<trkpt lat="35.02161" lon="135.50511"><ele>183</ele></trkpt>
<trkpt lat="35.0212" lon="135.50568"><ele>184</ele></trkpt>
<trkpt lat="35.02019" lon="135.50885"><ele>200</ele></trkpt>
<trkpt lat="35.02035" lon="135.51015"><ele>198</ele></trkpt>
<trkpt lat="35.02009" lon="135.51378"><ele>210</ele></trkpt>
<trkpt lat="35.01945" lon="135.5154"><ele>217</ele></trkpt>
<trkpt lat="35.01842" lon="135.51923"><ele>168</ele></trkpt>
<trkpt lat="35.01743" lon="135.52012"><ele>159</ele></trkpt>
<trkpt lat="35.01696" lon="135.52112"><ele>159</ele></trkpt>
<trkpt lat="35.01698" lon="135.52325"><ele>141</ele></trkpt>
<trkpt lat="35.01613" lon="135.52532"><ele>127</ele></trkpt>
<trkpt lat="35.01635" lon="135.52767"><ele>118</ele></trkpt>
<trkpt lat="35.01782" lon="135.53018"><ele>112</ele></trkpt>
<trkpt lat="35.01662" lon="135.53323"><ele>107</ele></trkpt>
<trkpt lat="35.01508" lon="135.53848"><ele>104</ele></trkpt>
<trkpt lat="35.0144" lon="135.54411"><ele>100</ele></trkpt>
<trkpt lat="35.01309" lon="135.54771"><ele>102</ele></trkpt>
<trkpt lat="35.01318" lon="135.55789"><ele>103</ele></trkpt>
<trkpt lat="35.01162" lon="135.55907"><ele>104</ele></trkpt>
<trkpt lat="35.01227" lon="135.5601"><ele>102</ele></trkpt>
<trkpt lat="35.01323" lon="135.56103"><ele>101</ele></trkpt>
<trkpt lat="35.01427" lon="135.5628"><ele>100</ele></trkpt>
<trkpt lat="35.01615" lon="135.56417"><ele>103</ele></trkpt>
<trkpt lat="35.01707" lon="135.56436"><ele>103</ele></trkpt>
<trkpt lat="35.01512" lon="135.56763"><ele>100</ele></trkpt>
<trkpt lat="35.01378" lon="135.57128"><ele>101</ele></trkpt>
<trkpt lat="35.01417" lon="135.5732"><ele>101</ele></trkpt>
<trkpt lat="35.01672" lon="135.57351"><ele>97</ele></trkpt>
<trkpt lat="35.01681" lon="135.57365"><ele>98</ele></trkpt>
<trkpt lat="35.01744" lon="135.57701"><ele>92</ele></trkpt>
<trkpt lat="35.01739" lon="135.57826"><ele>91</ele></trkpt>
<trkpt lat="35.01812" lon="135.57965"><ele>89</ele></trkpt>
<trkpt lat="35.0183" lon="135.58064"><ele>90</ele></trkpt>
<trkpt lat="35.01837" lon="135.58471"><ele>90</ele></trkpt>
<trkpt lat="35.01793" lon="135.58558"><ele>90</ele></trkpt>
<trkpt lat="35.01748" lon="135.58596"><ele>90</ele></trkpt>
</trkseg></trk></gpx>
